{"type":"FeatureCollection","features":[{"type":"Feature","properties":{"sigla":"ZWE","nome":"Zimb\u00e1bue"},"geometry":{"type":"Polygon","coordinates":[[[31.287891,-22.402051],[29.364844,-22.193945],[29.042383,-22.018359],[29.025586,-21.796875],[28.014063,-21.554199],[27.669434,-21.064258],[27.699609,-20.530664],[27.280762,-20.478711],[27.178223,-20.100977],[26.168066,-19.538281],[25.258789,-17.793555],[25.995898,-17.969824],[27.020801,-17.958398],[27.932227,-16.896191],[28.760547,-16.532129],[28.913086,-15.987793],[29.72959,-15.644629],[30.396094,-15.643066],[30.437793,-15.995313],[31.23623,-16.023633],[31.939844,-16.428809],[32.948047,-16.712305],[32.993066,-18.35957],[32.699707,-18.940918],[32.849805,-19.104395],[32.777637,-19.38877],[32.992773,-19.984863],[32.492383,-20.659766],[32.429785,-21.29707],[31.287891,-22.402051]]]}},{"type":"Feature","properties":{"sigla":"ZMB","nome":"Z\u00e2mbia"},"geometry":{"type":"Polygon","coordinates":[[[30.396094,-15.643066],[29.487305,-15.696777],[28.913086,-15.987793],[28.760547,-16.532129],[27.932227,-16.896191],[27.020801,-17.958398],[26.779883,-18.041504],[25.863281,-17.951953],[24.73291,-17.517773],[23.380664,-17.640625],[22.150684,-16.597168],[22.040234,-16.262793],[21.978906,-13.000977],[23.962988,-12.988477],[23.966504,-10.871777],[24.365723,-11.129883],[24.37793,-11.41709],[25.28877,-11.212402],[25.349414,-11.623047],[26.025977,-11.890137],[26.824023,-11.965234],[27.15918,-11.579199],[27.573828,-12.227051],[28.412891,-12.518066],[29.014258,-13.368848],[29.554199,-13.248926],[29.775195,-13.438086],[29.795117,-12.155469],[29.508203,-12.228223],[29.485547,-12.418457],[29.064355,-12.348828],[28.383398,-11.566699],[28.645508,-10.550195],[28.604199,-9.678809],[28.400684,-9.224805],[28.869531,-8.78584],[28.898145,-8.485449],[30.751172,-8.193652],[31.033398,-8.597656],[31.449219,-8.653906],[31.673633,-8.908789],[33.195703,-9.626172],[33.661523,-10.553125],[33.261328,-10.893359],[33.379785,-11.15791],[33.232715,-11.417676],[33.252344,-12.112598],[33.512305,-12.347754],[33.021582,-12.630469],[32.967578,-13.225],[32.67041,-13.59043],[32.99209,-14.022168],[33.201758,-14.013379],[30.231836,-14.990332],[30.396094,-15.643066]]]}},{"type":"Feature","properties":{"sigla":"UGA","nome":"Uganda"},"geometry":{"type":"Polygon","coordinates":[[[33.903223,-1.002051],[30.80918,-0.994922],[30.360254,-1.074609],[29.930078,-1.469922],[29.825391,-1.335547],[29.576953,-1.387891],[29.717676,0.09834],[29.942871,0.819238],[31.252734,2.04458],[31.176367,2.270068],[30.728613,2.455371],[30.838574,3.490723],[31.048047,3.725],[31.798047,3.802637],[32.135938,3.519727],[32.997266,3.880176],[33.489355,3.755078],[33.976074,4.220215],[34.165039,3.812988],[34.437695,3.650586],[34.447852,3.163477],[34.905762,2.479687],[34.976465,1.719629],[34.798633,1.244531],[34.481738,1.042139],[33.943164,0.173779],[33.903223,-1.002051]]]}},{"type":"Feature","properties":{"sigla":"TUN","nome":"Tun\u00edsia"},"geometry":{"type":"MultiPolygon","coordinates":[[[[11.50459,33.181934],[11.50498,32.413672],[10.274609,31.684961],[10.114941,31.46377],[10.216406,30.783203],[9.89502,30.387305],[9.51875,30.229395],[9.044043,32.072363],[8.333398,32.543604],[8.1125,33.055322],[7.731348,33.268506],[7.500195,33.832471],[7.513867,34.080518],[8.245605,34.734082],[8.394238,35.203857],[8.24707,35.801807],[8.34873,36.367969],[8.207617,36.518945],[8.576563,36.937207],[9.687988,37.340381],[9.838477,37.308984],[9.830273,37.135352],[9.875586,37.25415],[10.196387,37.205859],[10.412305,36.731836],[11.053906,37.07251],[11.12666,36.874072],[10.476562,36.175146],[10.59082,35.887256],[11.004297,35.633838],[11.120117,35.240283],[10.049023,34.056299],[10.305273,33.728271],[10.713184,33.689014],[10.722754,33.514404],[10.958008,33.626318],[11.202637,33.249219],[11.50459,33.181934]]],[[[11.278027,34.753809],[11.123633,34.681689],[11.254883,34.820312],[11.278027,34.753809]]],[[[10.957617,33.72207],[10.72207,33.738916],[10.745215,33.888672],[11.017871,33.82334],[10.957617,33.72207]]]]}},{"type":"Feature","properties":{"sigla":"TGO","nome":"Togo"},"geometry":{"type":"Polygon","coordinates":[[[0.900488,10.993262],[0.763379,10.38667],[1.330078,9.996973],[1.385742,9.36167],[1.600195,9.050049],[1.530957,6.992432],[1.77793,6.294629],[1.187207,6.089404],[0.736914,6.452588],[0.525586,6.850928],[0.634766,7.353662],[0.5,7.546875],[0.688086,8.304248],[0.372559,8.759277],[0.525684,9.398486],[0.233398,9.463525],[0.380859,10.291846],[-0.090186,10.715527],[-0.068604,11.115625],[0.900488,10.993262]]]}},{"type":"Feature","properties":{"sigla":"TZA","nome":"Tanz\u00e2nia"},"geometry":{"type":"MultiPolygon","coordinates":[[[[39.496484,-6.174609],[39.480957,-6.453711],[39.182324,-6.172559],[39.308984,-5.721973],[39.496484,-6.174609]]],[[[39.865039,-4.906152],[39.749316,-5.443848],[39.673438,-4.927051],[39.865039,-4.906152]]],[[[32.919922,-9.407422],[31.942578,-9.054004],[31.350586,-8.607031],[30.968359,-8.550977],[30.212695,-7.037891],[29.54082,-6.313867],[29.607031,-5.722656],[29.323438,-4.898828],[29.403223,-4.449316],[29.947266,-4.307324],[30.811426,-3.200586],[30.780273,-2.984863],[30.424023,-2.824023],[30.533691,-2.42627],[30.828711,-2.338477],[30.876563,-2.143359],[30.812598,-1.563086],[30.519922,-1.0625],[33.979395,-1.002051],[37.643848,-3.04541],[37.608203,-3.49707],[39.221777,-4.692383],[38.804688,-6.070117],[38.874023,-6.33125],[39.546094,-7.024023],[39.288477,-7.517871],[39.441016,-8.011523],[39.304004,-8.443848],[39.641309,-9.19248],[39.725195,-10.000488],[40.463574,-10.464355],[39.988672,-10.820801],[38.491797,-11.413281],[37.920215,-11.294727],[37.724805,-11.580664],[37.372852,-11.710449],[36.978906,-11.566992],[36.305664,-11.706348],[35.911328,-11.454688],[35.564355,-11.602344],[34.959473,-11.578125],[34.60791,-11.080469],[34.569922,-10.241113],[34.320898,-9.731543],[33.995605,-9.49541],[33.888867,-9.670117],[32.919922,-9.407422]]],[[[39.711328,-7.977441],[39.60293,-7.936133],[39.907129,-7.649219],[39.711328,-7.977441]]]]}},{"type":"Feature","properties":{"sigla":"SWZ","nome":"Essuat\u00edni"},"geometry":{"type":"Polygon","coordinates":[[[31.948242,-25.957617],[32.112891,-26.839453],[31.994727,-26.81748],[31.958398,-27.305859],[31.063379,-27.112305],[30.794336,-26.764258],[30.789062,-26.455469],[31.088086,-25.980664],[31.382617,-25.742969],[31.948242,-25.957617]]]}},{"type":"Feature","properties":{"sigla":"SDS","nome":"Sud\u00e3o do Sul"},"geometry":{"type":"Polygon","coordinates":[[[33.976074,4.220215],[33.489355,3.755078],[32.997266,3.880176],[32.135938,3.519727],[31.798047,3.802637],[31.547168,3.677588],[31.152344,3.785596],[30.838574,3.490723],[29.552051,4.636035],[29.224902,4.391895],[28.727051,4.50498],[28.19209,4.350244],[27.491016,4.967578],[27.143945,5.722949],[26.514258,6.069238],[26.361816,6.635303],[25.278906,7.42749],[25.200391,7.80791],[24.85332,8.137549],[24.291406,8.291406],[24.160449,8.696289],[24.531934,8.886914],[25.066992,10.293799],[25.798047,10.420508],[26.658691,9.484131],[27.880859,9.601611],[28.048926,9.328613],[28.844531,9.326074],[28.97959,9.594189],[29.473145,9.768604],[29.605469,10.065088],[30.003027,10.277393],[30.755371,9.731201],[31.154492,9.770947],[32.420801,11.089111],[32.338477,11.710107],[32.072266,12.006738],[32.736719,12.009668],[32.721875,12.223096],[33.199316,12.217285],[33.130078,10.745947],[33.907031,10.181445],[33.871484,9.506152],[34.078125,9.461523],[34.101758,8.676367],[33.95332,8.443506],[33.281055,8.437256],[32.998926,7.899512],[33.902441,7.509521],[34.710645,6.660303],[35.268359,5.492285],[33.976074,4.220215]]]}},{"type":"Feature","properties":{"sigla":"SDN","nome":"Sud\u00e3o"},"geometry":{"type":"Polygon","coordinates":[[[34.078125,9.461523],[33.871484,9.506152],[33.907031,10.181445],[33.130078,10.745947],[33.199316,12.217285],[32.721875,12.223096],[32.736719,12.009668],[32.072266,12.006738],[32.338477,11.710107],[32.420801,11.089111],[31.154492,9.770947],[30.755371,9.731201],[30.003027,10.277393],[29.605469,10.065088],[29.473145,9.768604],[28.97959,9.594189],[28.844531,9.326074],[28.048926,9.328613],[27.880859,9.601611],[26.658691,9.484131],[25.798047,10.420508],[25.066992,10.293799],[24.531934,8.886914],[24.147363,8.665625],[23.537305,8.81582],[23.468262,9.114746],[23.646289,9.8229],[22.860059,10.919678],[22.922656,11.344873],[22.591113,11.579883],[22.352344,12.660449],[21.825293,12.790527],[22.228125,13.32959],[22.106445,13.799805],[22.538574,14.161865],[22.381543,14.550488],[22.932324,15.162109],[22.933887,15.533105],[23.105176,15.702539],[23.970801,15.721533],[23.980273,19.995947],[24.979492,20.002588],[24.980273,21.99585],[31.20918,21.994873],[31.400293,22.202441],[31.434473,21.99585],[36.871387,21.996729],[36.926953,21.586523],[37.258594,21.108545],[37.141113,20.981787],[37.193164,20.120703],[37.471289,18.820117],[38.609473,18.005078],[38.253516,17.584766],[37.547461,17.324121],[37.411035,17.061719],[37.008984,17.058887],[36.91377,16.296191],[36.426758,15.13208],[36.524316,14.256836],[36.125195,12.757031],[35.670215,12.62373],[35.112305,11.816553],[34.931445,10.864795],[34.771289,10.746191],[34.571875,10.880176],[34.343945,10.658643],[34.078125,9.461523]]]}},{"type":"Feature","properties":{"sigla":"ZAF","nome":"\u00c1frica do Sul"},"geometry":{"type":"MultiPolygon","coordinates":[[[[29.364844,-22.193945],[31.287891,-22.402051],[31.545605,-23.482324],[31.966602,-24.376465],[31.948242,-25.957617],[31.415137,-25.746582],[31.207324,-25.843359],[30.80332,-26.413477],[30.806738,-26.785254],[31.274023,-27.238379],[31.742578,-27.309961],[31.958398,-27.305859],[31.994727,-26.81748],[32.886133,-26.849316],[32.375195,-28.498242],[31.335156,-29.378125],[30.288672,-30.970117],[27.860645,-33.053906],[26.613672,-33.707422],[25.805859,-33.737109],[25.574219,-34.035352],[25.00293,-33.973633],[24.595508,-34.174512],[23.697852,-33.992773],[22.553809,-34.010059],[21.788965,-34.372656],[20.529883,-34.463086],[20.020605,-34.785742],[19.298242,-34.615039],[19.09834,-34.350098],[18.831348,-34.364063],[18.752148,-34.082617],[18.500391,-34.109277],[18.461621,-34.346875],[18.333398,-34.074219],[18.433008,-33.717285],[17.851074,-32.827441],[18.325293,-32.50498],[18.21084,-31.74248],[17.34707,-30.444824],[16.95,-29.403418],[16.447559,-28.617578],[16.755762,-28.452148],[16.875293,-28.12793],[17.05625,-28.031055],[17.358691,-28.269434],[17.447949,-28.698145],[19.245801,-28.90166],[19.539844,-28.574609],[19.980469,-28.45127],[19.980469,-24.776758],[20.430664,-25.14707],[20.793164,-25.915625],[20.626758,-26.443848],[20.685059,-26.822461],[21.694727,-26.840918],[22.597656,-26.132715],[23.05752,-25.312305],[23.389258,-25.291406],[23.89375,-25.600879],[24.748145,-25.817383],[25.443652,-25.714453],[25.912109,-24.747461],[26.397168,-24.613574],[26.835059,-24.24082],[27.085547,-23.57793],[27.758301,-23.196777],[28.210156,-22.693652],[29.364844,-22.193945]],[[28.736914,-30.101953],[29.098047,-29.919043],[29.390723,-29.269727],[28.625781,-28.581738],[27.735547,-28.940039],[27.056934,-29.625586],[27.388477,-30.315918],[27.753125,-30.6],[28.056836,-30.631055],[28.39209,-30.147559],[28.736914,-30.101953]]],[[[37.856934,-46.944238],[37.611816,-46.946484],[37.590039,-46.908008],[37.684863,-46.824023],[37.789551,-46.8375],[37.887695,-46.90166],[37.856934,-46.944238]]]]}},{"type":"Feature","properties":{"sigla":"SOM","nome":"Som\u00e1lia"},"geometry":{"type":"Polygon","coordinates":[[[41.532715,-1.695312],[40.978711,-0.870313],[40.978711,2.842432],[42.024121,4.137939],[42.791602,4.291992],[43.583496,4.85498],[44.940527,4.912012],[47.978223,7.99707],[48.938086,9.451758],[48.938574,11.258447],[50.110059,11.529297],[50.792285,11.983691],[51.254883,11.830713],[51.031836,10.444775],[51.192969,10.554639],[51.38457,10.386523],[50.930078,10.335547],[50.825,9.428174],[49.852051,7.962549],[49.049316,6.173633],[47.975293,4.497021],[46.051172,2.475146],[44.332715,1.390967],[43.467676,0.621631],[41.979883,-0.973047],[41.532715,-1.695312]]]}},{"type":"Feature","properties":{"sigla":"SLE","nome":"Serra Leoa"},"geometry":{"type":"MultiPolygon","coordinates":[[[[-10.283203,8.485156],[-10.647461,7.759375],[-11.50752,6.906543],[-12.485645,7.386279],[-12.480273,7.753271],[-12.850879,7.818701],[-13.272754,8.429736],[-12.894092,8.629785],[-13.181836,8.576904],[-13.206934,8.843115],[-13.059473,8.881152],[-13.292676,9.049219],[-13.028027,9.103564],[-12.427979,9.898145],[-11.273633,9.996533],[-10.690527,9.314258],[-10.747021,9.095264],[-10.500537,8.687549],[-10.712109,8.335254],[-10.283203,8.485156]]],[[[-12.526074,7.436328],[-12.951611,7.57085],[-12.615234,7.637207],[-12.526074,7.436328]]]]}},{"type":"Feature","properties":{"sigla":"SEN","nome":"Senegal"},"geometry":{"type":"Polygon","coordinates":[[[-12.280615,14.809033],[-12.019189,14.206494],[-12.054199,13.633057],[-11.831689,13.31582],[-11.634961,13.369873],[-11.390381,12.941992],[-11.382422,12.479248],[-12.291211,12.328027],[-13.061279,12.48999],[-13.08291,12.633545],[-15.196094,12.679932],[-15.574805,12.490381],[-16.711816,12.354834],[-16.760303,12.525781],[-16.442871,12.609473],[-16.767969,12.628418],[-16.648779,13.15415],[-15.834277,13.156445],[-15.814404,13.325146],[-15.28623,13.395996],[-15.151123,13.556494],[-14.246777,13.23584],[-13.826709,13.407812],[-15.10835,13.812109],[-15.509668,13.58623],[-16.562305,13.587305],[-16.766943,13.904932],[-16.618115,14.040527],[-16.791748,14.00415],[-17.168066,14.640625],[-17.535645,14.755127],[-17.147168,14.922021],[-16.843408,15.293994],[-16.239014,16.531299],[-14.959521,16.678906],[-14.300098,16.580273],[-13.868457,16.148145],[-13.506982,16.135205],[-13.206445,15.616895],[-12.280615,14.809033]]]}},{"type":"Feature","properties":{"sigla":"STP","nome":"S\u00e3o Tom\u00e9 e Pr\u00edncipe"},"geometry":{"type":"MultiPolygon","coordinates":[[[[7.423828,1.567725],[7.386621,1.541553],[7.330664,1.603369],[7.414453,1.699121],[7.450391,1.661963],[7.423828,1.567725]]],[[[6.659961,0.120654],[6.519727,0.066309],[6.468164,0.227344],[6.686914,0.404395],[6.659961,0.120654]]]]}},{"type":"Feature","properties":{"sigla":"RWA","nome":"Ruanda"},"geometry":{"type":"Polygon","coordinates":[[[29.576953,-1.387891],[29.825391,-1.335547],[29.930078,-1.469922],[30.509961,-1.067285],[30.812598,-1.563086],[30.828711,-2.338477],[29.930176,-2.339551],[29.868164,-2.716406],[29.698047,-2.794727],[29.390234,-2.808594],[29.102051,-2.595703],[28.921777,-2.682031],[28.857617,-2.44668],[29.131543,-2.195117],[29.143262,-1.816016],[29.576953,-1.387891]]]}},{"type":"Feature","properties":{"sigla":"NGA","nome":"Nig\u00e9ria"},"geometry":{"type":"MultiPolygon","coordinates":[[[[7.300781,4.418164],[7.14043,4.395117],[7.227344,4.527344],[7.300781,4.418164]]],[[[13.606348,13.70459],[14.063965,13.078516],[14.197461,12.383789],[14.619727,12.150977],[14.575391,11.532422],[13.981445,11.211865],[13.699902,10.873145],[13.269922,10.036182],[13.19873,9.56377],[12.929492,9.42627],[12.731152,8.745654],[12.403516,8.595557],[11.767383,7.272266],[11.861426,7.116406],[11.401758,6.533936],[11.106445,6.457715],[11.008691,6.739111],[10.60625,7.063086],[10.413184,6.877734],[10.143555,6.996436],[9.060156,6.009082],[8.555859,4.755225],[8.233789,4.907471],[8.293066,4.557617],[7.644238,4.525342],[7.530762,4.655176],[7.284375,4.547656],[7.076563,4.716162],[7.154688,4.514404],[6.923242,4.390674],[6.767676,4.724707],[6.860352,4.37334],[6.633008,4.340234],[6.57998,4.475977],[6.55459,4.341406],[6.263672,4.309424],[6.270996,4.432129],[6.17334,4.277393],[5.587793,4.647217],[5.36416,5.259277],[5.549707,5.474219],[5.199219,5.533545],[5.456641,5.611719],[5.112402,5.641553],[4.431348,6.348584],[3.450781,6.427051],[3.716992,6.597949],[3.335547,6.396924],[2.706445,6.369238],[2.774805,9.048535],[3.044922,9.083838],[3.325195,9.778467],[3.602051,10.004541],[3.604102,10.350684],[3.783789,10.435889],[3.716406,11.07959],[3.487793,11.39541],[3.664746,11.762451],[3.64668,12.52998],[4.03877,12.934668],[4.147559,13.457715],[4.421387,13.64751],[5.491992,13.872852],[6.299805,13.658789],[6.937207,13.008203],[7.830469,13.340918],[8.750586,12.908154],[9.615918,12.810645],[10.045117,13.206152],[10.475879,13.330225],[11.411914,13.353613],[12.463184,13.09375],[12.87168,13.449023],[13.606348,13.70459]]]]}},{"type":"Feature","properties":{"sigla":"NER","nome":"N\u00edger"},"geometry":{"type":"Polygon","coordinates":[[[13.606348,13.70459],[12.87168,13.449023],[12.463184,13.09375],[11.411914,13.353613],[10.475879,13.330225],[10.045117,13.206152],[9.615918,12.810645],[8.750586,12.908154],[7.830469,13.340918],[6.937207,13.008203],[6.299805,13.658789],[5.491992,13.872852],[4.664844,13.733203],[4.147559,13.457715],[4.03877,12.934668],[3.64668,12.52998],[3.59541,11.696289],[2.805273,12.383838],[2.366016,12.221924],[2.38916,11.89707],[2.072949,12.309375],[2.22627,12.466064],[2.10459,12.70127],[1.564941,12.6354],[0.987305,13.041895],[0.988477,13.364844],[1.201172,13.35752],[0.618164,13.703418],[0.163867,14.497217],[0.228711,14.963672],[0.947461,14.982129],[1.300195,15.272266],[3.504297,15.356348],[3.876953,15.755273],[4.182129,16.581787],[4.227637,19.142773],[5.836621,19.47915],[7.481738,20.873096],[11.967871,23.517871],[13.48125,23.180176],[14.215527,22.619678],[14.978906,22.996289],[15.181836,21.523389],[15.963184,20.346191],[15.735059,19.904053],[15.474316,16.908398],[14.367969,15.750146],[13.448242,14.380664],[13.606348,13.70459]]]}},{"type":"Feature","properties":{"sigla":"NAM","nome":"Nam\u00edbia"},"geometry":{"type":"Polygon","coordinates":[[[23.380664,-17.640625],[24.73291,-17.517773],[25.258789,-17.793555],[24.243945,-18.023438],[23.599707,-18.459961],[23.219336,-17.999707],[20.974121,-18.318848],[20.970996,-22.000195],[19.977344,-22.000195],[19.980469,-28.45127],[19.539844,-28.574609],[19.161719,-28.93877],[18.102734,-28.87168],[17.447949,-28.698145],[17.358691,-28.269434],[17.05625,-28.031055],[16.447559,-28.617578],[15.719043,-27.96582],[15.287598,-27.275],[14.845215,-25.725684],[14.837109,-25.033203],[14.501563,-24.201953],[14.462793,-22.449121],[13.450586,-20.916699],[12.458203,-18.926758],[11.775879,-18.001758],[11.743066,-17.249219],[12.548145,-17.212695],[13.101172,-16.967676],[14.01748,-17.408887],[18.396387,-17.399414],[18.955273,-17.803516],[20.745508,-18.019727],[23.380664,-17.640625]]]}},{"type":"Feature","properties":{"sigla":"MOZ","nome":"Mo\u00e7ambique"},"geometry":{"type":"Polygon","coordinates":[[[31.287891,-22.402051],[32.429785,-21.29707],[32.492383,-20.659766],[32.992773,-19.984863],[32.777637,-19.38877],[32.849805,-19.104395],[32.699707,-18.940918],[32.993066,-18.35957],[32.948047,-16.712305],[31.939844,-16.428809],[31.23623,-16.023633],[30.409375,-15.978223],[30.231836,-14.990332],[33.201758,-14.013379],[33.636426,-14.568164],[34.375,-14.424805],[34.555469,-15.140918],[34.248242,-15.8875],[34.416406,-16.246777],[35.079883,-16.833887],[35.064648,-17.078613],[35.272559,-17.118457],[35.167188,-16.560254],[35.358496,-16.160547],[35.755273,-16.058301],[35.892773,-14.891797],[35.247461,-13.896875],[34.563672,-13.360156],[34.357813,-12.164746],[34.618555,-11.620215],[35.564355,-11.602344],[35.911328,-11.454688],[36.305664,-11.706348],[36.978906,-11.566992],[37.372852,-11.710449],[37.724805,-11.580664],[37.920215,-11.294727],[38.491797,-11.413281],[39.321582,-11.122559],[40.463574,-10.464355],[40.611719,-10.661523],[40.402832,-11.332031],[40.580859,-12.635547],[40.436816,-12.983105],[40.56875,-12.984668],[40.646094,-14.538672],[40.775,-14.421289],[40.844531,-14.718652],[40.558984,-15.473438],[39.790918,-16.294531],[39.844629,-16.435645],[39.084375,-16.972852],[37.512305,-17.570703],[36.939355,-17.993457],[36.403711,-18.769727],[35.853711,-18.993359],[34.947852,-19.812695],[34.649414,-19.701367],[34.705078,-20.473047],[34.982324,-20.80625],[35.267676,-21.650977],[35.315723,-22.396875],[35.456348,-22.115918],[35.530078,-22.248145],[35.575391,-22.963086],[35.37041,-23.798242],[35.541992,-23.824414],[35.254883,-24.430273],[32.961133,-25.49043],[32.59043,-26.004102],[32.848828,-26.268066],[32.954883,-26.083594],[32.886133,-26.849316],[32.112891,-26.839453],[31.920313,-25.773926],[31.98584,-24.460645],[31.545605,-23.482324],[31.287891,-22.402051]],[[34.641602,-12.013672],[34.591406,-11.971094],[34.541602,-12.018652],[34.621777,-12.066602],[34.641602,-12.013672]],[[34.719336,-12.110645],[34.755957,-12.030762],[34.679883,-12.008887],[34.662109,-12.100781],[34.719336,-12.110645]]]}},{"type":"Feature","properties":{"sigla":"MAR","nome":"Marrocos"},"geometry":{"type":"Polygon","coordinates":[[[-2.219629,35.104199],[-1.795605,34.751904],[-1.679199,33.318652],[-1.45,32.784814],[-1.065527,32.468311],[-1.240332,32.337598],[-1.225928,32.107227],[-2.863428,32.074707],[-3.017383,31.834277],[-3.768164,31.689551],[-3.833398,31.197803],[-3.666797,30.964014],[-4.968262,30.465381],[-5.448779,29.956934],[-6.479736,29.820361],[-6.635352,29.568799],[-7.142432,29.61958],[-8.265186,28.980518],[-8.678418,28.689404],[-8.794873,27.120703],[-9.413037,27.088477],[-9.817871,26.850195],[-10.757764,27.020117],[-11.392578,26.883398],[-11.337891,26.633398],[-11.718213,26.104102],[-12.060986,25.99082],[-12.431152,24.830664],[-12.991162,24.470312],[-13.310986,23.981055],[-13.891113,23.691016],[-14.221191,22.310156],[-14.750977,21.500586],[-17.003076,21.420703],[-16.930859,21.9],[-16.35874,22.594531],[-15.789258,23.792871],[-15.980713,23.670312],[-15.899316,23.844434],[-14.904297,24.719775],[-14.794922,25.40415],[-14.413867,26.253711],[-13.575781,26.735107],[-12.948926,27.91416],[-11.552686,28.310107],[-10.200586,29.380371],[-9.66709,30.109277],[-9.65293,30.447559],[-9.875488,30.71792],[-9.808691,31.424609],[-9.347461,32.086377],[-9.24585,32.572461],[-8.512842,33.252441],[-6.900977,33.969043],[-6.353125,34.776074],[-5.924805,35.785791],[-5.277832,35.902734],[-5.252686,35.614746],[-4.62832,35.206396],[-3.394727,35.211816],[-2.972217,35.407275],[-2.839941,35.127832],[-2.219629,35.104199]]]}},{"type":"Feature","properties":{"sigla":"MRT","nome":"Maurit\u00e2nia"},"geometry":{"type":"MultiPolygon","coordinates":[[[[-16.37334,19.706445],[-16.477002,19.710352],[-16.343652,19.866211],[-16.37334,19.706445]]],[[[-12.280615,14.809033],[-13.206445,15.616895],[-13.409668,16.05918],[-13.868457,16.148145],[-14.53374,16.655957],[-16.239014,16.531299],[-16.535254,15.838379],[-16.463623,16.601514],[-16.078906,17.54585],[-16.046729,18.223145],[-16.213086,19.00332],[-16.514453,19.361963],[-16.305273,19.512646],[-16.444873,19.473145],[-16.210449,20.22793],[-16.92793,21.114795],[-17.048047,20.806152],[-16.964551,21.329248],[-13.016211,21.333936],[-13.153271,22.820508],[-12.62041,23.271338],[-12.023438,23.467578],[-12.016309,25.99541],[-8.682227,25.995508],[-8.68335,27.285937],[-4.822607,24.995605],[-6.594092,24.994629],[-5.628662,16.568652],[-5.359912,16.282861],[-5.5125,15.496289],[-9.176807,15.496094],[-9.350586,15.677393],[-9.446924,15.458203],[-10.696582,15.422656],[-10.948242,15.151123],[-11.502686,15.636816],[-11.760156,15.425537],[-11.940918,14.886914],[-12.104687,14.745361],[-12.280615,14.809033]]]]}},{"type":"Feature","properties":{"sigla":"MLI","nome":"Mali"},"geometry":{"type":"Polygon","coordinates":[[[-11.389404,12.404395],[-11.390381,12.941992],[-11.634961,13.369873],[-11.831689,13.31582],[-12.054199,13.633057],[-12.019189,14.206494],[-12.280615,14.809033],[-12.104687,14.745361],[-11.940918,14.886914],[-11.760156,15.425537],[-11.502686,15.636816],[-10.948242,15.151123],[-10.696582,15.422656],[-9.446924,15.458203],[-9.350586,15.677393],[-9.176807,15.496094],[-5.5125,15.496289],[-5.359912,16.282861],[-5.628662,16.568652],[-6.594092,24.994629],[-4.822607,24.995605],[1.145508,21.102246],[1.165723,20.817432],[1.753223,20.331592],[3.130273,19.850195],[3.255859,19.410938],[3.106055,19.150098],[3.255957,19.013281],[4.227637,19.142773],[4.182129,16.581787],[3.876953,15.755273],[3.504297,15.356348],[1.300195,15.272266],[0.947461,14.982129],[0.21748,14.911475],[-0.666455,15.069775],[-1.973047,14.456543],[-2.113232,14.168457],[-2.586719,14.227588],[-2.95083,13.648438],[-3.248633,13.65835],[-3.301758,13.280762],[-3.527637,13.182715],[-3.947314,13.402197],[-4.328711,13.119043],[-4.2271,12.793701],[-4.480615,12.672217],[-4.428711,12.337598],[-5.288135,11.82793],[-5.250244,11.375781],[-5.490479,11.042383],[-5.523535,10.426025],[-6.03457,10.194824],[-6.238379,10.261621],[-6.261133,10.724072],[-6.423926,10.559131],[-6.65415,10.656445],[-6.693262,10.349463],[-6.950342,10.342334],[-7.01709,10.143262],[-7.497949,10.439795],[-7.990625,10.1625],[-8.26665,10.485986],[-8.337402,10.990625],[-8.666699,11.009473],[-8.398535,11.366553],[-8.822021,11.673242],[-9.120459,12.449951],[-9.395361,12.464648],[-9.358105,12.25542],[-9.714746,12.04248],[-10.274854,12.212646],[-10.709229,11.89873],[-10.933203,12.205176],[-11.305176,12.01543],[-11.502197,12.198633],[-11.389404,12.404395]]]}},{"type":"Feature","properties":{"sigla":"MWI","nome":"Malawi"},"geometry":{"type":"MultiPolygon","coordinates":[[[[34.719336,-12.110645],[34.662109,-12.100781],[34.679883,-12.008887],[34.755957,-12.030762],[34.719336,-12.110645]]],[[[34.641602,-12.013672],[34.621777,-12.066602],[34.541602,-12.018652],[34.591406,-11.971094],[34.641602,-12.013672]]],[[[33.201758,-14.013379],[32.99209,-14.022168],[32.67041,-13.59043],[32.967578,-13.225],[33.021582,-12.630469],[33.512305,-12.347754],[33.252344,-12.112598],[33.232715,-11.417676],[33.379785,-11.15791],[33.261328,-10.893359],[33.661523,-10.553125],[32.974023,-9.39502],[33.888867,-9.670117],[33.995605,-9.49541],[34.524219,-10.030176],[34.60791,-11.080469],[34.959473,-11.578125],[34.618555,-11.620215],[34.357813,-12.164746],[34.563672,-13.360156],[35.247461,-13.896875],[35.892773,-14.891797],[35.755273,-16.058301],[35.358496,-16.160547],[35.167188,-16.560254],[35.272559,-17.118457],[35.124609,-17.127246],[35.079883,-16.833887],[34.416406,-16.246777],[34.248242,-15.8875],[34.54082,-15.297266],[34.505273,-14.598145],[34.33252,-14.408594],[33.636426,-14.568164],[33.201758,-14.013379]]]]}},{"type":"Feature","properties":{"sigla":"MDG","nome":"Madag\u00e1scar"},"geometry":{"type":"MultiPolygon","coordinates":[[[[49.538281,-12.432129],[49.9375,-13.072266],[50.235352,-14.732031],[50.441309,-15.149316],[50.40459,-15.629102],[50.184961,-15.957813],[49.892578,-15.457715],[49.664355,-15.521582],[49.839063,-16.486523],[49.449316,-17.240625],[49.362891,-18.336328],[47.177344,-24.787207],[46.728516,-25.149902],[46.158691,-25.230371],[45.508008,-25.563184],[45.115234,-25.543066],[44.035352,-24.995703],[43.67002,-24.300293],[43.722266,-23.529688],[43.264844,-22.383594],[43.501855,-21.356445],[43.800195,-21.179199],[44.404688,-19.92207],[44.448828,-19.428711],[44.040039,-18.288477],[43.979395,-17.391602],[44.421387,-16.702637],[44.476172,-16.217285],[46.15752,-15.738281],[46.399609,-15.924609],[46.331445,-15.713672],[46.475098,-15.513477],[46.942285,-15.219043],[47.099219,-15.43418],[47.092578,-15.150098],[47.351953,-14.766113],[47.464746,-14.713281],[47.47832,-15.009375],[47.774023,-14.636719],[47.96416,-14.672559],[47.77334,-14.369922],[47.995508,-13.960449],[47.941016,-13.662402],[48.255273,-13.719336],[48.796484,-13.26748],[48.919434,-12.839063],[48.786328,-12.470898],[49.207031,-12.07959],[49.538281,-12.432129]]],[[[48.342188,-13.363867],[48.191211,-13.259961],[48.308887,-13.198242],[48.342188,-13.363867]]],[[[49.936426,-16.90293],[49.824023,-17.086523],[49.855664,-16.933203],[50.023047,-16.695312],[49.936426,-16.90293]]]]}},{"type":"Feature","properties":{"sigla":"LBY","nome":"L\u00edbia"},"geometry":{"type":"Polygon","coordinates":[[[9.51875,30.229395],[9.89502,30.387305],[10.216406,30.783203],[10.114941,31.46377],[10.274609,31.684961],[11.50498,32.413672],[11.50459,33.181934],[12.279883,32.858545],[13.283496,32.914648],[15.176563,32.391162],[15.705957,31.426416],[17.830469,30.927588],[19.12373,30.266113],[19.713281,30.488379],[20.111523,30.963721],[19.926367,31.817529],[20.030957,32.107861],[21.062305,32.775537],[22.187402,32.918262],[23.090625,32.61875],[23.10625,32.331445],[23.286328,32.213818],[24.950684,31.953711],[25.150488,31.65498],[24.852734,31.334814],[24.961426,30.678516],[24.703223,30.201074],[24.980273,29.181885],[24.979492,20.002588],[23.980273,19.995947],[23.980273,19.496631],[15.984082,23.445215],[14.215527,22.619678],[13.48125,23.180176],[11.967871,23.517871],[11.507617,24.314355],[10.325781,24.530225],[10.000684,25.33208],[9.422363,26.14707],[9.859375,26.551953],[9.894434,26.847949],[9.747559,27.330859],[9.916016,27.785693],[9.820703,29.114795],[9.310254,30.115234],[9.51875,30.229395]]]}},{"type":"Feature","properties":{"sigla":"LBR","nome":"Lib\u00e9ria"},"geometry":{"type":"Polygon","coordinates":[[[-11.50752,6.906543],[-10.647461,7.759375],[-10.283203,8.485156],[-9.663574,8.473535],[-9.369141,7.703809],[-9.463818,7.415869],[-9.117578,7.215918],[-8.889648,7.262695],[-8.578857,7.677051],[-8.296631,7.074023],[-8.603564,6.507812],[-7.888623,6.234863],[-7.796533,5.975098],[-7.454395,5.841309],[-7.544971,4.351318],[-9.132178,5.054639],[-10.276367,6.077637],[-11.50752,6.906543]]]}},{"type":"Feature","properties":{"sigla":"LSO","nome":"Lesoto"},"geometry":{"type":"Polygon","coordinates":[[[28.736914,-30.101953],[28.39209,-30.147559],[28.056836,-30.631055],[27.753125,-30.6],[27.388477,-30.315918],[27.056934,-29.625586],[27.735547,-28.940039],[28.625781,-28.581738],[29.390723,-29.269727],[29.098047,-29.919043],[28.736914,-30.101953]]]}},{"type":"Feature","properties":{"sigla":"KEN","nome":"Qu\u00eania"},"geometry":{"type":"MultiPolygon","coordinates":[[[[40.994434,-2.158398],[40.957324,-2.167285],[40.976465,-2.109766],[41.086035,-2.036523],[41.130664,-2.053027],[40.994434,-2.158398]]],[[[33.903223,-1.002051],[33.943164,0.173779],[34.481738,1.042139],[34.798633,1.244531],[34.978223,1.773633],[34.905762,2.479687],[34.447852,3.163477],[34.437695,3.650586],[34.165039,3.812988],[33.976074,4.220215],[35.268359,5.492285],[35.325293,5.364893],[35.74502,5.343994],[35.763086,4.808008],[36.021973,4.468115],[36.905566,4.411475],[38.086133,3.648828],[39.494434,3.456104],[39.842188,3.851465],[40.765234,4.273047],[41.14043,3.962988],[41.883984,3.977734],[40.964453,2.814648],[40.978711,-0.870313],[41.532715,-1.695312],[41.26748,-1.94502],[40.889746,-2.023535],[40.898242,-2.269922],[40.644141,-2.539453],[40.222461,-2.688379],[40.11543,-3.250586],[39.376953,-4.625488],[39.190137,-4.677246],[37.797266,-3.674414],[37.608203,-3.49707],[37.643848,-3.04541],[33.903223,-1.002051]]]]}},{"type":"Feature","properties":{"sigla":"GNB","nome":"Guin\u00e9-Bissau"},"geometry":{"type":"MultiPolygon","coordinates":[[[[-16.711816,12.354834],[-15.574805,12.490381],[-15.196094,12.679932],[-13.729248,12.673926],[-13.70791,12.312695],[-13.948877,12.178174],[-13.737988,12.009668],[-13.732764,11.736035],[-14.682959,11.508496],[-15.043018,10.940137],[-15.05459,11.141943],[-15.222119,11.030908],[-15.479492,11.410303],[-15.072656,11.597803],[-15.501904,11.723779],[-15.078271,11.968994],[-15.941748,11.786621],[-15.920215,11.937793],[-16.328076,12.051611],[-16.24458,12.237109],[-16.711816,12.354834]]],[[[-16.114502,11.059424],[-16.236426,11.113428],[-16.067334,11.197217],[-16.114502,11.059424]]],[[[-15.895898,11.082471],[-15.963965,11.058984],[-15.937695,11.192773],[-15.895898,11.082471]]],[[[-15.725146,11.215479],[-15.725146,11.174512],[-15.779785,11.194531],[-15.71748,11.301758],[-15.65835,11.286475],[-15.725146,11.215479]]],[[[-15.553418,11.537012],[-15.619629,11.533496],[-15.482471,11.632324],[-15.484424,11.567529],[-15.553418,11.537012]]],[[[-15.901807,11.46582],[-16.023193,11.477148],[-15.964551,11.598291],[-15.901807,11.46582]]],[[[-15.986426,11.882031],[-16.03833,11.759717],[-16.152441,11.876807],[-15.986426,11.882031]]]]}},{"type":"Feature","properties":{"sigla":"GIN","nome":"Guin\u00e9"},"geometry":{"type":"Polygon","coordinates":[[[-10.283203,8.485156],[-10.712109,8.335254],[-10.500537,8.687549],[-10.747021,9.095264],[-10.690527,9.314258],[-11.205664,9.977734],[-12.427979,9.898145],[-13.028027,9.103564],[-13.292676,9.049219],[-13.436279,9.420312],[-13.691357,9.535791],[-13.689795,9.927783],[-14.426904,10.24834],[-14.775928,10.931641],[-15.051221,10.83457],[-14.682959,11.508496],[-13.732764,11.736035],[-13.737988,12.009668],[-13.948877,12.178174],[-13.70791,12.312695],[-13.729248,12.673926],[-13.08291,12.633545],[-13.061279,12.48999],[-12.399072,12.340088],[-11.389404,12.404395],[-11.502197,12.198633],[-11.305176,12.01543],[-10.933203,12.205176],[-10.709229,11.89873],[-10.274854,12.212646],[-9.754004,12.029932],[-9.358105,12.25542],[-9.395361,12.464648],[-9.043066,12.402344],[-8.822021,11.673242],[-8.398535,11.366553],[-8.666699,11.009473],[-8.337402,10.990625],[-8.26665,10.485986],[-7.985693,10.278418],[-8.155176,9.973193],[-8.136963,9.495703],[-7.896191,9.415869],[-7.777979,9.080859],[-7.950977,8.786816],[-7.71958,8.643018],[-7.681201,8.410352],[-8.209961,8.483252],[-8.256104,8.253711],[-8.009863,8.078516],[-8.205957,7.590234],[-8.659766,7.688379],[-8.889648,7.262695],[-9.117578,7.215918],[-9.463818,7.415869],[-9.369141,7.703809],[-9.518262,8.346094],[-9.781982,8.537695],[-10.283203,8.485156]]]}},{"type":"Feature","properties":{"sigla":"GHA","nome":"Gana"},"geometry":{"type":"Polygon","coordinates":[[[-0.068604,11.115625],[-0.086328,10.673047],[0.380859,10.291846],[0.233398,9.463525],[0.525684,9.398486],[0.372559,8.759277],[0.686328,8.354883],[0.525586,6.850928],[0.736914,6.452588],[1.187207,6.089404],[0.949707,5.810254],[0.259668,5.757324],[-2.001855,4.762451],[-3.114014,5.088672],[-2.815674,5.153027],[-2.75498,5.43252],[-2.998291,5.711328],[-3.235791,6.807227],[-2.789746,7.931934],[-2.505859,8.20874],[-2.746924,9.045117],[-2.766504,10.238184],[-2.914893,10.592334],[-2.829932,10.998389],[-0.627148,10.927393],[-0.299463,11.166895],[-0.068604,11.115625]]]}},{"type":"Feature","properties":{"sigla":"GMB","nome":"G\u00e2mbia"},"geometry":{"type":"Polygon","coordinates":[[[-16.562305,13.587305],[-15.509668,13.58623],[-15.10835,13.812109],[-13.826709,13.407812],[-14.246777,13.23584],[-15.151123,13.556494],[-15.28623,13.395996],[-15.814404,13.325146],[-15.834277,13.156445],[-16.76333,13.06416],[-16.824805,13.341064],[-16.669336,13.475],[-16.413379,13.269727],[-15.42749,13.468359],[-16.351807,13.343359],[-16.562305,13.587305]]]}},{"type":"Feature","properties":{"sigla":"GAB","nome":"Gab\u00e3o"},"geometry":{"type":"Polygon","coordinates":[[[13.293555,2.161572],[13.216309,1.248437],[14.180859,1.370215],[14.429883,0.901465],[14.324219,0.624219],[13.949609,0.353809],[13.860059,-0.20332],[14.474121,-0.573438],[14.383984,-1.890039],[13.993848,-2.490625],[13.733789,-2.138477],[13.464941,-2.39541],[12.991992,-2.313379],[12.59043,-1.826855],[12.432129,-1.928906],[12.446387,-2.32998],[11.605469,-2.342578],[11.537793,-2.836719],[11.93418,-3.318555],[11.879883,-3.665918],[11.504297,-3.520313],[11.130176,-3.916309],[9.72207,-2.467578],[10.062012,-2.549902],[9.624609,-2.36709],[9.298926,-1.903027],[9.483203,-1.894629],[9.265625,-1.825098],[9.036328,-1.308887],[9.318848,-1.632031],[9.501074,-1.555176],[9.295801,-1.515234],[9.34668,-1.325],[9.064648,-1.29834],[8.703125,-0.591016],[8.946387,-0.68877],[9.29668,-0.35127],[9.354883,0.343604],[9.796777,0.044238],[10.001465,0.194971],[9.546484,0.295947],[9.324805,0.5521],[9.617969,0.576514],[9.59082,1.031982],[11.335352,0.999707],[11.348438,2.299707],[13.293555,2.161572]]]}},{"type":"Feature","properties":{"sigla":"ETH","nome":"Eti\u00f3pia"},"geometry":{"type":"Polygon","coordinates":[[[35.268359,5.492285],[34.710645,6.660303],[33.902441,7.509521],[33.012598,7.951514],[33.281055,8.437256],[33.95332,8.443506],[34.094531,8.582227],[34.079297,9.513477],[34.275684,10.528125],[34.571875,10.880176],[34.771289,10.746191],[34.931445,10.864795],[35.112305,11.816553],[35.670215,12.62373],[36.10752,12.726465],[36.524316,14.256836],[37.024512,14.271973],[37.257227,14.45376],[37.571191,14.149072],[37.88418,14.852295],[38.431445,14.428613],[39.074219,14.628223],[39.198047,14.479395],[40.140625,14.456055],[40.820117,14.11167],[42.378516,12.466406],[41.792676,11.686035],[41.798242,10.980469],[42.922754,10.999316],[42.656445,10.6],[42.841602,10.203076],[43.48252,9.379492],[43.983789,9.008838],[46.978223,7.99707],[47.978223,7.99707],[44.940527,4.912012],[43.583496,4.85498],[42.856641,4.324219],[42.024121,4.137939],[41.883984,3.977734],[41.14043,3.962988],[40.765234,4.273047],[39.842188,3.851465],[39.494434,3.456104],[38.086133,3.648828],[36.905566,4.411475],[36.021973,4.468115],[35.763086,4.808008],[35.74502,5.343994],[35.325293,5.364893],[35.268359,5.492285]]]}},{"type":"Feature","properties":{"sigla":"ERI","nome":"Eritreia"},"geometry":{"type":"MultiPolygon","coordinates":[[[[36.524316,14.256836],[36.426758,15.13208],[36.91377,16.296191],[37.008984,17.058887],[37.411035,17.061719],[37.547461,17.324121],[38.253516,17.584766],[38.609473,18.005078],[39.034473,17.085547],[39.298926,15.921094],[39.785547,15.124854],[39.86377,15.470312],[40.204102,15.014111],[41.176465,14.620312],[41.658203,13.983057],[42.245117,13.587646],[42.399316,13.212598],[43.116699,12.708594],[42.703711,12.380322],[42.378516,12.466406],[40.820117,14.11167],[40.140625,14.456055],[39.198047,14.479395],[39.023828,14.628223],[38.431445,14.428613],[37.88418,14.852295],[37.571191,14.149072],[37.257227,14.45376],[37.024512,14.271973],[36.524316,14.256836]]],[[[40.076465,16.082422],[40.110059,15.985742],[39.996094,16.042676],[40.048145,16.104492],[40.076465,16.082422]]],[[[40.141211,15.696143],[40.399023,15.579883],[39.975195,15.612451],[39.956738,15.889404],[40.141211,15.696143]]]]}},{"type":"Feature","properties":{"sigla":"GNQ","nome":"Guin\u00e9 Equatorial"},"geometry":{"type":"MultiPolygon","coordinates":[[[[8.735742,3.758301],[8.946094,3.627539],[8.704004,3.223633],[8.474902,3.264648],[8.735742,3.758301]]],[[[11.328711,2.167432],[11.335352,0.999707],[9.906738,0.960107],[9.385938,1.139258],[9.807031,1.92749],[9.800781,2.304443],[9.979883,2.167773],[11.328711,2.167432]]]]}},{"type":"Feature","properties":{"sigla":"EGY","nome":"Egito"},"geometry":{"type":"Polygon","coordinates":[[[36.871387,21.996729],[31.434473,21.99585],[31.400293,22.202441],[31.20918,21.994873],[24.980273,21.99585],[24.980273,29.181885],[24.703223,30.201074],[24.961426,30.678516],[24.852734,31.334814],[25.150488,31.65498],[25.382227,31.512793],[25.893262,31.620898],[29.07207,30.830273],[30.222656,31.258398],[30.395117,31.457617],[30.923535,31.566846],[30.562988,31.416992],[31.001758,31.462793],[31.08291,31.60332],[31.524414,31.458252],[31.888965,31.541406],[32.136035,31.341064],[31.892188,31.482471],[31.771094,31.292578],[32.101758,31.092822],[32.281836,31.200879],[32.216211,31.29375],[32.60332,31.06875],[33.666504,31.13042],[34.198145,31.322607],[34.904297,29.477344],[34.220117,27.764307],[33.247754,28.567725],[32.565723,29.973975],[32.359766,29.630664],[32.898242,28.565234],[33.54707,27.898145],[33.959082,26.649023],[35.194141,24.475146],[35.783887,23.937793],[35.54082,23.920654],[35.504395,23.779297],[35.697852,22.946191],[36.871387,21.996729]]]}},{"type":"Feature","properties":{"sigla":"DJI","nome":"Djibouti"},"geometry":{"type":"Polygon","coordinates":[[[43.245996,11.499805],[42.922754,10.999316],[41.798242,10.980469],[41.792676,11.686035],[42.45,12.521338],[42.703711,12.380322],[43.116699,12.708594],[43.380273,12.09126],[42.521777,11.572168],[43.245996,11.499805]]]}},{"type":"Feature","properties":{"sigla":"CIV","nome":"Costa do Marfim"},"geometry":{"type":"MultiPolygon","coordinates":[[[[-3.086719,5.12832],[-3.114014,5.088672],[-3.246387,5.114062],[-3.214893,5.147217],[-3.086719,5.12832]]],[[[-7.990625,10.1625],[-7.497949,10.439795],[-7.01709,10.143262],[-6.950342,10.342334],[-6.693262,10.349463],[-6.65415,10.656445],[-6.423926,10.559131],[-6.261133,10.724072],[-6.238379,10.261621],[-6.117188,10.201904],[-5.556592,10.439941],[-5.099854,10.241602],[-4.969922,9.930078],[-4.62583,9.713574],[-4.332227,9.645703],[-3.790625,9.917187],[-3.223535,9.895459],[-2.816748,9.42583],[-2.69585,9.481348],[-2.746924,9.045117],[-2.505859,8.20874],[-2.789746,7.931934],[-3.243896,6.648682],[-2.998291,5.711328],[-2.793652,5.600098],[-2.815674,5.153027],[-3.168701,5.203027],[-3.199951,5.354492],[-3.347559,5.130664],[-4.120166,5.309717],[-4.899707,5.13833],[-5.282373,5.210254],[-5.061816,5.130664],[-5.91377,5.010937],[-7.544971,4.351318],[-7.454395,5.841309],[-7.796533,5.975098],[-7.888623,6.234863],[-8.603564,6.507812],[-8.302344,6.980957],[-8.486426,7.558496],[-8.231885,7.556738],[-8.009863,8.078516],[-8.256104,8.253711],[-8.236963,8.455664],[-7.681201,8.410352],[-7.71958,8.643018],[-7.950977,8.786816],[-7.777979,9.080859],[-7.896191,9.415869],[-8.136963,9.495703],[-8.155176,9.973193],[-7.990625,10.1625]]]]}},{"type":"Feature","properties":{"sigla":"COD","nome":"Rep\u00fablica Democr\u00e1tica do Congo"},"geometry":{"type":"Polygon","coordinates":[[[30.751172,-8.193652],[28.898145,-8.485449],[28.869531,-8.78584],[28.400684,-9.224805],[28.630078,-9.83125],[28.638867,-10.669238],[28.357227,-11.483008],[28.48252,-11.812109],[29.064355,-12.348828],[29.485547,-12.418457],[29.508203,-12.228223],[29.795117,-12.155469],[29.775195,-13.438086],[29.554199,-13.248926],[29.111621,-13.395117],[28.412891,-12.518066],[27.533398,-12.195312],[27.15918,-11.579199],[26.824023,-11.965234],[26.025977,-11.890137],[25.349414,-11.623047],[25.28877,-11.212402],[24.37793,-11.41709],[24.365723,-11.129883],[23.966504,-10.871777],[23.833887,-11.013672],[22.561035,-11.055859],[22.278809,-11.194141],[22.274512,-10.259082],[21.813184,-9.46875],[21.905371,-8.693359],[21.781641,-7.314648],[20.607813,-7.277734],[20.590039,-6.919922],[19.875195,-6.986328],[19.527637,-7.144434],[19.34082,-7.966602],[17.57959,-8.099023],[16.984766,-7.257422],[16.697266,-6.164258],[16.431445,-5.900195],[13.00332,-5.836133],[12.514551,-6.004199],[12.213672,-5.758691],[12.503711,-5.695801],[12.451465,-5.071484],[12.829688,-4.736621],[13.136621,-4.604297],[13.414941,-4.837402],[13.65957,-4.721484],[13.71709,-4.454492],[14.358301,-4.299414],[14.410742,-4.83125],[14.70791,-4.881738],[15.990039,-3.766211],[16.217383,-3.030273],[16.215332,-2.177832],[16.879883,-1.225879],[17.752832,-0.549023],[18.072168,2.013281],[18.622168,3.304053],[18.56748,4.257568],[19.068555,4.891406],[19.686035,5.121387],[20.558105,4.462695],[22.422168,4.134961],[22.864551,4.723877],[23.417188,4.663135],[24.319824,4.994141],[25.065234,4.967432],[25.525098,5.312109],[26.82207,5.062402],[27.114941,5.197852],[27.40332,5.10918],[28.19209,4.350244],[28.727051,4.50498],[29.224902,4.391895],[29.469629,4.611816],[29.676855,4.586914],[30.895313,3.463672],[30.728613,2.455371],[31.274023,2.146289],[29.942871,0.819238],[29.717676,0.09834],[29.576953,-1.387891],[29.196582,-1.719922],[29.131543,-2.195117],[28.857617,-2.44668],[29.224414,-3.053516],[29.211816,-3.833789],[29.403223,-4.449316],[29.323438,-4.898828],[29.607031,-5.722656],[29.54082,-6.313867],[30.212695,-7.037891],[30.751172,-8.193652]]]}},{"type":"Feature","properties":{"sigla":"COG","nome":"Rep\u00fablica do Congo"},"geometry":{"type":"Polygon","coordinates":[[[11.130176,-3.916309],[11.504297,-3.520313],[11.879883,-3.665918],[11.93418,-3.318555],[11.537793,-2.836719],[11.605469,-2.342578],[12.446387,-2.32998],[12.432129,-1.928906],[12.59043,-1.826855],[12.991992,-2.313379],[13.464941,-2.39541],[13.733789,-2.138477],[13.993848,-2.490625],[14.383984,-1.890039],[14.474121,-0.573438],[13.860059,-0.20332],[13.949609,0.353809],[14.324219,0.624219],[14.429883,0.901465],[14.180859,1.370215],[13.216309,1.248437],[13.293555,2.161572],[14.578906,2.199121],[14.902441,2.012305],[15.741602,1.91499],[16.059375,1.676221],[16.080078,2.106787],[16.468555,2.831738],[16.610742,3.505371],[17.437988,3.684619],[18.160938,3.499805],[18.499805,3.604102],[18.622168,3.304053],[18.072168,2.013281],[17.752832,-0.549023],[16.879883,-1.225879],[16.215332,-2.177832],[16.146777,-3.46416],[15.872461,-3.934277],[14.70791,-4.881738],[14.410742,-4.83125],[14.358301,-4.299414],[13.71709,-4.454492],[13.65957,-4.721484],[13.414941,-4.837402],[12.798242,-4.430566],[12.018359,-5.004297],[11.130176,-3.916309]]]}},{"type":"Feature","properties":{"sigla":"COM","nome":"Comores"},"geometry":{"type":"MultiPolygon","coordinates":[[[[44.476367,-12.081543],[44.50498,-12.356543],[44.220117,-12.171387],[44.476367,-12.081543]]],[[[43.788672,-12.307031],[43.858984,-12.368262],[43.663672,-12.342871],[43.631348,-12.24707],[43.788672,-12.307031]]],[[[43.46582,-11.90127],[43.22666,-11.751855],[43.299023,-11.374512],[43.46582,-11.90127]]]]}},{"type":"Feature","properties":{"sigla":"TCD","nome":"Chade"},"geometry":{"type":"Polygon","coordinates":[[[23.980273,19.496631],[23.970801,15.721533],[23.105176,15.702539],[22.933887,15.533105],[22.932324,15.162109],[22.381543,14.550488],[22.538574,14.161865],[22.106445,13.799805],[22.228125,13.32959],[21.825293,12.790527],[22.352344,12.660449],[22.591113,11.579883],[22.922656,11.344873],[22.860059,10.919678],[22.493848,10.99624],[21.771484,10.642822],[21.682715,10.289844],[20.34209,9.1271],[18.95625,8.938867],[18.886035,8.836035],[19.108691,8.656152],[18.56416,8.045898],[17.649414,7.983594],[16.784766,7.550977],[16.545313,7.865479],[15.957617,7.507568],[15.480078,7.523779],[15.549805,7.787891],[15.116211,8.557324],[13.977246,9.691553],[14.243262,9.979736],[15.654883,10.007812],[15.132227,10.648486],[15.08125,11.845508],[14.84707,12.5021],[14.461719,13.021777],[14.063965,13.078516],[13.606348,13.70459],[13.448242,14.380664],[14.367969,15.750146],[15.474316,16.908398],[15.735059,19.904053],[15.963184,20.346191],[15.181836,21.523389],[14.979004,22.996191],[15.984082,23.445215],[23.980273,19.496631]]]}},{"type":"Feature","properties":{"sigla":"CAF","nome":"Rep\u00fablica Centro-Africana"},"geometry":{"type":"Polygon","coordinates":[[[24.147363,8.665625],[24.291406,8.291406],[24.85332,8.137549],[25.200391,7.80791],[25.278906,7.42749],[26.361816,6.635303],[26.514258,6.069238],[27.143945,5.722949],[27.40332,5.10918],[27.071875,5.199756],[26.82207,5.062402],[25.525098,5.312109],[25.065234,4.967432],[24.319824,4.994141],[23.417188,4.663135],[22.864551,4.723877],[22.422168,4.134961],[20.558105,4.462695],[20.226367,4.829639],[19.500977,5.12749],[19.068555,4.891406],[18.594141,4.34624],[18.610352,3.478418],[18.474414,3.622998],[18.160938,3.499805],[17.491602,3.687305],[16.610742,3.505371],[16.183398,2.270068],[16.063477,2.908594],[15.128711,3.826904],[15.063574,4.284863],[14.73125,4.602393],[14.562988,5.279932],[14.616895,5.865137],[14.440723,6.086719],[14.739258,6.279785],[15.480078,7.523779],[15.957617,7.507568],[16.545313,7.865479],[16.784766,7.550977],[17.649414,7.983594],[18.56416,8.045898],[19.108691,8.656152],[18.888281,8.889746],[20.34209,9.1271],[20.631445,9.301367],[22.043164,10.822705],[22.493848,10.99624],[22.860059,10.919678],[23.646289,9.8229],[23.468262,9.114746],[23.537305,8.81582],[24.147363,8.665625]]]}},{"type":"Feature","properties":{"sigla":"CPV","nome":"Cabo Verde"},"geometry":{"type":"MultiPolygon","coordinates":[[[[-25.169824,16.946484],[-25.337109,17.091016],[-25.034668,17.176465],[-25.169824,16.946484]]],[[[-23.444238,15.007959],[-23.705371,14.961328],[-23.748096,15.328516],[-23.444238,15.007959]]],[[[-24.887061,16.818115],[-25.093066,16.83252],[-24.936475,16.922119],[-24.887061,16.818115]]],[[[-22.917725,16.237256],[-22.692627,16.169043],[-22.710107,16.043359],[-22.959277,16.045117],[-22.917725,16.237256]]],[[[-24.308252,14.856299],[-24.496875,14.980273],[-24.329492,15.019482],[-24.308252,14.856299]]],[[[-24.087695,16.62251],[-24.322363,16.493115],[-24.398096,16.618408],[-24.087695,16.62251]]],[[[-22.88833,16.659082],[-22.920264,16.60791],[-22.980615,16.700879],[-22.990918,16.808838],[-22.93291,16.841016],[-22.88833,16.659082]]],[[[-23.182129,15.136768],[-23.251807,15.178125],[-23.210254,15.323535],[-23.137744,15.317725],[-23.119336,15.268408],[-23.115869,15.16665],[-23.182129,15.136768]]]]}},{"type":"Feature","properties":{"sigla":"CMR","nome":"Camar\u00f5es"},"geometry":{"type":"Polygon","coordinates":[[[8.555859,4.755225],[8.997168,5.917725],[9.779883,6.760156],[10.143555,6.996436],[10.482324,6.89126],[10.60625,7.063086],[11.237305,6.450537],[11.861426,7.116406],[11.767383,7.272266],[12.233398,8.282324],[12.403516,8.595557],[12.782227,8.817871],[12.929492,9.42627],[13.19873,9.56377],[13.269922,10.036182],[13.699902,10.873145],[13.981445,11.211865],[14.559766,11.492285],[14.619727,12.150977],[14.197461,12.383789],[14.063965,13.078516],[14.461719,13.021777],[15.08125,11.845508],[15.132227,10.648486],[15.654883,10.007812],[14.243262,9.979736],[13.977246,9.691553],[15.116211,8.557324],[15.557813,7.738037],[14.764063,6.316357],[14.431152,6.038721],[14.616895,5.865137],[14.708984,4.665576],[15.063574,4.284863],[15.062109,3.947217],[16.063477,2.908594],[16.136133,1.724219],[14.578906,2.199121],[11.558984,2.302197],[11.348438,2.299707],[11.328711,2.167432],[9.979883,2.167773],[9.800781,2.304443],[9.915039,3.239648],[9.556152,3.798047],[9.739648,3.85293],[9.688867,4.056396],[9.483691,4.066113],[9.425293,3.922314],[9.000098,4.091602],[8.918262,4.55376],[8.660352,4.670996],[8.574414,4.526221],[8.555859,4.755225]]]}},{"type":"Feature","properties":{"sigla":"BDI","nome":"Burundi"},"geometry":{"type":"Polygon","coordinates":[[[30.553613,-2.400098],[30.433496,-2.874512],[30.780273,-2.984863],[30.790234,-3.274609],[29.947266,-4.307324],[29.403223,-4.449316],[29.063184,-2.602539],[29.390234,-2.808594],[29.698047,-2.794727],[29.868164,-2.716406],[29.930176,-2.339551],[30.553613,-2.400098]]]}},{"type":"Feature","properties":{"sigla":"BFA","nome":"Burkina Faso"},"geometry":{"type":"Polygon","coordinates":[[[0.900488,10.993262],[-0.299463,11.166895],[-0.627148,10.927393],[-2.829932,10.998389],[-2.914893,10.592334],[-2.786621,10.401904],[-2.766602,9.424707],[-3.223535,9.895459],[-3.790625,9.917187],[-4.332227,9.645703],[-4.62583,9.713574],[-4.969922,9.930078],[-5.099854,10.241602],[-5.523535,10.426025],[-5.490479,11.042383],[-5.250244,11.375781],[-5.288135,11.82793],[-4.428711,12.337598],[-4.480615,12.672217],[-4.2271,12.793701],[-4.328711,13.119043],[-4.151025,13.306201],[-3.947314,13.402197],[-3.527637,13.182715],[-3.301758,13.280762],[-3.248633,13.65835],[-2.95083,13.648438],[-2.586719,14.227588],[-2.113232,14.168457],[-1.973047,14.456543],[-0.666455,15.069775],[0.21748,14.911475],[0.163867,14.497217],[0.429199,13.972119],[1.201172,13.35752],[0.988477,13.364844],[0.987305,13.041895],[1.564941,12.6354],[2.073828,12.713965],[2.211523,12.538428],[2.058398,12.357959],[2.38916,11.89707],[2.287207,11.69126],[1.980371,11.418408],[1.426758,11.447119],[0.900488,10.993262]]]}},{"type":"Feature","properties":{"sigla":"BWA","nome":"Botsuana"},"geometry":{"type":"Polygon","coordinates":[[[25.258789,-17.793555],[26.168066,-19.538281],[27.178223,-20.100977],[27.280762,-20.478711],[27.699609,-20.530664],[27.669434,-21.064258],[28.014063,-21.554199],[29.025586,-21.796875],[29.042383,-22.018359],[29.364844,-22.193945],[28.210156,-22.693652],[27.758301,-23.196777],[27.085547,-23.57793],[26.835059,-24.24082],[26.397168,-24.613574],[25.912109,-24.747461],[25.443652,-25.714453],[24.330566,-25.742871],[23.14873,-25.288672],[22.878809,-25.45791],[22.597656,-26.132715],[21.694727,-26.840918],[20.685059,-26.822461],[20.626758,-26.443848],[20.793164,-25.915625],[20.430664,-25.14707],[19.980469,-24.776758],[19.977344,-22.000195],[20.970996,-22.000195],[20.974121,-18.318848],[23.219336,-17.999707],[23.599707,-18.459961],[24.243945,-18.023438],[25.258789,-17.793555]]]}},{"type":"Feature","properties":{"sigla":"BEN","nome":"Benim"},"geometry":{"type":"Polygon","coordinates":[[[1.622656,6.216797],[1.77793,6.294629],[1.530957,6.992432],[1.600195,9.050049],[1.385742,9.36167],[1.330078,9.996973],[0.77998,10.35957],[0.7875,10.710254],[0.900488,10.993262],[1.426758,11.447119],[1.980371,11.418408],[2.363281,11.840088],[2.366016,12.221924],[2.805273,12.383838],[3.59541,11.696289],[3.487793,11.39541],[3.834473,10.607422],[3.044922,9.083838],[2.774805,9.048535],[2.706445,6.369238],[1.622656,6.216797]]]}},{"type":"Feature","properties":{"sigla":"AGO","nome":"Angola"},"geometry":{"type":"MultiPolygon","coordinates":[[[[13.072754,-4.634766],[12.451465,-5.071484],[12.503711,-5.695801],[12.213672,-5.758691],[12.018359,-5.004297],[12.798242,-4.430566],[13.072754,-4.634766]]],[[[23.966504,-10.871777],[23.962988,-12.988477],[21.978906,-13.000977],[22.040234,-16.262793],[22.150684,-16.597168],[23.380664,-17.640625],[20.745508,-18.019727],[18.955273,-17.803516],[18.396387,-17.399414],[14.01748,-17.408887],[13.101172,-16.967676],[12.548145,-17.212695],[11.743066,-17.249219],[11.750879,-15.831934],[12.016113,-15.513672],[12.550488,-13.437793],[12.983203,-12.775684],[13.597949,-12.286133],[13.847461,-11.054395],[12.998535,-9.048047],[13.358984,-8.687207],[13.378516,-8.369727],[12.823438,-6.954785],[12.302539,-6.092578],[13.184375,-5.85625],[16.431445,-5.900195],[16.697266,-6.164258],[16.984766,-7.257422],[17.57959,-8.099023],[19.34082,-7.966602],[19.527637,-7.144434],[19.875195,-6.986328],[20.590039,-6.919922],[20.607813,-7.277734],[21.781641,-7.314648],[21.905371,-8.693359],[21.813184,-9.46875],[22.274512,-10.259082],[22.226172,-11.121973],[23.833887,-11.013672],[23.966504,-10.871777]]]]}},{"type":"Feature","properties":{"sigla":"DZA","nome":"Arg\u00e9lia"},"geometry":{"type":"Polygon","coordinates":[[[8.576563,36.937207],[8.207617,36.518945],[8.34873,36.367969],[8.24707,35.801807],[8.394238,35.203857],[8.245605,34.734082],[7.513867,34.080518],[7.500195,33.832471],[7.731348,33.268506],[8.1125,33.055322],[8.333398,32.543604],[9.044043,32.072363],[9.51875,30.229395],[9.310254,30.115234],[9.805273,29.176953],[9.916016,27.785693],[9.747559,27.330859],[9.883203,26.630811],[9.422363,26.14707],[10.000684,25.33208],[10.255859,24.591016],[11.507617,24.314355],[11.967871,23.517871],[7.481738,20.873096],[5.836621,19.47915],[3.255957,19.013281],[3.106055,19.150098],[3.255859,19.410938],[3.130273,19.850195],[1.753223,20.331592],[1.165723,20.817432],[1.145508,21.102246],[-4.516992,24.804492],[-8.68335,27.285937],[-8.678418,28.689404],[-8.265186,28.980518],[-7.142432,29.61958],[-6.635352,29.568799],[-6.479736,29.820361],[-5.448779,29.956934],[-4.968262,30.465381],[-3.666797,30.964014],[-3.833398,31.197803],[-3.768164,31.689551],[-3.017383,31.834277],[-2.863428,32.074707],[-1.225928,32.107227],[-1.240332,32.337598],[-1.065527,32.468311],[-1.45,32.784814],[-1.679199,33.318652],[-1.795605,34.751904],[-2.219629,35.104199],[-1.673633,35.183105],[-0.426123,35.861523],[-0.048242,35.832812],[0.312207,36.162354],[1.257227,36.51958],[2.593359,36.600684],[3.779004,36.896191],[4.758105,36.896338],[5.29541,36.648242],[6.486523,37.085742],[6.927539,36.919434],[7.238477,36.968506],[7.204297,37.092383],[7.910449,36.856348],[8.576563,36.937207]]]}}]}