{"type":"FeatureCollection","features":[{"type":"Feature","properties":{"sigla":"EGY_0","nome":"Cairo"},"geometry":{"type":"Point","coordinates":[31.248022,30.051906]}},{"type":"Feature","properties":{"sigla":"NGA_1","nome":"Lagos"},"geometry":{"type":"Point","coordinates":[3.389585,6.445208]}},{"type":"Feature","properties":{"sigla":"COD_2","nome":"Kinshasa"},"geometry":{"type":"Point","coordinates":[15.313026,-4.327778]}},{"type":"Feature","properties":{"sigla":"AGO_3","nome":"Luanda"},"geometry":{"type":"Point","coordinates":[13.232481,-8.83634]}},{"type":"Feature","properties":{"sigla":"SDN_4","nome":"Cartum"},"geometry":{"type":"Point","coordinates":[32.532233,15.590024]}},{"type":"Feature","properties":{"sigla":"EGY_5","nome":"Alexandria"},"geometry":{"type":"Point","coordinates":[29.94805,31.201965]}},{"type":"Feature","properties":{"sigla":"CIV_6","nome":"Abidjan"},"geometry":{"type":"Point","coordinates":[-4.020207,5.323126]}},{"type":"Feature","properties":{"sigla":"ZAF_7","nome":"Joanesburgo"},"geometry":{"type":"Point","coordinates":[28.028064,-26.168099]}},{"type":"Feature","properties":{"sigla":"DZA_8","nome":"Argel"},"geometry":{"type":"Point","coordinates":[3.048607,36.765011]}},{"type":"Feature","properties":{"sigla":"ZAF_9","nome":"Cidade do Cabo"},"geometry":{"type":"Point","coordinates":[18.433042,-33.918065]}},{"type":"Feature","properties":{"sigla":"MAR_10","nome":"Casablanca"},"geometry":{"type":"Point","coordinates":[-7.618313,33.601922]}},{"type":"Feature","properties":{"sigla":"NGA_11","nome":"Kano"},"geometry":{"type":"Point","coordinates":[8.518092,12.001923]}},{"type":"Feature","properties":{"sigla":"ETH_12","nome":"Adis Abeba"},"geometry":{"type":"Point","coordinates":[38.698059,9.035256]}},{"type":"Feature","properties":{"sigla":"KEN_13","nome":"Nairóbi"},"geometry":{"type":"Point","coordinates":[36.814711,-1.281401]}},{"type":"Feature","properties":{"sigla":"TZA_14","nome":"Dar es Salaam"},"geometry":{"type":"Point","coordinates":[39.266396,-6.798067]}}]}