{"type":"FeatureCollection","features":[{"type":"Feature","properties":{"sigla":"nilo","nome":"Nilo"},"geometry":{"type":"MultiLineString","coordinates":[[[32.490141,15.63455],[32.53541,16.040417],[32.628531,16.256476],[32.784594,16.41812],[32.928667,16.507959],[33.060649,16.525994],[33.164674,16.566173],[33.240638,16.628443],[33.358667,16.685881],[33.518761,16.738436],[33.634567,16.824503],[33.705984,16.944082],[33.731771,17.028883],[33.711824,17.078906],[33.714563,17.151331],[33.740091,17.246131],[33.810216,17.378888],[33.925041,17.549575],[33.951861,17.698507],[33.968811,17.792351],[33.941629,18.107267],[33.900391,18.278058],[33.845097,18.304723],[33.784429,18.363789],[33.71818,18.45523],[33.681903,18.554578],[33.675392,18.661859],[33.644954,18.723922],[33.590488,18.740769],[33.566768,18.847274],[33.573693,19.043386],[33.539069,19.173352],[33.462898,19.237198],[33.413496,19.307607],[33.379699,19.42313],[33.138267,19.502686],[33.017964,19.510773],[32.938486,19.473902],[32.838234,19.3829],[32.717207,19.237689],[32.619746,19.160691],[32.545642,19.151906],[32.46761,19.08297],[32.385445,18.953882],[32.306328,18.889933],[32.230157,18.891147],[32.153211,18.864999],[32.075593,18.811539],[32.039213,18.743404],[32.04407,18.660618],[32.004641,18.606255],[31.920822,18.58021],[31.799951,18.45244],[31.642028,18.222919],[31.474131,18.077243],[31.296261,18.015335],[31.145882,18.001744],[31.022996,18.03647],[30.910599,18.087113],[30.808693,18.153569],[30.743995,18.256974],[30.716503,18.397327],[30.673818,18.499026],[30.615837,18.561968],[30.561525,18.660205],[30.510779,18.793737],[30.486233,18.987989],[30.487886,19.243063],[30.457914,19.471112],[30.396419,19.672185],[30.349962,19.786389],[30.34774,19.821762],[30.369806,19.856928],[30.499772,19.914134],[30.575013,19.967283],[30.59434,20.015833],[30.599662,20.098128],[30.591084,20.214193],[30.570879,20.29101],[30.539149,20.328527],[30.48954,20.350954],[30.42205,20.358241],[30.365981,20.416945],[30.32123,20.527016],[30.31663,20.615796],[30.352287,20.683389],[30.362674,20.734755],[30.369754,20.774262],[30.397142,20.805009],[30.510417,20.840227],[30.576253,20.900275],[30.594753,20.985154],[30.631547,21.043832],[30.68684,21.076233],[30.709165,21.120623],[30.698623,21.176951],[30.763115,21.249065],[30.902745,21.336992],[30.969872,21.399133],[30.964601,21.435514],[30.994109,21.49259],[31.09064,21.609198]],[[32.879471,23.987683],[32.913061,24.328438],[32.912648,24.453986],[32.889393,24.477912],[32.891874,24.539562],[32.919882,24.638936],[32.920968,24.77022],[32.895026,24.933414],[32.870583,25.037464],[32.847639,25.082423],[32.767024,25.149473],[32.628737,25.238589],[32.540371,25.349822],[32.502027,25.483148],[32.492932,25.565365],[32.523214,25.612003],[32.704133,25.754268],[32.764026,25.87917],[32.763199,26.034173],[32.734364,26.128845],[32.677623,26.163261],[32.553393,26.142797],[32.361674,26.067427],[32.228658,26.076884],[32.154244,26.171168],[32.093938,26.189384],[32.04128,26.190004],[32.015235,26.200107],[31.996941,26.246719],[31.965522,26.297413],[31.871368,26.37467],[31.82026,26.445311],[31.812301,26.509287],[31.782174,26.541894],[31.729981,26.543083],[31.706468,26.564167],[31.711739,26.605095],[31.694686,26.631656],[31.655308,26.643749],[31.552627,26.761984],[31.369176,27.009902],[31.340651,27.057108],[31.303547,27.098553],[31.278432,27.122686],[31.244946,27.143641],[30.969304,27.35554],[30.868276,27.500311],[30.88905,27.618547],[30.883934,27.767659],[30.877475,27.901708],[30.863005,27.985217],[30.837426,28.037669],[30.80735,28.085418],[30.773967,28.119938],[30.744253,28.165465],[30.740015,28.229905],[30.762185,28.308557],[30.810864,28.401367],[30.83572,28.492499],[30.836857,28.581977],[30.857889,28.681609],[30.898714,28.791473],[30.994625,28.94304],[31.14552,29.136413],[31.219108,29.281986],[31.215387,29.379757],[31.236058,29.488691],[31.281016,29.608787],[31.286907,29.782601],[31.255385,29.998996],[31.253834,30.080154],[31.237608,30.120694]]]}},{"type":"Feature","properties":{"sigla":"congo","nome":"Congo"},"geometry":{"type":"MultiLineString","coordinates":[[[26.441311,-8.272001],[26.654322,-8.223115],[26.742378,-8.19304],[26.776485,-8.165393],[26.793538,-8.124103],[26.793538,-8.069223],[26.83829,-8.01088],[26.92769,-7.94923],[26.972752,-7.900138],[26.973269,-7.863757],[26.928569,-7.803813],[26.838548,-7.720304],[26.865368,-7.528791],[27.009132,-7.229171],[27.048716,-6.991253],[26.984121,-6.815139],[26.961331,-6.663624],[26.980245,-6.536707],[26.970168,-6.421882],[26.931101,-6.319149],[26.906089,-6.172594],[26.895237,-5.982219],[26.89994,-5.817784],[26.930481,-5.610252]],[[24.292295,0.78171],[24.178194,0.923717],[24.004871,1.021592],[23.734397,1.122671],[23.460718,1.341831],[23.183836,1.679019],[22.967828,1.873245],[22.734871,1.950036],[22.557001,2.101216],[22.396494,2.160592],[22.194026,2.178498],[21.96882,2.177619],[21.720773,2.157931],[21.499288,2.112507],[21.304261,2.041374],[20.943818,1.994711],[20.417855,1.97249],[19.901866,1.864434],[19.142842,1.573599],[18.714135,1.223233],[18.526136,1.052184],[18.435909,0.943664],[18.342943,0.691999],[18.199231,0.099788],[18.184348,0.063097],[18.108538,-0.124075],[17.899817,-0.390829],[17.75285,-0.549062],[17.542837,-0.774991],[17.27877,-0.999577],[17.107618,-1.064483],[16.974706,-1.13993],[16.879931,-1.22592],[16.84908,-1.27248],[16.780092,-1.376401],[16.622479,-1.698966],[16.540727,-1.840146],[16.433602,-1.960862],[16.273922,-2.108243],[16.215372,-2.1778],[16.19155,-2.279137],[16.201833,-2.464707],[16.217336,-3.030254],[16.190619,-3.19443],[16.146746,-3.464129],[15.990063,-3.766178],[15.872448,-3.934282],[15.754625,-3.985545],[15.600061,-4.030916],[15.526009,-4.087967],[15.480947,-4.171786],[15.394647,-4.24496],[15.267213,-4.307592],[15.106293,-4.461071],[14.912093,-4.705604],[14.779284,-4.84575],[14.707867,-4.881717],[14.63397,-4.885076],[14.557592,-4.855776],[14.493927,-4.851642],[14.417653,-4.883061],[14.233943,-4.912413],[14.133122,-4.945021],[14.053851,-4.990599],[14.004551,-5.051991],[13.985224,-5.129247],[13.93794,-5.204643],[13.862803,-5.27823],[13.831694,-5.300968],[13.809008,-5.30288],[13.776555,-5.278696],[13.751802,-5.278696],[13.734749,-5.30288],[13.691909,-5.309908],[13.623386,-5.299676],[13.573673,-5.315903],[13.542977,-5.358536],[13.550005,-5.413778],[13.594757,-5.481577],[13.590726,-5.512945],[13.565198,-5.53129],[13.553106,-5.576042],[13.563545,-5.655003],[13.512126,-5.743422],[13.398748,-5.8414],[13.30263,-5.881863],[13.184343,-5.856283],[13.068174,-5.864861]]]}},{"type":"Feature","properties":{"sigla":"niger","nome":"Níger"},"geometry":{"type":"MultiLineString","coordinates":[[[6.265799,4.991427],[6.223682,4.919132],[6.131182,4.844046],[6.077542,4.709868],[6.055372,4.419886],[6.07656,4.290643]],[[6.265799,4.991427],[6.270966,4.432107]],[[6.454831,5.3628],[6.373803,5.345695],[6.302334,5.316032],[6.240426,5.273813],[6.209678,5.235443],[6.210092,5.200975],[6.170301,5.163949],[6.090202,5.124416],[5.992172,5.130437],[5.876107,5.18201],[5.737562,5.191415],[5.475976,5.153846]],[[6.454831,5.3628],[6.393956,5.300969],[6.348584,5.256269],[6.330394,5.220819],[6.333495,5.195549],[6.357783,5.180382],[6.353649,5.153226],[6.320989,5.114107],[6.291844,5.094831],[6.266109,5.095452],[6.257427,5.060983],[6.265799,4.991427]],[[6.556944,5.542246],[6.60614,5.385615],[6.587485,5.301175],[6.522476,5.235314],[6.474365,5.156481],[6.443152,5.064704],[6.460516,5.002589],[6.526455,4.970136],[6.57255,4.907814],[6.598802,4.815624],[6.642933,4.729117],[6.708769,4.607471],[6.715177,4.500578],[6.710061,4.451641],[6.710061,4.424588],[6.715177,4.342423]],[[-10.732078,9.089911],[-10.664951,9.153757],[-10.621749,9.235044],[-10.580124,9.355114],[-10.583405,9.45286],[-10.655701,9.56598],[-10.642006,9.750387],[-10.684484,9.915054],[-10.778561,10.12145],[-10.815717,10.247747],[-10.79595,10.29392],[-10.746651,10.321799],[-10.667793,10.331411],[-10.633686,10.358593],[-10.644228,10.403267],[-10.613378,10.425617],[-10.541031,10.425617],[-10.480983,10.451533],[-10.433208,10.503364],[-10.363057,10.524009],[-10.270556,10.513467],[-10.21826,10.490936],[-10.198623,10.477552],[-10.17405,10.471609],[-10.151184,10.48241],[-10.053257,10.568683],[-9.970006,10.608397],[-9.901431,10.601524],[-9.86593,10.624778],[-9.848231,10.642477],[-9.801386,10.66245],[-9.658346,10.678367],[-9.535459,10.780634],[-9.432571,10.969253],[-9.343378,11.064803],[-9.267827,11.067283],[-9.198684,11.097101],[-9.135897,11.154332],[-9.116518,11.239469],[-9.140496,11.352486],[-9.088897,11.41858],[-8.961773,11.4377],[-8.851883,11.504931],[-8.759176,11.620247],[-8.650965,11.718872],[-8.5272,11.80083],[-8.432684,11.904881],[-8.367417,12.030997],[-8.281427,12.143652],[-8.174715,12.242793],[-8.098079,12.374723],[-8.051415,12.53939],[-7.96434,12.626516],[-7.836855,12.636051],[-7.666374,12.746664],[-7.452925,12.958331],[-7.279059,13.104007],[-7.077676,13.223534],[-6.949209,13.324768],[-6.787926,13.361769],[-6.550912,13.368228],[-6.367332,13.409053],[-6.237159,13.484294],[-6.146105,13.571988],[-6.094119,13.672241],[-6.021151,13.710326],[-5.902451,13.718698],[-5.785249,13.745234],[-5.595364,13.887111],[-5.435167,13.961732],[-5.304684,13.969173],[-5.214146,14.008138],[-5.163555,14.078624],[-4.996201,14.154666],[-4.712136,14.236289],[-4.548993,14.266365],[-4.48693,14.274323],[-4.41448,14.313313],[-4.200539,14.550714],[-4.116927,14.77176],[-4.042099,14.884828],[-3.948151,14.963609],[-3.920763,15.072569],[-3.979493,15.281186],[-3.954146,15.290281],[-3.913683,15.306766],[-3.85224,15.353585],[-3.820278,15.395236],[-3.817849,15.431746],[-3.853454,15.455801],[-3.927119,15.467428],[-3.922933,15.503524],[-3.795577,15.602872],[-3.786766,15.619719],[-3.860922,15.642146],[-3.849449,15.659665],[-3.811932,15.673566],[-3.748396,15.683798],[-3.71385,15.73196],[-3.708321,15.818053],[-3.681914,15.872236],[-3.634682,15.894456],[-3.597527,15.938872],[-3.570345,16.005457],[-3.503114,16.046669]],[[4.625692,9.864514],[4.644141,9.755167],[4.631118,9.669488],[4.592774,9.571018],[4.586418,9.472549],[4.612153,9.374002],[4.654373,9.3123],[4.71318,9.287444],[4.749612,9.243415],[4.763772,9.180319],[4.829607,9.160707],[4.94712,9.184659],[5.056829,9.149571],[5.158631,9.055417],[5.291646,8.988651],[5.455874,8.94917],[5.604082,8.882559],[5.802365,8.741844],[6.019871,8.754453],[6.158725,8.742464],[6.291327,8.710166],[6.384603,8.62844],[6.43845,8.497337],[6.521184,8.377241],[6.632701,8.268126],[6.715901,8.144361],[6.770678,8.005894],[6.776,7.793013],[6.709803,7.36198],[6.664379,6.973399],[6.659573,6.743],[6.690579,6.440357],[6.740912,6.202283],[6.707322,5.977542],[6.556324,5.541342],[6.495087,5.464266],[6.479843,5.421788],[6.490178,5.388147],[6.454831,5.3628]],[[-4.303918,15.507012],[-4.338257,15.620571],[-4.316966,15.682945],[-4.251544,15.73196],[-4.207567,15.792783],[-4.18514,15.865414],[-4.137856,15.892157],[-4.065715,15.873037],[-3.961226,15.924506],[-3.824438,16.046566],[-3.689356,16.112815],[-3.555953,16.123254],[-3.467457,16.161029]],[[-3.503114,16.046669],[-3.467457,16.161029]],[[-3.467457,16.161029],[-3.423894,16.226245],[-3.379142,16.261385],[-3.333305,16.266449],[-3.310413,16.291667],[-3.310464,16.337039],[-3.262767,16.385718],[-3.221839,16.408017]],[[-3.221839,16.408017],[-3.188973,16.300091],[-3.187216,16.252884],[-3.206026,16.225341],[-3.233802,16.20728],[-3.270518,16.198701],[-3.302196,16.163406],[-3.328784,16.101395],[-3.395756,16.062482],[-3.503114,16.046669]],[[-3.221839,16.408017],[-3.167217,16.437757],[-3.106394,16.511266],[-3.080194,16.606325],[-3.02751,16.650198],[-2.948264,16.64286],[-2.742902,16.690041],[-2.411346,16.79174],[-2.197406,16.837086],[-2.101029,16.826079],[-2.042893,16.835045],[-2.022946,16.863984],[-1.896597,16.91504],[-1.66395,16.988214],[-1.448459,17.035472],[-1.250177,17.056814],[-1.117885,17.047952],[-1.051532,17.008936],[-0.964509,16.9955],[-0.856816,17.007748],[-0.770361,16.992581],[-0.705145,16.950077],[-0.600552,16.937597],[-0.45653,16.955167],[-0.34602,16.872821],[-0.268996,16.690609],[-0.20285,16.577386],[-0.147712,16.533151],[-0.089395,16.425871],[0.002796,16.170254],[0.143511,15.983107],[0.259421,15.872106],[0.397423,15.774903],[0.471269,15.679147],[0.480881,15.584785],[0.54775,15.510449],[0.671877,15.456163],[0.738849,15.409706],[0.748668,15.371103],[0.727325,15.282582],[0.674926,15.144192],[0.657459,15.045852],[0.675029,14.987587],[0.722054,14.947718],[0.798536,14.926221],[0.854966,14.860721],[0.891346,14.751167],[0.964985,14.63027],[1.075883,14.497978],[1.208278,14.38119],[1.36217,14.279878],[1.463405,14.146165],[1.51198,13.980077],[1.581123,13.846933],[1.67073,13.746706],[1.811704,13.650537],[2.003837,13.558372],[2.124553,13.475689],[2.173852,13.402438],[2.235554,13.343424],[2.309658,13.29862],[2.354616,13.176044],[2.370326,12.975668],[2.415388,12.818184],[2.489699,12.703514],[2.520601,12.627343],[2.507992,12.589619],[2.515227,12.551947],[2.539773,12.528564],[2.57052,12.530114],[2.596669,12.551637],[2.615117,12.551637],[2.626279,12.531018],[2.653099,12.522337],[2.692012,12.530114],[2.71816,12.51934],[2.736453,12.467973],[2.767821,12.43211],[2.815053,12.419371],[2.843682,12.399424],[3.149555,12.118072],[3.267377,11.991878],[3.299106,11.927128],[3.35993,11.880464],[3.449847,11.851938],[3.531702,11.787446],[3.595419,11.696289],[3.69469,11.619963],[3.851373,11.569914],[4.022318,11.483976],[4.133112,11.390649],[4.240703,11.261303],[4.367517,11.169577],[4.513348,11.115498],[4.620111,11.044727],[4.687704,10.95729],[4.705171,10.836962],[4.656181,10.607208]]]}},{"type":"Feature","properties":{"sigla":"zambeze","nome":"Zambeze"},"geometry":{"type":"MultiLineString","coordinates":[[[36.038917,-18.337227],[36.105218,-18.424353],[36.140254,-18.536078],[36.14537,-18.620414],[36.120462,-18.677464],[36.128937,-18.719632],[36.150228,-18.749656],[36.153432,-18.79477],[36.124958,-18.842364]],[[36.038917,-18.337227],[36.49801,-18.575765]],[[28.76055,-16.532117],[28.83269,-16.424113],[28.856771,-16.306188],[28.856771,-16.142322],[28.875581,-16.036178],[28.913099,-15.987809],[28.972992,-15.950086],[29.050558,-15.9012],[29.287856,-15.776504],[29.487275,-15.696768],[29.729586,-15.644626],[30.796394,-15.642042]],[[32.707492,-15.579979],[32.925153,-15.585767],[33.028041,-15.633567],[33.088709,-15.725293],[33.203379,-15.83495],[33.372155,-15.96254],[33.563667,-16.146663],[33.885095,-16.507519],[33.984159,-16.598625],[34.205489,-16.697172],[34.582107,-16.833598],[34.795065,-16.922533],[34.844364,-16.96408],[34.896919,-17.058545],[34.980635,-17.27972],[35.096132,-17.520532],[35.186824,-17.635667],[35.291211,-17.705482],[35.389086,-17.800257],[35.480346,-17.919991],[35.602251,-18.013215],[35.754696,-18.079981],[35.84637,-18.145921],[35.877273,-18.211033],[35.941455,-18.274802],[36.038917,-18.337227]],[[24.265527,-11.37915],[24.326815,-11.310679],[24.334102,-11.238952],[24.307747,-11.14118],[24.22646,-11.100666],[24.022234,-11.125936],[23.750416,-11.332331],[23.598798,-11.423075],[23.476738,-11.467052],[23.387338,-11.521209],[23.330494,-11.585597],[23.172984,-11.686108],[22.914808,-11.822741],[22.759624,-11.952087],[22.707431,-12.074043],[22.650225,-12.165872],[22.58811,-12.22747],[22.552815,-12.346275],[22.544443,-12.522388],[22.580875,-12.689923],[22.662007,-12.848879],[22.697561,-12.965048],[22.687329,-13.038325],[22.752648,-13.13248],[22.963901,-13.305182],[23.022967,-13.354998],[23.074023,-13.457731],[23.136759,-13.629917],[23.185851,-13.726345],[23.221301,-13.746809],[23.228278,-13.784636],[23.20678,-13.83993],[23.206677,-13.90928],[23.227968,-13.992789],[23.22466,-14.06648],[23.196652,-14.130558],[23.194585,-14.216341],[23.218356,-14.323932],[23.189262,-14.442736],[23.107303,-14.572754],[23.033768,-14.784265],[22.968552,-15.077219],[22.981781,-15.278085],[23.073352,-15.386812],[23.124718,-15.482],[23.13588,-15.563649],[23.127457,-15.625041],[23.099448,-15.666175],[23.120015,-15.737024],[23.189159,-15.837483],[23.246468,-16.013131],[23.292046,-16.26402],[23.491724,-16.548964],[23.845708,-16.867962],[24.076546,-17.14009],[24.238242,-17.478054],[24.732889,-17.517742],[24.932411,-17.543477],[25.001761,-17.568591],[25.092143,-17.634324],[25.259265,-17.794004],[25.451708,-17.845164],[25.557128,-17.849504],[25.639603,-17.82408],[25.741613,-17.858238],[25.863259,-17.951927],[25.995861,-17.969807],[26.139521,-17.911723],[26.333411,-17.929345],[26.577531,-18.022569],[26.779895,-18.041534],[27.020811,-17.958438]]]}},{"type":"Feature","properties":{"sigla":"orange","nome":"Orange"},"geometry":{"type":"MultiLineString","coordinates":[[[25.506071,-30.612136],[25.344117,-30.560357],[25.212084,-30.473127],[24.977835,-30.263062]],[[24.730822,-29.979203],[24.489389,-29.818283],[24.391824,-29.735704],[24.357718,-29.678033],[24.296016,-29.643307],[24.206719,-29.631731],[24.102746,-29.585791],[23.9842,-29.505537],[23.923429,-29.441252],[23.920432,-29.392883],[23.882088,-29.347097],[23.808397,-29.303689],[23.735533,-29.229998],[23.62753,-29.074039],[23.576783,-29.165506],[23.539163,-29.204729],[23.497925,-29.222092],[23.451933,-29.21894],[23.411522,-29.203023],[23.376434,-29.211395],[23.34796,-29.245295],[23.280057,-29.287979],[23.163062,-29.332214],[23.0995,-29.370145],[23.087511,-29.390092],[23.055782,-29.411796],[23.014441,-29.430503],[23.002348,-29.486107],[22.980541,-29.511842],[22.923593,-29.522435],[22.892122,-29.528688],[22.870418,-29.53706],[22.852177,-29.55804],[22.863442,-29.62429],[22.850109,-29.661187],[22.812282,-29.668835],[22.741486,-29.612714],[22.637719,-29.49267],[22.507185,-29.402701],[22.349882,-29.342756],[22.266476,-29.267619],[22.257071,-29.17734],[22.208857,-29.060862],[22.121937,-28.918183],[22.056359,-28.853587],[22.012228,-28.867127],[21.962825,-28.857721],[21.908151,-28.825475],[21.835494,-28.721037],[21.744647,-28.544459],[21.661552,-28.440073],[21.586001,-28.407826],[21.486265,-28.400333],[21.362138,-28.41749],[21.235634,-28.493713],[21.10665,-28.62895],[20.970328,-28.713854],[20.82677,-28.748477],[20.704039,-28.75964],[20.602236,-28.747444],[20.484983,-28.692047],[20.352381,-28.593448],[20.209754,-28.51366],[20.057308,-28.452682],[19.877836,-28.449426],[19.67144,-28.503893],[19.539821,-28.574638],[19.482873,-28.661661],[19.407219,-28.714474],[19.312651,-28.733285],[19.271,-28.777726],[19.282265,-28.847955],[19.245782,-28.901646],[19.161756,-28.93875],[19.026054,-28.92795],[18.838778,-28.869142],[18.600343,-28.855241],[18.310852,-28.886247],[18.102699,-28.871674],[17.976092,-28.811316],[17.84163,-28.7769],[17.699313,-28.768321],[17.616786,-28.743103],[17.447959,-28.698145],[17.415713,-28.621043],[17.395869,-28.562649],[17.34781,-28.501154],[17.34259,-28.451648],[17.380314,-28.413924],[17.385689,-28.353204],[17.358713,-28.269437],[17.31205,-28.228613],[17.2458,-28.230886],[17.204563,-28.198847],[17.18844,-28.132494],[17.149372,-28.082265],[17.056251,-28.031002],[16.933313,-28.069656],[16.87528,-28.127947],[16.841174,-28.218897],[16.810116,-28.264579],[16.794562,-28.340854],[16.787482,-28.394701],[16.755753,-28.452165],[16.723042,-28.475523],[16.689452,-28.464981],[16.6262,-28.487925],[16.487087,-28.572881],[16.447555,-28.617529]],[[29.057483,-29.081842],[29.016865,-29.217544],[28.958212,-29.276559],[28.867985,-29.304102],[28.808764,-29.358673],[28.766441,-29.480939],[28.721482,-29.549772],[28.725048,-29.585842],[28.762152,-29.611887],[28.768611,-29.64279],[28.744427,-29.678447],[28.745977,-29.731622],[28.773159,-29.80216],[28.753315,-29.850736],[28.686446,-29.877194],[28.666499,-29.909544],[28.693474,-29.947887],[28.686239,-29.983906],[28.644588,-30.017702],[28.567332,-30.037959],[28.454367,-30.044729],[28.373597,-30.032223],[28.324917,-30.000597],[28.208904,-30.006075],[28.025453,-30.04876],[27.924528,-30.101263],[27.906132,-30.163688],[27.876469,-30.213091],[27.835438,-30.249678],[27.791513,-30.264251],[27.744488,-30.256809],[27.713224,-30.281717],[27.697617,-30.338975],[27.656741,-30.373598],[27.590699,-30.385587],[27.50967,-30.371376],[27.431432,-30.33851],[27.408591,-30.325332],[27.389574,-30.326159],[27.387559,-30.335151],[27.388747,-30.352617],[27.377172,-30.372461],[27.344977,-30.386052],[27.338311,-30.402227],[27.337484,-30.416283],[27.334177,-30.427031],[27.309992,-30.430545],[27.295265,-30.444601],[27.282914,-30.475814],[27.22576,-30.499482],[27.081996,-30.521806],[27.041482,-30.541133],[27.027529,-30.572966],[26.987945,-30.609036],[26.897304,-30.654304],[26.795915,-30.677714],[26.683777,-30.679161],[26.581148,-30.64986],[26.487924,-30.589709],[26.401004,-30.564594],[26.320285,-30.574309],[26.246543,-30.555706],[26.179674,-30.508732],[26.102624,-30.500257],[25.971779,-30.545422]]]}},{"type":"Feature","properties":{"sigla":"limpopo","nome":"Limpopo"},"geometry":{"type":"MultiLineString","coordinates":[[[26.96159,-23.73731],[27.08551,-23.57794],[27.146385,-23.524404],[27.185555,-23.523422],[27.241159,-23.490039],[27.313403,-23.424255],[27.399186,-23.383637],[27.498715,-23.368341],[27.563207,-23.324622],[27.592662,-23.252637],[27.643874,-23.217652],[27.716738,-23.219616],[27.758285,-23.196775],[27.768517,-23.148923],[27.812597,-23.107995],[27.890525,-23.073888],[27.93135,-23.033581],[27.93507,-22.98702],[28.027985,-22.873694],[28.210196,-22.693653],[28.381762,-22.593401],[28.542889,-22.572937],[28.695541,-22.53542],[28.839821,-22.48085],[28.94581,-22.39517],[29.013506,-22.278433],[29.129881,-22.213269],[29.377463,-22.192805],[29.66313,-22.146296],[29.902341,-22.184227],[30.190385,-22.291146],[30.460188,-22.329024],[30.711645,-22.297812],[30.916077,-22.29068],[31.07338,-22.307785],[31.1973,-22.344889],[31.287837,-22.402043],[31.392637,-22.437493],[31.511596,-22.451187],[31.630452,-22.505551],[31.748998,-22.600429],[31.877259,-22.739852],[32.015131,-22.923768],[32.118794,-23.035958],[32.188144,-23.076472],[32.231036,-23.1328],[32.247469,-23.205043],[32.302452,-23.302092],[32.39609,-23.423996],[32.487764,-23.635766],[32.577371,-23.937402],[32.672869,-24.140387],[32.824798,-24.296915],[32.87141,-24.403678],[32.905516,-24.439697],[32.942723,-24.440523],[33.010213,-24.484603],[33.107985,-24.571988],[33.182554,-24.613536],[33.23392,-24.609195],[33.264203,-24.623561],[33.273401,-24.656634],[33.329056,-24.699112],[33.431066,-24.75084],[33.485068,-24.771873],[33.509717,-24.770684],[33.52615,-24.756576],[33.536744,-24.744846],[33.551989,-24.738955],[33.567905,-24.75146],[33.597257,-24.822774],[33.63126,-24.948968],[33.61369,-25.04059],[33.544547,-25.097641],[33.514782,-25.142444],[33.530078,-25.18885]]]}},{"type":"Feature","properties":{"sigla":"volta","nome":"Volta"},"geometry":{"type":"MultiLineString","coordinates":[[[-0.97624,8.661616],[-0.725712,8.36241],[-0.526396,8.197898],[-0.294834,8.068319],[-0.153086,7.945123],[-0.101203,7.828282],[-0.054022,7.759113],[-0.011492,7.737616],[0.03915,7.648009],[0.097855,7.490292],[0.154596,7.394174],[0.209269,7.359732],[0.23056,7.244933],[0.218364,7.049751],[0.194903,6.922472],[0.160151,6.863044],[0.1609,6.802272],[0.197229,6.740157],[0.194025,6.687861],[0.134261,6.634505],[0.107596,6.550686],[0.103358,6.338192]]]}}]}