{"type":"FeatureCollection","features":[{"type":"Feature","properties":{"sigla":"ZWE","nome":"Harare"},"geometry":{"type":"Point","coordinates":[31.042764,-17.815844]}},{"type":"Feature","properties":{"sigla":"ZMB","nome":"Lusaca"},"geometry":{"type":"Point","coordinates":[28.281382,-15.414698]}},{"type":"Feature","properties":{"sigla":"UGA","nome":"Kampala"},"geometry":{"type":"Point","coordinates":[32.581378,0.318605]}},{"type":"Feature","properties":{"sigla":"TUN","nome":"Tunes"},"geometry":{"type":"Point","coordinates":[10.179678,36.802778]}},{"type":"Feature","properties":{"sigla":"TGO","nome":"Lomé"},"geometry":{"type":"Point","coordinates":[1.220811,6.133883]}},{"type":"Feature","properties":{"sigla":"TZA","nome":"Dar es Salaam"},"geometry":{"type":"Point","coordinates":[39.266396,-6.798067]}},{"type":"Feature","properties":{"sigla":"SWZ","nome":"Mebabane"},"geometry":{"type":"Point","coordinates":[31.133335,-26.316651]}},{"type":"Feature","properties":{"sigla":"SDN","nome":"Cartum"},"geometry":{"type":"Point","coordinates":[32.532233,15.590024]}},{"type":"Feature","properties":{"sigla":"ZAF","nome":"Cidade do Cabo"},"geometry":{"type":"Point","coordinates":[18.433042,-33.918065]}},{"type":"Feature","properties":{"sigla":"SOM","nome":"Mogadíscio"},"geometry":{"type":"Point","coordinates":[45.364732,2.068627]}},{"type":"Feature","properties":{"sigla":"SLE","nome":"Freetown"},"geometry":{"type":"Point","coordinates":[-13.236162,8.471957]}},{"type":"Feature","properties":{"sigla":"SEN","nome":"Dakar"},"geometry":{"type":"Point","coordinates":[-17.475076,14.717778]}},{"type":"Feature","properties":{"sigla":"STP","nome":"São Tomé"},"geometry":{"type":"Point","coordinates":[6.72965,0.337466]}},{"type":"Feature","properties":{"sigla":"RWA","nome":"Kigali"},"geometry":{"type":"Point","coordinates":[30.058586,-1.951644]}},{"type":"Feature","properties":{"sigla":"NGA","nome":"Abuja"},"geometry":{"type":"Point","coordinates":[7.489505,9.05462]}},{"type":"Feature","properties":{"sigla":"NER","nome":"Niamey"},"geometry":{"type":"Point","coordinates":[2.11471,13.518652]}},{"type":"Feature","properties":{"sigla":"NAM","nome":"Windhoek"},"geometry":{"type":"Point","coordinates":[17.083546,-22.570006]}},{"type":"Feature","properties":{"sigla":"MOZ","nome":"Maputo"},"geometry":{"type":"Point","coordinates":[32.587217,-25.953332]}},{"type":"Feature","properties":{"sigla":"MAR","nome":"Rabat"},"geometry":{"type":"Point","coordinates":[-6.836408,34.025307]}},{"type":"Feature","properties":{"sigla":"MRT","nome":"Nouakchott"},"geometry":{"type":"Point","coordinates":[-15.97534,18.086427]}},{"type":"Feature","properties":{"sigla":"MLI","nome":"Bamako"},"geometry":{"type":"Point","coordinates":[-8.001985,12.65196]}},{"type":"Feature","properties":{"sigla":"MWI","nome":"Lilongwe"},"geometry":{"type":"Point","coordinates":[33.783302,-13.983295]}},{"type":"Feature","properties":{"sigla":"MDG","nome":"Antananarivo"},"geometry":{"type":"Point","coordinates":[47.514678,-18.914691]}},{"type":"Feature","properties":{"sigla":"LBY","nome":"Trípoli"},"geometry":{"type":"Point","coordinates":[13.180012,32.8925]}},{"type":"Feature","properties":{"sigla":"LBR","nome":"Monróvia"},"geometry":{"type":"Point","coordinates":[-10.79966,6.314582]}},{"type":"Feature","properties":{"sigla":"LSO","nome":"Maseru"},"geometry":{"type":"Point","coordinates":[27.483273,-29.316674]}},{"type":"Feature","properties":{"sigla":"KEN","nome":"Nairóbi"},"geometry":{"type":"Point","coordinates":[36.814711,-1.281401]}},{"type":"Feature","properties":{"sigla":"GNB","nome":"Bissau"},"geometry":{"type":"Point","coordinates":[-15.598361,11.865024]}},{"type":"Feature","properties":{"sigla":"GIN","nome":"Conacri"},"geometry":{"type":"Point","coordinates":[-13.682181,9.533469]}},{"type":"Feature","properties":{"sigla":"GHA","nome":"Acra"},"geometry":{"type":"Point","coordinates":[-0.218662,5.55198]}},{"type":"Feature","properties":{"sigla":"GMB","nome":"Banjul"},"geometry":{"type":"Point","coordinates":[-16.591701,13.453876]}},{"type":"Feature","properties":{"sigla":"GAB","nome":"Libreville"},"geometry":{"type":"Point","coordinates":[9.457965,0.385389]}},{"type":"Feature","properties":{"sigla":"ETH","nome":"Adis Abeba"},"geometry":{"type":"Point","coordinates":[38.698059,9.035256]}},{"type":"Feature","properties":{"sigla":"ERI","nome":"Asmara"},"geometry":{"type":"Point","coordinates":[38.933324,15.333339]}},{"type":"Feature","properties":{"sigla":"GNQ","nome":"Malabo"},"geometry":{"type":"Point","coordinates":[8.783278,3.750015]}},{"type":"Feature","properties":{"sigla":"EGY","nome":"Cairo"},"geometry":{"type":"Point","coordinates":[31.248022,30.051906]}},{"type":"Feature","properties":{"sigla":"DJI","nome":"Djibouti"},"geometry":{"type":"Point","coordinates":[43.148002,11.595014]}},{"type":"Feature","properties":{"sigla":"CIV","nome":"Abidjan"},"geometry":{"type":"Point","coordinates":[-4.020207,5.323126]}},{"type":"Feature","properties":{"sigla":"COD","nome":"Kinshasa"},"geometry":{"type":"Point","coordinates":[15.313026,-4.327778]}},{"type":"Feature","properties":{"sigla":"COG","nome":"Brazavile"},"geometry":{"type":"Point","coordinates":[15.282744,-4.25724]}},{"type":"Feature","properties":{"sigla":"COM","nome":"Moroni"},"geometry":{"type":"Point","coordinates":[43.240244,-11.704158]}},{"type":"Feature","properties":{"sigla":"TCD","nome":"Jamena"},"geometry":{"type":"Point","coordinates":[15.047202,12.115042]}},{"type":"Feature","properties":{"sigla":"CAF","nome":"Bangui"},"geometry":{"type":"Point","coordinates":[18.558288,4.366644]}},{"type":"Feature","properties":{"sigla":"CPV","nome":"Praia"},"geometry":{"type":"Point","coordinates":[-23.516689,14.916698]}},{"type":"Feature","properties":{"sigla":"CMR","nome":"Yaoundé"},"geometry":{"type":"Point","coordinates":[11.514705,3.868647]}},{"type":"Feature","properties":{"sigla":"BDI","nome":"Bujumbura"},"geometry":{"type":"Point","coordinates":[29.360006,-3.376087]}},{"type":"Feature","properties":{"sigla":"BFA","nome":"Ouagadougou"},"geometry":{"type":"Point","coordinates":[-1.52667,12.372262]}},{"type":"Feature","properties":{"sigla":"BWA","nome":"Gaborone"},"geometry":{"type":"Point","coordinates":[25.911948,-24.646314]}},{"type":"Feature","properties":{"sigla":"BEN","nome":"Cotonou"},"geometry":{"type":"Point","coordinates":[2.404355,6.36298]}},{"type":"Feature","properties":{"sigla":"AGO","nome":"Luanda"},"geometry":{"type":"Point","coordinates":[13.232481,-8.83634]}},{"type":"Feature","properties":{"sigla":"DZA","nome":"Argel"},"geometry":{"type":"Point","coordinates":[3.048607,36.765011]}}]}