{"type":"FeatureCollection","features":[{"type":"Feature","properties":{"sigla":"JPN_0","nome":"Tóquio"},"geometry":{"type":"Point","coordinates":[139.749462,35.686963]}},{"type":"Feature","properties":{"sigla":"IND_1","nome":"Bombaim"},"geometry":{"type":"Point","coordinates":[72.875839,19.068408]}},{"type":"Feature","properties":{"sigla":"IND_2","nome":"Deli"},"geometry":{"type":"Point","coordinates":[77.228058,28.671939]}},{"type":"Feature","properties":{"sigla":"CHN_3","nome":"Xangai"},"geometry":{"type":"Point","coordinates":[121.434559,31.218398]}},{"type":"Feature","properties":{"sigla":"IND_4","nome":"Calcutá"},"geometry":{"type":"Point","coordinates":[88.369126,22.569579]}},{"type":"Feature","properties":{"sigla":"BGD_5","nome":"Daca"},"geometry":{"type":"Point","coordinates":[90.406634,23.725006]}},{"type":"Feature","properties":{"sigla":"PAK_6","nome":"Carachi"},"geometry":{"type":"Point","coordinates":[66.988063,24.871938]}},{"type":"Feature","properties":{"sigla":"JPN_7","nome":"Osaka"},"geometry":{"type":"Point","coordinates":[135.503754,34.691095]}},{"type":"Feature","properties":{"sigla":"CHN_8","nome":"Pequim"},"geometry":{"type":"Point","coordinates":[116.394201,39.90172]}},{"type":"Feature","properties":{"sigla":"PHL_9","nome":"Manila"},"geometry":{"type":"Point","coordinates":[120.980271,14.606105]}},{"type":"Feature","properties":{"sigla":"TUR_10","nome":"Istambul"},"geometry":{"type":"Point","coordinates":[28.974277,41.017602]}},{"type":"Feature","properties":{"sigla":"KOR_11","nome":"Seul"},"geometry":{"type":"Point","coordinates":[126.997785,37.568295]}},{"type":"Feature","properties":{"sigla":"IDN_12","nome":"Jacarta"},"geometry":{"type":"Point","coordinates":[106.827492,-6.172472]}},{"type":"Feature","properties":{"sigla":"CHN_13","nome":"Cantão"},"geometry":{"type":"Point","coordinates":[113.261785,23.124723]}},{"type":"Feature","properties":{"sigla":"IRN_14","nome":"Teerão"},"geometry":{"type":"Point","coordinates":[51.422398,35.673889]}}]}