{"type":"FeatureCollection","features":[{"type":"Feature","properties":{"sigla":"yangtze","nome":"Yangtzé"},"geometry":{"type":"MultiLineString","coordinates":[[[113.1277,29.462776],[113.166354,29.484428],[113.209607,29.537836],[113.530156,29.831616],[113.696347,29.949283],[113.760323,29.938741],[113.859852,29.972331],[113.994727,30.050052],[114.011057,30.124466],[113.908841,30.195522],[113.885276,30.246164],[113.940467,30.276292],[113.989559,30.278566],[114.032451,30.252986],[114.11627,30.328382],[114.288456,30.572088],[114.303235,30.593043],[114.395943,30.664433],[114.472011,30.661281],[114.557948,30.6033],[114.66187,30.582139],[114.783826,30.597823],[114.840929,30.564543],[114.833177,30.482274],[114.885215,30.423105],[114.997146,30.387086],[115.057815,30.335797],[115.067323,30.26929],[115.101533,30.229215],[115.160444,30.215572],[115.251808,30.127903],[115.375625,29.966233],[115.504402,29.87921],[115.638038,29.866911],[115.750899,29.82849],[115.842728,29.763998],[115.982823,29.74604],[116.171132,29.774565],[116.211853,29.785159]],[[116.19759,29.751388],[116.211853,29.785159]],[[116.211853,29.785159],[116.327194,29.815183],[116.451115,29.86779],[116.543925,29.931403],[116.605627,30.006024],[116.682935,30.06137],[116.775849,30.097388],[116.846698,30.167694],[116.895532,30.272235],[116.913205,30.349207],[116.899563,30.39861],[116.971961,30.445997],[117.130401,30.491369],[117.212205,30.552321],[117.217373,30.628828],[117.246622,30.673994],[117.326617,30.694768],[117.604636,30.776468],[117.724887,30.886384],[117.779974,31.051748],[117.843794,31.124199],[117.916451,31.103787],[117.968076,31.129573],[117.998772,31.20161],[118.089361,31.255224],[118.239946,31.290442],[118.31188,31.34062],[118.30542,31.405758],[118.33317,31.50986],[118.395182,31.652952],[118.514658,31.841132],[118.691753,32.074425],[118.961401,32.203203],[119.323601,32.227387],[119.530203,32.228834],[119.643064,32.235371],[119.770964,32.206949],[119.866823,32.100341],[119.941496,32.039957],[120.073942,31.960272]]]}},{"type":"Feature","properties":{"sigla":"amarelo","nome":"Rio Amarelo"},"geometry":{"type":"MultiLineString","coordinates":[[[97.288253,34.835445],[97.547049,34.875985]],[[97.76285,35.088091],[97.934415,35.082458],[98.028001,35.033779],[98.100865,34.940193],[98.197448,34.873866],[98.317751,34.834825],[98.382347,34.798186],[98.395783,34.746717],[98.40002,34.673646],[98.383587,34.630677],[98.347723,34.593393],[98.376042,34.531381],[98.468543,34.444565],[98.563421,34.389632],[98.660934,34.366585],[98.713179,34.380021],[98.720104,34.429966],[98.751936,34.460998],[98.808574,34.473142],[98.89167,34.461954],[99.001224,34.427511],[99.057551,34.300594],[99.060651,34.081176],[99.12318,33.915243],[99.245136,33.802795],[99.323788,33.748121],[99.359135,33.75117],[99.381459,33.77135],[99.390657,33.808583],[99.43882,33.81189],[99.525843,33.781298],[99.619894,33.774502],[99.720973,33.791478],[99.868354,33.743522],[100.062141,33.630661],[100.191435,33.603531],[100.256237,33.662209],[100.277942,33.708744],[100.329773,33.757371],[100.434366,33.798687],[100.58738,33.883255],[100.689493,33.926198],[100.740446,33.927516],[100.824678,33.877777],[100.941984,33.776957],[101.009163,33.764167],[101.026113,33.839356],[101.123368,33.826876],[101.300928,33.726727],[101.48071,33.677531],[101.662663,33.679366],[101.808908,33.611075],[101.919288,33.472686],[102.005071,33.387626],[102.066153,33.355794],[102.192967,33.371168],[102.38541,33.433696],[102.481631,33.483745],[102.481631,33.521288],[102.45016,33.557384],[102.387218,33.592007],[102.352544,33.638257],[102.329806,33.725099],[102.316008,33.745072],[102.285054,33.800263],[102.205989,33.897259],[102.103153,33.959168],[101.976442,33.985988],[101.83764,34.047328],[101.686848,34.143188],[101.517039,34.218532],[101.32842,34.273361],[101.210494,34.350462],[101.163262,34.449939],[101.086988,34.5127],[100.981671,34.538796],[100.912011,34.593418],[100.878215,34.676566],[100.814653,34.707546],[100.721429,34.686307],[100.629755,34.708166],[100.539734,34.77302],[100.455088,34.812552],[100.37592,34.826763],[100.307397,34.935542],[100.220477,35.24064],[100.258615,35.281723],[100.23629,35.338205],[100.166114,35.423781],[100.172315,35.542844],[100.254894,35.695393],[100.333855,35.773527],[100.409303,35.777248],[100.545884,35.869361],[100.743546,36.049841],[100.897852,36.14167],[101.008801,36.144848],[101.071175,36.135056],[101.084921,36.112266],[101.175716,36.088909],[101.343406,36.064879],[101.494818,36.085756],[101.629694,36.151489],[101.762502,36.151592],[101.893037,36.086015],[101.993496,35.997467],[102.063776,35.885898],[102.184595,35.844531],[102.355851,35.873366],[102.610306,35.860395],[102.947753,35.805567],[103.177196,35.811561],[103.298636,35.878327],[103.316774,35.931218],[103.231715,35.97026],[103.255589,36.039558],[103.388398,36.139112],[103.560222,36.157845],[103.771062,36.095678],[103.915962,36.068083],[103.995079,36.075059],[104.030632,36.104463],[104.022674,36.156295],[104.072232,36.228771],[104.179202,36.32184],[104.352111,36.427803],[104.59096,36.546607],[104.713485,36.627584],[104.719789,36.670734],[104.690385,36.7275],[104.62517,36.797935],[104.528431,36.850077],[104.400067,36.883899],[104.326583,36.945523],[104.307876,37.034923],[104.313871,37.093447],[104.352732,37.173881],[104.446059,37.19698],[104.520267,37.241319],[104.57556,37.306896],[104.691626,37.358599],[104.956932,37.415391],[104.99786,37.461486],[105.151959,37.482777],[105.432769,37.494714],[105.648983,37.521999],[105.800395,37.564736],[105.905298,37.660802],[105.963589,37.810251],[106.036866,37.915696],[106.125026,37.977088],[106.196392,38.064137],[106.250859,38.176895],[106.33783,38.281695],[106.457203,38.378485],[106.530997,38.49778],[106.559109,38.639528],[106.63993,38.7797],[106.773566,38.918297],[106.850667,39.016844],[106.871338,39.07529],[106.848703,39.183112],[106.782867,39.340261],[106.758683,39.482784],[106.776253,39.610657],[106.768191,39.760054],[106.717755,40.016317],[107.043162,40.28612],[107.14915,40.395519],[107.144189,40.434457],[107.173955,40.49988],[107.23855,40.591838],[107.37973,40.671213],[107.597701,40.738031],[107.719554,40.793453],[107.745496,40.837482],[107.86213,40.864534],[108.069559,40.874663],[108.190172,40.863268],[108.223968,40.83035],[108.290062,40.814667],[108.388558,40.816217],[108.475994,40.778131],[108.552579,40.70041],[108.650609,40.63199],[108.770188,40.572873],[108.884135,40.546724],[108.992448,40.553546],[109.134145,40.534761],[109.309122,40.490371],[109.449578,40.488821],[109.555411,40.53011],[109.63458,40.531893],[109.687186,40.494118],[109.835704,40.491327],[110.080237,40.523522],[110.303376,40.484041],[110.505224,40.372937],[110.674516,40.301856],[110.811459,40.270824],[110.918532,40.265708],[110.995995,40.286482],[111.125341,40.234625],[111.306726,40.110136],[111.406875,40.012545],[111.425788,39.9418],[111.416383,39.867438],[111.378453,39.789458],[111.385481,39.717886],[111.43726,39.652722],[111.433023,39.576215],[111.372561,39.488288],[111.284246,39.429532],[111.212261,39.413796],[111.16813,39.399921],[111.155831,39.370052],[111.155004,39.347444],[111.192262,39.296568],[111.199342,39.239569],[111.144875,39.124744],[111.081416,39.044051],[111.008863,38.997491],[110.980286,38.956279],[110.995685,38.920415],[110.970415,38.832204],[110.904476,38.691566],[110.877863,38.599789],[110.890575,38.556846],[110.797609,38.443028],[110.598965,38.258389],[110.503467,38.113255],[110.511012,38.00768],[110.584754,37.880737],[110.724591,37.732478],[110.782417,37.613777],[110.758129,37.524738],[110.718751,37.46469],[110.664078,37.433633],[110.64382,37.384153],[110.657773,37.316172],[110.609869,37.217005],[110.500005,37.086677],[110.427089,37.020583],[110.391019,37.018723],[110.384301,37.005132],[110.406729,36.979862],[110.407659,36.919168],[110.387092,36.823127],[110.392828,36.762924],[110.424971,36.738611],[110.428226,36.717036],[110.402595,36.698225],[110.416961,36.647738],[110.471428,36.565572],[110.485691,36.42881],[110.459852,36.237478],[110.490135,36.005658],[110.576434,35.733323],[110.579432,35.533697],[110.458715,35.343166],[110.366111,35.234232],[110.316295,35.1346],[110.278365,35.007993],[110.262035,34.867846],[110.26989,34.637266],[110.465227,34.59701],[110.618602,34.604193],[110.795284,34.645405],[110.890317,34.682586],[110.96995,34.724496],[111.026949,34.7462],[111.10126,34.794827],[111.243164,34.8302],[111.45266,34.852266],[111.588672,34.89942],[111.651408,34.971716],[111.736415,35.029903],[111.843799,35.074087],[112.117942,35.021584],[112.558742,34.872497],[112.856812,34.809013],[113.012151,34.831182],[113.155708,34.874797],[113.28769,34.939857],[113.398691,34.97417],[113.48897,34.977736],[113.617489,34.953732],[113.784404,34.902211],[113.900314,34.894589],[113.965323,34.930943],[114.156268,34.936059],[114.473147,34.909937],[114.681403,34.92761],[114.798192,34.977736],[114.830852,35.019775]],[[96.164187,35.129639],[96.747718,35.05321],[97.072039,34.930607]]]}},{"type":"Feature","properties":{"sigla":"mekong","nome":"Mekong"},"geometry":{"type":"MultiLineString","coordinates":[[[104.951145,11.590921],[104.9513,11.50829],[104.976156,11.471548],[105.025662,11.453229],[105.041268,11.427675],[105.022872,11.394912],[105.044059,11.211874],[105.104934,10.878561],[105.311019,10.535171],[105.830988,10.000734]],[[104.951145,11.590921],[105.181053,11.446278],[105.266164,11.356413],[105.282184,11.274144],[105.266061,11.180351],[105.217795,11.074983],[105.199088,10.978038],[105.210044,10.889517],[105.248594,10.825128],[105.314843,10.784846],[105.357683,10.723325],[105.377217,10.640591],[105.49013,10.529332],[105.696526,10.389599],[105.87946,10.299191],[105.930981,10.28361],[106.136395,10.221702]],[[101.563651,17.820515],[101.687468,17.889399],[101.744105,17.952703],[101.774801,18.033422],[101.818623,18.064634],[101.875467,18.046418],[101.947452,18.081481],[102.034578,18.169847],[102.101499,18.210646],[102.148215,18.203876],[102.231672,18.14897],[102.351872,18.045927],[102.45879,17.984639],[102.552531,17.965105],[102.598213,17.926761],[102.596043,17.869607],[102.616817,17.83333],[102.660638,17.817957],[102.680069,17.824106],[102.675211,17.851753],[102.717638,17.892242],[102.807451,17.945572],[102.89866,17.976888],[102.991368,17.986241],[103.051312,18.028512],[103.0912,18.138253]],[[103.09038,18.137059],[103.0912,18.138253]],[[103.0912,18.138253],[103.092343,18.141399]],[[103.0912,18.138253],[103.148516,18.22173],[103.199675,18.259454],[103.263186,18.278471],[103.279619,18.304981],[103.248923,18.338984],[103.251713,18.373478],[103.288249,18.408412],[103.366952,18.42332],[103.487978,18.418153],[103.629675,18.382548],[103.792249,18.316479],[103.898857,18.295292],[103.949552,18.319011],[104.048719,18.216718],[104.196204,17.98836],[104.322656,17.815812],[104.428179,17.698972],[104.539232,17.609287],[104.655917,17.546733],[104.739685,17.461673],[104.816062,17.300288],[104.759012,17.077149],[104.743509,16.88437],[104.75064,16.647537],[104.81937,16.466075],[104.949904,16.339933],[105.025765,16.238001],[105.047159,16.160254],[105.148755,16.09354],[105.330656,16.03791],[105.406311,15.987448],[105.375615,15.94218],[105.373186,15.889676],[105.398921,15.829861],[105.462018,15.780407],[105.562373,15.741262],[105.622111,15.699972],[105.641025,15.656538],[105.638906,15.585948],[105.615652,15.488254],[105.573742,15.41322],[105.513178,15.360871],[105.520309,15.331054],[105.59524,15.323794],[105.66614,15.273332],[105.781688,15.120524],[105.868091,15.032855],[105.906539,14.944359],[105.925866,14.825762],[105.914755,14.712901],[105.873311,14.605724],[105.859513,14.494619],[105.873259,14.379691],[105.864112,14.267372],[105.831969,14.157715],[105.855172,14.070098],[105.93372,14.00452],[105.980539,13.947934],[105.995732,13.900289],[105.996249,13.852023],[105.982296,13.803085],[105.990668,13.751771],[106.021467,13.698105],[106.00462,13.60935],[105.940025,13.485534],[105.918166,13.405229],[105.949327,13.35009],[106.022655,13.195836],[106.025033,13.060753],[105.980901,12.893374],[105.978369,12.68256],[106.01754,12.428311],[105.98457,12.289431],[105.879667,12.265892],[105.763395,12.26411],[105.635754,12.284108],[105.543357,12.20432],[105.486099,12.024796],[105.388947,11.936378],[105.252005,11.938961],[105.168031,11.9201],[105.137128,11.879792],[105.089586,11.8546],[105.025352,11.844523],[105.000031,11.821553],[105.013363,11.785689],[105.001788,11.747061],[104.965097,11.705694],[104.948199,11.662493],[104.951145,11.590921]]]}},{"type":"Feature","properties":{"sigla":"ganges","nome":"Ganges"},"geometry":{"type":"MultiLineString","coordinates":[[[89.483148,22.27554],[89.425271,22.495526],[89.372147,22.58118],[89.299697,22.618852]],[[89.299697,22.618852],[89.260785,22.573558],[89.255462,22.445349],[89.286468,22.307579],[89.35375,22.160301],[89.378555,22.058085],[89.3522,21.972303],[89.350547,21.885641],[89.335819,21.788386],[89.35375,21.721103]],[[88.439749,22.986478],[88.385024,22.867958],[88.34668,22.735253],[88.343786,22.629265],[88.290043,22.549399],[88.185346,22.495604],[88.117547,22.410234],[88.087058,22.217714]],[[88.439749,22.986478],[88.518453,22.975342],[88.597931,22.974774],[88.682164,22.953793],[88.756268,22.914984],[88.82045,22.858373],[88.842619,22.802846],[88.822878,22.748328],[88.845254,22.700243],[88.909643,22.65854],[88.971448,22.510926],[89.049945,22.274636],[89.055836,22.186243],[89.051443,22.093174]],[[90.074378,23.573419],[90.096031,23.340307],[90.127243,23.25194],[90.180883,23.205922],[90.228426,23.178482],[90.243619,23.138252],[90.265219,23.115592],[90.298757,23.088074],[90.302116,23.05451],[90.315242,23.015598],[90.361648,22.961054],[90.361338,22.875865],[90.394307,22.774838],[90.435028,22.751919]],[[89.109373,23.991921],[89.218565,23.80847],[89.301764,23.732505],[89.381242,23.6938],[89.447181,23.640185],[89.499581,23.571662],[89.520045,23.524766],[89.508676,23.499444],[89.526866,23.483373],[89.574719,23.476552],[89.598335,23.443091],[89.597818,23.383043],[89.615026,23.336974],[89.632493,23.301084],[89.637557,23.252483],[89.659727,23.222924],[89.709491,23.192331],[89.718638,23.133394],[89.765353,23.020068],[89.926274,22.840182],[90.007561,22.685231],[90.013555,22.563481],[89.985133,22.466381]],[[89.109373,23.991921],[89.199755,23.932648],[89.280887,23.930788],[89.37995,23.901125],[89.497049,23.843558],[89.604019,23.823094],[89.749282,23.848054]],[[88.396961,24.389261],[88.510133,24.261388],[88.533749,24.208471],[88.526928,24.165554],[88.554213,24.128863],[88.615708,24.098478],[88.642993,24.059359],[88.636172,24.011584],[88.690225,23.967762],[88.805257,23.92792],[88.864426,23.855909],[88.867837,23.751729],[88.837193,23.665791],[88.772391,23.598095],[88.763709,23.530657],[88.811045,23.463478],[88.852799,23.440714],[88.884683,23.423454],[88.905509,23.389942],[88.925973,23.363484],[88.988915,23.332788],[89.001731,23.263361],[89.027517,23.186079],[89.088754,23.112595],[89.112938,23.04048],[89.099812,22.969684],[89.113455,22.892556],[89.153866,22.809125],[89.208436,22.748741],[89.268433,22.707503],[89.275512,22.702671],[89.270861,22.678952],[89.299697,22.618852]],[[88.396961,24.389261],[88.498557,24.346628],[88.642321,24.325957],[88.723505,24.274901],[88.742212,24.193407],[88.769755,24.144289],[88.806239,24.127494],[88.858277,24.131086],[88.925973,24.155063],[89.009637,24.108684],[89.109373,23.991921]],[[87.919833,24.825048],[87.940193,24.666014],[88.018845,24.542533],[88.174598,24.388796],[88.238056,24.234258],[88.209014,24.07897],[88.205397,23.944689],[88.226998,23.831414],[88.215422,23.739637],[88.183383,23.700104],[88.213717,23.636749],[88.271853,23.587346],[88.303789,23.542672],[88.344613,23.530321],[88.360736,23.460558],[88.352158,23.333356],[88.375206,23.255428],[88.429983,23.226774],[88.46688,23.18613],[88.486051,23.133524],[88.458715,23.027484],[88.439749,22.986478]],[[87.919833,24.825048],[87.946291,24.753166],[87.999363,24.661441],[88.079048,24.549923],[88.145452,24.485793],[88.225034,24.460626],[88.287149,24.479746],[88.337533,24.453857],[88.396961,24.389261]],[[79.840739,30.888477],[79.820276,30.836826],[79.828802,30.78701],[79.859498,30.72182],[79.864614,30.679006],[79.833918,30.648285],[79.744931,30.543201],[79.667107,30.522117],[79.570782,30.550022],[79.470219,30.515993],[79.313123,30.372074],[79.232094,30.30089],[79.158921,30.284767],[79.066523,30.300063],[78.939296,30.291846],[78.777238,30.260065],[78.668718,30.201361],[78.613838,30.115733],[78.519786,30.089817],[78.386565,30.12364],[78.281041,30.092892],[78.203113,29.997601],[78.17035,29.889132],[78.182856,29.767537],[78.139448,29.673073],[78.040126,29.605687],[78.022194,29.491844],[78.085549,29.331543],[78.106013,29.180881],[78.083586,29.03983],[78.098313,28.882113],[78.176035,28.620501],[78.242491,28.521722],[78.271016,28.443329],[78.283728,28.352378],[78.336852,28.253418],[78.430386,28.146422],[78.60314,28.026429],[78.855218,27.893492],[79.02482,27.824762],[79.111947,27.820214],[79.167499,27.786289],[79.19158,27.722985],[79.255142,27.680171],[79.358392,27.657795],[79.44619,27.620356],[79.51864,27.567775],[79.590574,27.466489],[79.661991,27.316498],[79.732787,27.217435],[79.838052,27.145243],[79.922491,27.12558],[79.998352,27.024862],[80.093851,26.836553],[80.237718,26.648038],[80.429851,26.459264],[80.543901,26.317309],[80.579764,26.222172],[80.651749,26.138353],[80.75996,26.065954],[80.868687,26.037532],[80.978138,26.05319],[81.122832,25.988776],[81.302769,25.844366],[81.394598,25.745509],[81.398215,25.692256],[81.45754,25.645851],[81.572572,25.606344],[81.648743,25.563608],[81.686053,25.517668],[81.755558,25.498935],[81.857154,25.50741],[81.906815,25.48692],[81.903249,25.412764],[82.042052,25.312357],[82.11998,25.284659],[82.183129,25.296234],[82.215168,25.272463],[82.217028,25.258924],[82.225865,25.243498],[82.239094,25.241302],[82.254494,25.245694],[82.274286,25.261766],[82.299866,25.260474],[82.318366,25.230192],[82.344979,25.226523],[82.379809,25.249364],[82.43562,25.235049],[82.512618,25.183579],[82.55215,25.183967],[82.563467,25.202777],[82.584965,25.218409],[82.619588,25.219701],[82.785934,25.144021],[82.878797,25.141618],[82.965096,25.187662],[83.016618,25.238796],[83.033258,25.294968],[83.07403,25.330134],[83.138936,25.344241],[83.159297,25.376539],[83.135215,25.426975],[83.138729,25.47152],[83.170045,25.510174],[83.241565,25.518856],[83.353497,25.497591],[83.439589,25.465707],[83.489251,25.444158],[83.513487,25.461779],[83.513487,25.497074],[83.518138,25.533842],[83.59958,25.584072],[83.669653,25.607016],[83.712751,25.590325],[83.752232,25.54162],[83.803392,25.518934],[83.86623,25.522318],[83.959093,25.577044],[84.081979,25.683187],[84.171018,25.7221],[84.226208,25.693833],[84.283517,25.701041],[84.342894,25.743752],[84.42847,25.747163],[84.539987,25.711247],[84.634142,25.708328],[84.710933,25.738326],[84.826688,25.747008],[84.981408,25.734399],[85.11897,25.682567],[85.23917,25.591565],[85.338492,25.543971],[85.412441,25.534798],[85.456107,25.53777],[85.500807,25.544901],[85.555119,25.543635],[85.617751,25.493741],[85.696609,25.473794],[85.78601,25.494568],[85.880061,25.462219],[85.978969,25.376694],[86.097825,25.323623],[86.236731,25.303004],[86.370728,25.340805],[86.499816,25.437104],[86.571026,25.447672],[86.584359,25.372534],[86.61676,25.315354],[86.668126,25.27608],[86.74285,25.279827],[86.840932,25.32662],[86.964956,25.320083],[87.115127,25.260241],[87.218584,25.266985],[87.275324,25.340366],[87.350462,25.382715],[87.443893,25.394006],[87.517635,25.366436],[87.571689,25.299981],[87.643726,25.25696],[87.733746,25.2374],[87.779325,25.193191],[87.780461,25.124358],[87.824335,25.064362],[87.911048,25.013202],[87.942415,24.955945],[87.918541,24.892641],[87.919833,24.825048]]]}},{"type":"Feature","properties":{"sigla":"indo","nome":"Indo"},"geometry":{"type":"MultiLineString","coordinates":[[[67.859972,23.902676],[67.925188,24.000758]],[[67.645825,23.919884],[67.711196,23.956626],[67.713831,24.000861],[67.713418,24.066387]],[[67.925188,24.000758],[67.99955,24.007114],[68.016603,23.990681],[68.02451,23.933682],[68.042441,23.891669],[68.037015,23.84826]],[[67.925188,24.000758],[67.924154,24.055948],[67.800751,24.058506],[67.760133,24.052847],[67.713418,24.066387]],[[67.713418,24.066387],[67.660759,24.10486]],[[79.734596,32.443937],[79.429808,32.744978]],[[79.43725,32.738131],[79.340822,32.880681],[79.220312,32.996462],[79.043682,33.132991],[78.90674,33.189034],[78.809484,33.164539],[78.639831,33.207792],[78.245488,33.397962],[78.183373,33.445297],[78.151644,33.493356],[78.150403,33.542139],[78.076919,33.620015],[77.931295,33.726934],[77.792131,33.857365],[77.659529,34.011206],[77.529769,34.106136],[77.339393,34.160137],[76.96691,34.287778],[76.782115,34.386299],[76.660778,34.498282],[76.529314,34.582644],[76.387617,34.639385],[76.285091,34.708321],[76.221529,34.789376],[76.196207,34.86118],[76.20892,34.923657],[76.141895,35.007579],[75.995031,35.112896],[75.902013,35.209531],[75.862843,35.297432],[75.791477,35.334588],[75.687815,35.320945],[75.567719,35.357093],[75.431086,35.442979],[75.352848,35.510856],[75.333108,35.560698],[75.263861,35.589663],[75.145212,35.597724],[75.000725,35.632347],[74.830399,35.693532],[74.740069,35.753477],[74.729734,35.812181],[74.701053,35.836366],[74.654028,35.826031],[74.631032,35.747534],[74.632065,35.600825],[74.575324,35.50003],[74.460809,35.445124],[74.34247,35.414583],[74.220307,35.408407],[74.058457,35.435874],[73.856919,35.496955],[73.6452,35.53101],[73.423302,35.538038],[73.301604,35.471169],[73.28021,35.330402],[73.1751,35.20426],[72.986377,35.092742],[72.885195,35.004479],[72.871656,34.939366],[72.894807,34.886346],[72.954648,34.845367],[72.944571,34.808883],[72.864473,34.776844],[72.813726,34.726253],[72.781635,34.622538]],[[72.706911,34.085543],[72.651617,34.031747],[72.591776,34.015495],[72.508991,34.018802],[72.410754,33.999837],[72.297169,33.958574],[72.238826,33.894934],[72.235726,33.808996],[72.197485,33.77197],[72.124104,33.783933],[72.071033,33.778972],[72.03827,33.757087],[71.985922,33.665465],[71.913885,33.504079],[71.839212,33.406333],[71.761801,33.372279],[71.721958,33.273783],[71.719685,33.110847],[71.650955,32.993878],[71.515666,32.922797],[71.424716,32.837686],[71.354539,32.688884],[71.3441,32.483547],[71.272994,32.311103],[71.070215,31.999081],[70.861081,31.569495],[70.800774,31.299692],[70.82899,30.919844],[70.769769,30.810755],[70.774523,30.716291],[70.823512,30.600096],[70.829506,30.485478],[70.792506,30.37241],[70.791524,30.211903],[70.826561,30.003957],[70.791886,29.825157],[70.687603,29.675502],[70.656649,29.550393],[70.699127,29.449882],[70.702331,29.35348],[70.666261,29.261237],[70.651223,29.176023],[70.657114,29.097862],[70.611639,29.023112],[70.51459,28.951799],[70.442967,28.915755],[70.396768,28.915005],[70.287369,28.83545],[70.114873,28.677113],[69.962014,28.575724],[69.828792,28.531282],[69.714949,28.444388],[69.620588,28.314965],[69.534908,28.24577],[69.458014,28.236881],[69.409438,28.212387],[69.389181,28.172389],[69.356315,28.156731],[69.310839,28.165413],[69.248931,28.141358],[69.17059,28.084539],[69.107286,28.057771],[69.05902,28.061052],[69.025896,28.040046],[69.007912,27.994777],[68.979852,27.975166],[68.941715,27.981264],[68.929467,27.955297],[68.94311,27.897316],[68.927607,27.853132],[68.883062,27.822746],[68.884457,27.792128],[68.931896,27.761277],[68.94988,27.736964],[68.938407,27.719187],[68.826476,27.677794],[68.762449,27.697793],[68.705192,27.759495],[68.66907,27.770502],[68.654084,27.730892],[68.573107,27.687742],[68.426242,27.641052],[68.337359,27.602502],[68.30656,27.572116],[68.300048,27.511189],[68.317722,27.419825],[68.297413,27.371405],[68.239019,27.365875],[68.194008,27.34213],[68.162279,27.300143],[68.160264,27.263091],[68.187859,27.230948],[68.174785,27.207616],[68.121041,27.193121],[68.098924,27.162942],[68.108536,27.117053],[68.063215,27.062018],[67.963066,26.997784],[67.910925,26.909779],[67.904724,26.742089],[67.890926,26.486859],[67.899556,26.368623],[67.925911,26.302219],[67.981928,26.24336],[68.067608,26.191993],[68.116804,26.140265],[68.129723,26.088124],[68.201553,25.99893],[68.332295,25.87271],[68.378803,25.794808],[68.340873,25.765249],[68.348108,25.728171],[68.400301,25.683549],[68.39844,25.620659],[68.342423,25.539423],[68.323096,25.443925],[68.340459,25.334165],[68.337152,25.261559],[68.313174,25.226057],[68.318549,25.191693],[68.353172,25.158413],[68.35157,25.138621],[68.313639,25.132265],[68.286199,25.089115],[68.269353,25.009223],[68.245065,24.978527],[68.213542,24.997053],[68.183466,24.973256],[68.154941,24.907162],[68.116494,24.872642],[68.068228,24.8698],[68.024613,24.760349],[67.985752,24.544342],[67.935626,24.430189],[67.874131,24.417993],[67.85005,24.395514],[67.863383,24.362777],[67.848655,24.343837],[67.80597,24.33867],[67.795893,24.317947],[67.818321,24.281671],[67.787108,24.239193],[67.702152,24.190513],[67.659261,24.145555],[67.658537,24.104369],[67.626705,24.077962],[67.532343,24.060521],[67.45395,24.039902]]]}},{"type":"Feature","properties":{"sigla":"tigre","nome":"Tigre"},"geometry":{"type":"MultiLineString","coordinates":[[[42.376566,37.062493],[42.433617,36.989784],[42.46638,36.967434],[42.489169,36.959579],[42.509323,36.940665],[42.51294,36.875837],[42.558674,36.832481],[42.713083,36.784783],[42.758558,36.755173],[42.774475,36.733159],[42.760832,36.718741],[42.85757,36.707527],[42.895191,36.691301],[42.901289,36.661561],[42.886096,36.6458],[42.849509,36.643991],[42.811165,36.60867],[42.771167,36.539837],[42.844341,36.478497],[43.030686,36.42465],[43.168663,36.333648],[43.258269,36.205439],[43.317491,36.076196],[43.346326,35.945868],[43.343226,35.857812],[43.307982,35.812026],[43.29744,35.765414],[43.3116,35.717975],[43.299301,35.681879],[43.260647,35.657074],[43.248348,35.586407],[43.262404,35.469825],[43.348031,35.31632],[43.505231,35.125867],[43.568431,35.006184],[43.537529,34.957221],[43.584038,34.832009],[43.707854,34.630496],[43.784646,34.453091],[43.814515,34.299715],[43.854202,34.193727],[43.903811,34.135074],[43.960345,34.098074],[44.05543,34.075104],[44.23237,34.050015],[44.32854,34.019009],[44.402851,33.973715],[44.427345,33.909197],[44.402024,33.825481],[44.398458,33.768895],[44.416752,33.73944],[44.400009,33.696858],[44.348436,33.641254],[44.318256,33.585857],[44.309678,33.530667],[44.323941,33.451033],[44.361045,33.346854],[44.396701,33.293369],[44.430808,33.290578],[44.480004,33.235078],[44.544289,33.126971],[44.674617,33.023695],[44.870988,32.925226],[44.980955,32.887192],[45.026585,32.891248],[45.041365,32.879156],[45.041365,32.856341],[45.044465,32.832286],[45.079502,32.803476],[45.139602,32.785389],[45.224764,32.778],[45.260214,32.751619],[45.258664,32.713662],[45.298403,32.663485],[45.383669,32.60354],[45.522007,32.555739],[45.809122,32.502202],[46.029883,32.618681],[46.136595,32.63222],[46.201397,32.587546],[46.343611,32.54158],[46.563236,32.494348],[46.692168,32.442568],[46.730409,32.386344],[46.735163,32.32149],[46.706328,32.248058],[46.698886,32.190697],[46.712632,32.149433],[46.755369,32.112123],[46.826992,32.078766],[46.888487,32.013886],[46.939854,31.917458],[47.00786,31.8679],[47.092506,31.865213],[47.138549,31.825758],[47.146094,31.749484],[47.220818,31.62732],[47.362929,31.459165],[47.433932,31.286049],[47.441322,30.99909]]]}},{"type":"Feature","properties":{"sigla":"eufrates","nome":"Eufrates"},"geometry":{"type":"MultiLineString","coordinates":[[[45.463096,31.305195],[45.540766,31.22874],[45.685098,31.18404],[45.922086,31.145541],[46.121144,31.086087],[46.363093,30.965371],[46.483292,30.902584],[46.579617,30.90168],[46.692065,30.941781],[46.885542,30.958834],[47.16015,30.952917],[47.331406,30.96656],[47.399309,30.999814],[47.442097,31.004439],[47.468452,30.968472]],[[40.992568,34.428467],[41.119072,34.38772],[41.176898,34.392888],[41.208214,34.430405],[41.275858,34.442859],[41.379935,34.43025],[41.430061,34.436038],[41.448251,34.439888],[41.470523,34.449164],[41.501788,34.436038],[41.590723,34.448337],[41.717123,34.497119],[41.827194,34.509057],[41.920935,34.484149],[41.989613,34.446115],[42.055035,34.369324],[42.122163,34.301731],[42.169602,34.28814],[42.219728,34.305942],[42.248047,34.296977],[42.26293,34.289561],[42.286184,34.292197],[42.303237,34.33408],[42.329851,34.346483],[42.365921,34.329429],[42.366334,34.301834],[42.330988,34.263645],[42.331814,34.231218],[42.368918,34.204502],[42.383284,34.165408],[42.375119,34.113887],[42.417236,34.058981],[42.446536,34.040506],[42.509736,34.000638],[42.551129,33.943587],[42.541414,33.887803],[42.563428,33.870336],[42.617172,33.891213],[42.672879,33.889611],[42.730446,33.865478],[42.747551,33.819641],[42.72409,33.751997],[42.767292,33.671123],[42.877156,33.576917],[42.965471,33.520848],[43.03234,33.502813],[43.078952,33.504622],[43.105514,33.526171],[43.155227,33.515009],[43.228194,33.471136],[43.287673,33.454832],[43.333665,33.466149],[43.45433,33.442429],[43.535617,33.417986],[43.649667,33.383673],[43.775757,33.31143],[43.832498,33.225698],[43.872289,33.198646],[43.905362,33.198646],[43.947633,33.194667],[44.029075,33.159708],[44.122041,33.052944],[44.253661,32.828177],[44.262549,32.792934],[44.263583,32.726995],[44.236608,32.624004],[44.25547,32.496363],[44.321305,32.348517],[44.354947,32.235449],[44.356497,32.157211],[44.387348,32.072461],[44.447603,31.981278],[44.476851,31.877874],[44.475094,31.762299],[44.548113,31.648094],[44.769805,31.478854],[45.041882,31.440717],[45.158154,31.402657],[45.209313,31.352014],[45.292874,31.321318],[45.46692,31.305195]]]}},{"type":"Feature","properties":{"sigla":"obi","nome":"Óbi"},"geometry":{"type":"MultiLineString","coordinates":[[[85.056235,52.433596],[84.58908,52.421865],[84.347338,52.392565],[84.175359,52.34187],[84.003276,52.331586],[83.831193,52.361765],[83.728099,52.414269],[83.694096,52.489019],[83.682572,52.592191],[83.698902,52.789491],[83.657509,52.961496],[83.657509,53.040329],[83.685104,53.083323],[83.817189,53.10942],[83.860236,53.174713],[83.848557,53.199337],[83.837601,53.353281],[83.711924,53.418807],[83.492713,53.42878],[83.331534,53.456712],[83.228491,53.502652],[83.128084,53.505055],[83.030209,53.463869],[82.896935,53.437359],[82.72816,53.425421],[82.580624,53.445937],[82.45443,53.498854],[82.387561,53.545104],[82.380016,53.584688],[82.32989,53.630835],[82.236976,53.683649],[82.113624,53.717962],[81.959731,53.733723],[81.867076,53.757546],[81.835553,53.78943],[81.727033,53.799611],[81.541514,53.788138],[81.420074,53.80824],[81.334085,53.885626]],[[70.353773,61.30122],[70.784341,61.304062],[70.978955,61.297551],[71.080964,61.282616],[71.154448,61.250887],[71.199406,61.202363],[71.257491,61.195386],[71.328908,61.230061],[71.447092,61.252799],[71.694673,61.269025],[72.044419,61.254969],[72.222806,61.264452],[72.34652,61.292848],[72.465996,61.288404],[72.581338,61.251197],[72.678386,61.24267],[72.757037,61.262824],[72.906692,61.263444],[73.237422,61.235126],[73.566239,61.19642],[73.710364,61.195903],[73.779301,61.22063],[73.876607,61.214352],[74.002181,61.177041],[74.117574,61.174638],[74.222891,61.207143],[74.313583,61.200657],[74.384535,61.168411],[74.429183,61.168411],[74.449027,61.189082],[74.514553,61.213163],[74.645294,61.215437],[74.750094,61.202466],[74.868433,61.160195],[75.333366,61.12366],[75.534697,61.082396],[75.627405,61.024286],[75.713653,61.010126],[75.793545,61.03997],[75.887079,61.049762],[75.994359,61.03953],[76.134557,60.999739],[76.307673,60.93039],[76.435056,60.905482],[76.516601,60.925119],[76.626207,60.89649],[76.76377,60.819595],[76.960192,60.745491],[77.21537,60.674255],[77.399183,60.648831],[77.511528,60.669243],[77.602323,60.662086],[77.671673,60.627411],[77.713841,60.585966],[77.728827,60.537856],[77.807168,60.48313],[77.948658,60.42179],[78.110819,60.395694],[78.293444,60.404737],[78.340934,60.371354],[78.345327,60.331667],[78.388528,60.304433],[78.437207,60.291772],[78.481132,60.243662],[78.562988,60.196326],[78.682877,60.149869],[78.785352,60.132531],[78.835891,60.140515],[78.871393,60.116434],[78.875992,60.084369],[78.90922,60.064887],[78.96193,60.054552],[78.979138,60.019024],[78.958623,59.980835],[78.951801,59.933345],[78.97919,59.883994],[79.038514,59.841206],[79.129878,59.80498],[79.165845,59.765913],[79.146518,59.723952],[79.148275,59.689018],[79.182692,59.647161],[79.282634,59.557631],[79.387589,59.516988],[79.530939,59.495335],[79.623285,59.460402],[79.664729,59.412084],[79.779244,59.401697],[79.96683,59.429189],[80.093179,59.423608],[80.158188,59.384954],[80.171572,59.349453],[80.133228,59.317155],[80.152038,59.288991],[80.227899,59.265013],[80.29513,59.272558],[80.353731,59.311625],[80.411144,59.330177],[80.467264,59.328291],[80.502301,59.299326],[80.51615,59.243309],[80.616196,59.179541],[80.802438,59.10802],[80.973125,59.091432],[81.128258,59.129776],[81.256467,59.117839],[81.357753,59.055672],[81.410669,59.004047],[81.415217,58.963016],[81.444362,58.944723],[81.478314,58.936506],[81.495935,58.913639],[81.505289,58.885967],[81.534848,58.848243],[81.568127,58.83088],[81.573398,58.797393],[81.541669,58.745226],[81.554433,58.718199],[81.647761,58.700991],[81.704243,58.707476],[81.735404,58.72347],[81.77535,58.735847],[81.858342,58.701921],[81.902474,58.660089],[81.907745,58.610325],[81.964641,58.585107],[82.073058,58.584383],[82.172173,58.549243],[82.261884,58.479687],[82.338675,58.439017],[82.402547,58.427287],[82.434483,58.403903],[82.434586,58.368892],[82.462595,58.359487],[82.518612,58.375533],[82.574836,58.363156],[82.631267,58.322332],[82.734258,58.305434],[82.883809,58.312539],[82.928096,58.283213],[82.934194,58.240218],[82.960962,58.193399],[83.030932,58.150404],[83.097181,58.128183],[83.15971,58.126737],[83.22353,58.057438],[83.288539,57.920341],[83.350706,57.826496],[83.410031,57.776034],[83.549764,57.742212],[83.700349,57.730482],[83.777347,57.699166],[83.816466,57.641185],[83.832537,57.579561],[83.907054,57.506439],[83.942918,57.441404],[83.940127,57.384456],[83.958317,57.339394],[83.997385,57.306166],[84.104562,57.277434],[84.279745,57.253146],[84.343514,57.210462],[84.351265,57.163178],[84.375605,57.13703],[84.406094,57.10915],[84.413897,57.067266],[84.406766,57.010836],[84.436324,56.910687],[84.401391,56.792451],[84.30796,56.690338],[84.144456,56.564971],[84.063944,56.457846],[84.066321,56.368963],[84.053971,56.313927],[84.026789,56.292817],[84.016867,56.263905],[84.024205,56.227214],[83.993561,56.179698],[83.925038,56.121355],[83.886746,56.037949],[83.878787,55.929455],[83.81936,55.832768],[83.708462,55.74776],[83.650223,55.679909],[83.644745,55.629215],[83.535604,55.561053],[83.323007,55.475477],[83.155524,55.436461],[83.033258,55.444084],[82.944064,55.433103],[82.887944,55.403544],[82.868978,55.34024],[82.887272,55.243192],[82.87673,55.172912],[82.837456,55.129348],[82.879055,55.06527],[83.001528,54.980675],[83.053411,54.915072],[83.025351,54.845206]]]}},{"type":"Feature","properties":{"sigla":"ienissei","nome":"Ienissei"},"geometry":{"type":"MultiLineString","coordinates":[[[83.109584,70.109545],[83.306574,70.048748],[83.464187,69.976142],[83.550901,69.891445],[83.790576,69.789539],[84.183317,69.670425],[84.487174,69.646964],[84.702045,69.719259],[84.905753,69.766181],[85.0983,69.78773],[85.413061,69.721326],[85.850088,69.566968],[85.953183,69.489506],[85.96295,69.382174],[85.992199,69.294324],[86.024806,69.187147],[86.050748,69.118701],[86.011732,69.030877],[85.954785,68.933105],[85.991527,68.840656],[86.1926,68.739861],[86.24779,68.700355],[86.286651,68.665835],[86.329801,68.599017],[86.3529,68.528789],[86.344528,68.456003],[86.401373,68.380529],[86.523639,68.302446],[86.535628,68.213692],[86.437339,68.114318],[86.436409,68.015642],[86.480127,67.928205],[86.450827,67.840407],[86.347422,67.748475],[86.286134,67.659953],[86.288201,67.573137],[86.353417,67.487974],[86.446693,67.436763],[86.567926,67.419554],[86.618207,67.35899],[86.59764,67.255172],[86.61769,67.184194],[86.678565,67.146109],[86.698409,67.093088],[86.677428,67.025108],[86.688073,66.942426],[86.730345,66.845016],[86.630299,66.746624],[86.387937,66.647302],[86.286341,66.584567],[86.325718,66.558315],[86.477337,66.563818],[86.741455,66.601077],[87.032445,66.556816],[87.350359,66.431036],[87.458156,66.387111],[87.505284,66.348457],[87.513656,66.31957],[87.479395,66.289055],[87.454435,66.273319],[87.315735,66.224899],[87.274963,66.189965],[87.311601,66.163094],[87.473865,66.134827],[87.761755,66.105113],[87.913942,66.061653],[87.930478,66.004473],[87.895752,65.962434],[87.809865,65.935614],[87.765475,65.909595],[87.762685,65.884403],[87.771728,65.85381],[87.792605,65.817817],[87.849915,65.790765],[87.943656,65.772678],[88.003394,65.740484],[88.029128,65.694182],[87.980191,65.4574],[87.847641,64.999392],[87.822423,64.877539],[87.794776,64.816638],[87.767697,64.786692],[87.700208,64.737392],[87.630858,64.679334],[87.564092,64.594507],[87.540011,64.516321],[87.544455,64.442475],[87.577425,64.372919],[87.579285,64.271219],[87.550036,64.137326],[87.557581,64.038572],[87.602023,63.974855],[87.551173,63.885506],[87.404929,63.770475],[87.347051,63.677767],[87.377437,63.607306],[87.359505,63.527596],[87.293256,63.438609],[87.265713,63.38192],[87.27703,63.357477],[87.441774,63.299186],[87.759998,63.206995],[88.024323,63.092532],[88.339859,62.887531],[88.434117,62.85389],[88.48047,62.80304],[88.510339,62.723769],[88.595347,62.634575],[88.735597,62.535408],[88.857295,62.471536],[88.960544,62.442856],[89.013564,62.388027],[89.016355,62.30705],[89.082553,62.179073],[89.21226,62.004174],[89.325225,61.894207],[89.469816,61.826717],[89.705615,61.750831],[89.785662,61.688173],[89.788659,61.613397],[89.843436,61.585957],[89.9502,61.605749],[90.052312,61.601408],[90.149878,61.572831],[90.1737,61.536994],[90.123781,61.49387],[90.001256,61.449945],[89.806023,61.40527],[89.684583,61.336515],[89.636731,61.243756],[89.658951,61.109991],[89.751142,60.935247],[89.847054,60.815461],[89.946582,60.750582],[90.005907,60.65697],[90.024924,60.534548],[90.055826,60.459152],[90.120009,60.416519],[90.166207,60.381121],[90.171943,60.307017],[90.308834,60.238442],[90.494766,60.11491],[90.698475,59.927195],[90.783017,59.781907],[90.804205,59.745397],[90.858155,59.70664],[90.884096,59.657134],[90.881926,59.596879],[90.989516,59.498177],[91.206661,59.360925],[91.32531,59.267235],[91.345463,59.217006],[91.430936,59.163314],[91.581935,59.10616],[91.678053,59.050763],[91.719291,58.997123],[91.732623,58.953146],[91.717844,58.918781],[91.76859,58.900514],[91.884655,58.898292],[91.976691,58.876355],[92.044594,58.834704],[92.046351,58.794758],[91.981962,58.756621],[91.982324,58.72732],[92.04754,58.706805],[92.083713,58.649392],[92.090948,58.555031],[92.139007,58.498471],[92.22789,58.479712],[92.275484,58.450748],[92.281789,58.411577],[92.319823,58.380209],[92.389586,58.356645],[92.428136,58.325639],[92.435474,58.287192],[92.472578,58.244921],[92.539447,58.198877],[92.679181,58.15689],[92.998076,58.100097]]]}},{"type":"Feature","properties":{"sigla":"lena","nome":"Lena"},"geometry":{"type":"MultiLineString","coordinates":[[[120.648378,60.403471],[120.343435,60.39621],[120.184272,60.349702],[120.06924,60.261593],[119.87411,60.229115],[119.598881,60.252317],[119.354762,60.191417],[119.141751,60.046464],[118.958558,59.965591],[118.805286,59.948796],[118.677542,59.917015],[118.575326,59.870248],[118.510214,59.823816],[118.482102,59.777799],[118.419573,59.744777],[118.322525,59.724804],[117.998307,59.805342],[117.446713,59.986468],[117.129419,60.134263],[117.04622,60.248829],[116.964262,60.331046],[116.883543,60.381018],[116.669189,60.43905],[116.321407,60.505248],[116.030933,60.597697],[115.797873,60.716501],[115.5028,60.77474],[115.145716,60.77257],[114.892553,60.745078],[114.743208,60.692265],[114.549422,60.566794],[114.310987,60.368667],[114.137354,60.260095],[114.028523,60.240949],[113.822541,60.124806],[113.519407,59.911615],[113.239631,59.779297],[112.983006,59.727776],[112.835883,59.673981],[112.798108,59.61786],[112.745191,59.578483],[112.642768,59.544531],[112.543394,59.363302],[112.393688,59.273721],[112.160524,59.215378],[112.009835,59.196645],[111.941726,59.217523],[111.846124,59.186775],[111.723031,59.104403],[111.548571,59.018956],[111.322642,58.93046],[111.201823,58.847003],[111.186216,58.768558],[111.116556,58.738792],[110.992843,58.757706],[110.948608,58.746337],[110.928971,58.710319],[110.805361,58.659004],[110.560208,58.66244],[110.281775,58.644638],[109.970166,58.605622],[109.797671,58.539166],[109.764391,58.445218],[109.694318,58.358583],[109.587347,58.27926],[109.498257,58.231278],[109.42684,58.214586],[109.340541,58.224612],[109.239152,58.261354],[109.153886,58.274531],[109.084742,58.264144],[108.940462,58.210452],[108.721147,58.113404],[108.605599,58.043538],[108.593816,58.000853],[108.552682,57.971604],[108.482299,57.955791],[108.408608,57.906905],[108.33161,57.824998],[108.228877,57.784897],[108.100306,57.786654],[108.033747,57.758904],[108.029303,57.701646],[107.957008,57.658677],[107.904401,57.635009],[107.894169,57.610231],[107.918044,57.570491],[107.871793,57.522562],[107.69723,57.438303],[107.619199,57.40784],[107.593102,57.386472],[107.584369,57.357016],[107.564629,57.34296],[107.518637,57.345854],[107.487424,57.329007],[107.470991,57.292421],[107.41456,57.270613],[107.318132,57.263585],[107.250746,57.276091],[107.212609,57.308182],[107.148633,57.325597],[107.058923,57.328336],[106.98854,57.309861],[106.937483,57.270122],[106.918053,57.232088],[106.930145,57.19576],[106.912472,57.14597],[106.864826,57.082718],[106.746746,57.042565],[106.558127,57.025512],[106.425163,57.028251],[106.34801,57.050782],[106.256181,57.011042],[106.149831,56.908981],[105.985655,56.832965],[105.763705,56.782943],[105.672444,56.742402],[105.711822,56.711319],[105.831401,56.696436],[106.031285,56.697676],[106.172879,56.671115],[106.256285,56.616803],[106.292148,56.559959],[106.280573,56.500583],[106.250083,56.450818],[106.200681,56.410562],[106.058002,56.3655],[105.822048,56.315529],[105.694665,56.266101],[105.675958,56.217163],[105.718126,56.151741],[105.821169,56.069834],[105.85202,55.975653],[105.810575,55.869148],[105.730942,55.755098],[105.613223,55.6334],[105.519585,55.49036],[105.450029,55.325874],[105.331276,55.196838],[105.163225,55.103149],[105.076098,55.008374],[105.069897,54.912514],[105.107931,54.849831],[105.190303,54.820375],[105.234435,54.753506],[105.240533,54.649171],[105.223893,54.549952],[105.184567,54.455746],[105.220586,54.383916],[105.332,54.33441],[105.45716,54.237672],[105.665416,54.021664],[105.806286,54.006316],[105.872949,53.972959],[105.912533,53.916477],[105.973511,53.878262],[106.05609,53.858263],[106.304757,53.857281],[106.927148,53.884334],[106.996498,53.849788],[107.052825,53.844827],[107.119178,53.857927],[107.158658,53.89361],[107.171371,53.951849],[107.234003,53.99934],[107.346554,54.03603],[107.456005,54.104501],[107.562148,54.204754],[107.657129,54.264595],[107.78291,54.293792],[108.021241,54.246457],[108.106611,54.199948],[108.11829,54.138401],[108.088162,54.081764],[107.980107,54.004146]],[[126.689663,72.294399],[126.896885,72.050228],[127.019668,71.945531],[127.127155,71.898971],[127.167928,71.845279],[127.141935,71.784456],[127.162295,71.683222],[127.228958,71.541525],[127.258207,71.41174],[127.250042,71.293866],[127.316911,71.183924],[127.458815,71.081966],[127.506564,70.998767],[127.460262,70.934379],[127.471837,70.879059],[127.414218,70.741832],[127.090827,70.60613],[126.789192,70.540604],[126.509415,70.545178],[126.231086,70.527323],[125.954307,70.487016],[125.800621,70.449344],[125.769874,70.414204],[125.833074,70.367281],[125.990067,70.308577],[126.018903,70.234628],[125.919374,70.145331],[125.77344,70.068928],[125.484775,69.973662],[125.201175,69.903511],[125.078702,69.825506],[125.022788,69.716262],[124.901555,69.580353],[124.721979,69.400312],[124.621572,69.33644],[124.251052,69.181256],[124.093749,69.096506],[124.026053,69.030412],[123.985228,68.926439],[123.971172,68.784587],[123.927144,68.633873],[123.853247,68.474348],[123.773975,68.349265],[123.689329,68.258676],[123.534506,68.17279],[123.309507,68.091606],[123.150499,67.929187],[123.057378,67.68543],[123.09474,67.454591],[123.26274,67.236568],[123.397874,66.997435],[123.500297,66.737167],[123.587837,66.580949],[123.696874,66.502659],[123.738008,66.461396],[123.876088,66.197975],[124.0275,66.022069],[124.210951,65.873292],[124.285262,65.733094],[124.250535,65.601526],[124.267898,65.504219],[124.337352,65.4412],[124.373835,65.378594],[124.377246,65.316427],[124.407993,65.251625],[124.465974,65.184187],[124.59346,65.097526],[124.79045,64.991589],[124.954316,64.931179],[125.085058,64.916296],[125.220088,64.878624],[125.359305,64.818111],[125.453666,64.746953],[125.503068,64.665097],[125.743519,64.575387],[126.175017,64.477822],[126.423477,64.402891],[126.506211,64.377931],[126.85265,64.224452],[127.2919,63.965243],[127.585525,63.84339],[127.879978,63.772464],[128.077537,63.697456],[128.178254,63.618339],[128.291425,63.561469],[128.416896,63.526769],[128.640655,63.515762],[128.962599,63.528371],[129.187598,63.523461],[129.379628,63.489872],[129.585817,63.305439],[129.637338,63.199347],[129.602922,63.110153],[129.6223,63.033931],[129.695371,62.970756],[129.763894,62.858024],[129.827662,62.69576],[129.909415,62.569359],[130.008943,62.478822],[130.051318,62.396398],[130.036539,62.322139],[129.997368,62.269895],[129.933806,62.239715],[129.892465,62.160082],[129.873241,62.030994],[129.788492,61.893483],[129.63832,61.747601],[129.476263,61.63076],[129.215607,61.499192],[128.751449,61.323131],[128.480768,61.266028],[128.248999,61.26918],[127.893103,61.227736],[127.413029,61.141695],[127.047264,61.103144],[126.795599,61.112084],[126.553754,61.101335],[126.321727,61.070846],[126.097451,61.014209],[125.88103,60.931449],[125.578309,60.856958],[124.994882,60.757635],[124.89277,60.710041],[124.730299,60.687821],[124.473261,60.675056],[124.278854,60.645601],[124.147079,60.59935],[123.551973,60.575993],[122.296856,60.575373],[121.653381,60.597542],[121.424764,60.6425],[121.161835,60.622347],[120.864489,60.53708],[120.700364,60.472537],[120.653855,60.406701]]]}},{"type":"Feature","properties":{"sigla":"amur","nome":"Amur"},"geometry":{"type":"MultiLineString","coordinates":[[[136.810492,49.759289],[136.842531,49.729161],[136.843978,49.677692],[136.825271,49.594854],[136.720782,49.519691],[136.530406,49.452279],[136.393773,49.367297],[136.310884,49.264771],[136.271197,49.171056],[136.274814,49.0861],[136.161849,48.98701],[135.817684,48.81715],[135.744666,48.764181],[135.66865,48.754647],[135.565193,48.770925],[135.444839,48.767876],[135.307483,48.745552],[135.184855,48.704521],[135.077058,48.644757],[135.026208,48.570524],[135.032409,48.481847],[134.964506,48.421024],[134.8225,48.388055],[134.708708,48.383145],[134.623029,48.406296],[134.486654,48.403351],[134.205896,48.359891],[133.842198,48.273746],[133.671769,48.207704],[133.573274,48.133031],[133.46837,48.097168],[133.301145,48.101535],[133.144049,48.105643],[133.020129,48.064405],[132.877089,47.979087],[132.772806,47.940072],[132.707177,47.947255],[132.636897,47.8901],[132.561862,47.768506],[132.476286,47.714969],[132.380168,47.72949],[132.149795,47.717966],[131.785269,47.680501],[131.556756,47.682025],[131.464255,47.722617],[131.319354,47.727811],[131.121847,47.697632],[131.002784,47.691456],[130.96196,47.70931],[130.932866,47.759798],[130.9154,47.84292],[130.848634,47.929426],[130.732568,48.01924],[130.712053,48.127657],[130.78719,48.254574],[130.804244,48.341494],[130.763419,48.388416],[130.746883,48.430378],[130.65924,48.483398],[130.597279,48.574658],[130.552114,48.602512],[130.565602,48.68013],[130.617175,48.773173],[130.553148,48.861204],[130.355279,48.866372],[130.196012,48.891641],[130.037055,48.972257],[129.792522,49.198858],[129.671083,49.278491],[129.591398,49.286656],[129.533727,49.323424],[129.498173,49.38882],[129.440709,49.38944],[129.384692,49.38944],[129.350069,49.362362],[129.309865,49.353835],[129.248421,49.37864],[129.185118,49.381379],[129.120109,49.362052],[129.065125,49.374661],[129.02027,49.419258],[128.938311,49.44892],[128.819352,49.463751],[128.770259,49.494705],[128.791033,49.541834],[128.769019,49.576974],[128.70401,49.600125],[128.52676,49.594234],[128.237062,49.559301],[127.999609,49.568603],[127.814297,49.622139],[127.711151,49.671542],[127.69017,49.716759],[127.636685,49.760193],[127.550799,49.801793],[127.50243,49.873416],[127.491784,49.975038],[127.512352,50.071673],[127.59028,50.208977]],[[139.857748,51.578816],[139.805865,51.562822],[139.705147,51.558171],[139.602415,51.544296],[139.494566,51.504944],[139.448987,51.449185],[139.378397,51.405441],[139.282796,51.373712],[139.159289,51.36348],[139.007981,51.374642],[138.918064,51.350458],[138.889538,51.290823],[138.825046,51.247518],[138.674564,51.207081],[138.06809,50.855992],[137.707698,50.714269],[137.391387,50.664866],[137.18711,50.60673],[137.094816,50.539809],[137.053991,50.493301],[137.069908,50.454078]],[[140.114063,51.763662],[140.146929,51.786271],[140.206047,51.813995],[140.218449,51.875361],[140.182017,51.964477],[140.214729,52.046488],[140.316738,52.121315],[140.385261,52.226477],[140.420401,52.361895],[140.404536,52.467961],[140.337615,52.544597],[140.261961,52.591932],[140.177522,52.609916],[140.124915,52.657303],[140.104141,52.734146],[139.996241,52.822357],[139.80111,52.921886],[139.756565,53.032009],[139.862709,53.152673],[140.002545,53.215202],[140.176281,53.219594],[140.3433,53.187555],[140.5036,53.119084],[140.614394,53.091385],[140.706688,53.110996],[140.783479,53.105105],[140.839703,53.087871]]]}},{"type":"Feature","properties":{"sigla":"brahmaputra","nome":"Brahmaputra"},"geometry":{"type":"MultiLineString","coordinates":[[[89.739257,24.330195],[89.713832,24.135142],[89.707941,23.962414],[89.744424,23.858673],[89.867518,23.720258],[89.993918,23.621039],[90.074378,23.573419],[90.266976,23.459395]],[[89.739257,24.330195],[89.80871,24.171807],[89.922915,24.082096],[90.115668,23.971147],[90.214111,23.869086],[90.218142,23.775939],[90.243929,23.73465],[90.291368,23.745269],[90.355446,23.708682],[90.476266,23.582979],[90.561635,23.537091]],[[95.396482,28.002916],[95.443766,27.883621],[95.369197,27.805745],[95.188536,27.729471],[95.116499,27.698284],[95.10358,27.683401],[95.108541,27.678466],[95.122081,27.675779],[95.137273,27.665573],[95.138514,27.644049],[95.083737,27.615059],[94.972322,27.586017],[94.877961,27.543229],[94.80055,27.486617],[94.725206,27.412927],[94.651722,27.322105],[94.630431,27.278025],[94.597461,27.234049],[94.567024,27.188883],[94.558859,27.130541],[94.517673,27.072301],[94.443362,27.014191],[94.335048,26.951895],[94.192732,26.885388],[94.119506,26.867223],[94.023026,26.867353],[93.751622,26.732038],[93.403271,26.738678],[93.245192,26.717543],[93.161167,26.670827],[93.008514,26.635635],[92.787029,26.612045],[92.655926,26.579567],[92.615102,26.538225],[92.54384,26.521431],[92.442141,26.529285],[92.312433,26.494921],[92.154716,26.418388],[92.071104,26.360924],[92.061699,26.322502],[91.965787,26.270464],[91.643843,26.163881],[91.546795,26.14781],[91.436259,26.150652],[91.250379,26.183208],[91.1524,26.204706],[91.052251,26.191528],[90.917169,26.150807],[90.759763,26.155045],[90.579929,26.204292],[90.356067,26.174346],[90.088176,26.065231],[89.8901,25.901262],[89.761839,25.68236],[89.698949,25.490124],[89.701429,25.324553],[89.680139,25.168412],[89.621228,25.026328],[89.612649,24.948374],[89.619574,24.894863],[89.729128,24.649297],[89.749902,24.41143],[89.739257,24.330195]]]}}]}