{"type":"FeatureCollection","features":[{"type":"Feature","properties":{"sigla":"danubio","nome":"Danúbio"},"geometry":{"type":"MultiLineString","coordinates":[[[17.206423,48.061098],[17.480618,47.88762],[17.635286,47.809899],[17.761893,47.770159],[18.14559,47.763416],[18.753615,47.788375],[18.794543,47.809433],[19.000164,47.8192],[19.071322,47.806514],[19.103465,47.779229],[19.123309,47.731247],[19.123929,47.709078],[19.073389,47.552033],[19.060005,47.48103],[19.029671,47.412739],[18.958822,47.36468],[18.907198,47.259984],[18.883633,47.151153],[18.928178,47.08325],[18.93531,47.033047],[18.939961,46.999819],[18.936498,46.884761],[18.944922,46.803603],[18.982852,46.740196],[18.96585,46.685109],[18.89402,46.638291],[18.873608,46.585865],[18.904614,46.527832],[18.918825,46.422929],[18.916241,46.271155],[18.859139,46.151085],[18.747518,46.062667],[18.72695,46.014401],[18.7593,45.93469],[18.839088,45.835756],[18.894485,45.767103],[18.947299,45.655818],[18.917843,45.600834],[18.953706,45.557995],[19.055096,45.527247],[19.064294,45.515],[19.033288,45.502184],[19.007657,45.465804],[19.004659,45.399503],[19.093078,45.336923],[19.272808,45.27796],[19.474708,45.243337],[19.698777,45.233053],[19.82833,45.241477],[19.863367,45.26871],[19.907033,45.25915],[19.959433,45.212899],[20.044803,45.186183],[20.163142,45.179051],[20.253265,45.14988],[20.282308,45.125773],[20.314967,45.098695],[20.3391,45.03844],[20.325561,44.96909],[20.352898,44.910902],[20.421007,44.863825],[20.500434,44.842586],[20.591074,44.847185],[20.635619,44.828401],[20.634069,44.786285],[20.66585,44.74099],[20.731066,44.692595],[20.91276,44.707969],[21.360071,44.82667],[21.523162,44.790083],[21.597059,44.755408],[21.636127,44.71045],[21.740203,44.680684],[21.909288,44.666111],[22.026904,44.619861],[22.09305,44.541933],[22.20095,44.560691],[22.350708,44.676136],[22.497676,44.706264],[22.64206,44.65097],[22.720918,44.605521],[22.734354,44.569915],[22.700765,44.555524],[22.620149,44.562345],[22.554004,44.540331],[22.502327,44.489584],[22.494576,44.435428],[22.530646,44.377963],[22.581805,44.338328],[22.647951,44.316468],[22.683298,44.28647],[22.687845,44.248307],[22.775179,44.195236],[22.945401,44.127281],[23.028497,44.077982],[23.024466,44.047234],[22.985398,44.017003],[22.911294,43.987186],[22.8683,43.947886],[22.856414,43.899026],[22.867679,43.864558],[22.919046,43.834456],[23.224609,43.873886],[23.534564,43.853577],[23.950766,43.786656],[24.22677,43.763479],[24.430581,43.794381],[25.159633,43.686326],[25.49708,43.670797],[25.686112,43.711751],[25.818817,43.766838],[25.933436,43.870552],[26.215796,44.007288],[26.489216,44.083976],[26.847747,44.146195],[27.086905,44.167408],[27.221729,44.143301],[27.266584,44.137797],[27.338311,44.133379],[27.412467,44.137668],[27.594109,44.179267],[27.860243,44.262622],[28.022145,44.342617],[28.079919,44.419305],[28.083382,44.4762],[28.032429,44.513304],[28.012895,44.558107],[28.024677,44.610662],[27.992121,44.663708],[27.907165,44.718769],[27.876676,44.744117],[27.850114,44.768379],[27.830167,44.795612],[27.830684,44.83008],[27.862827,44.864755],[27.894556,44.967617],[27.925975,45.138718],[27.964836,45.26871],[28.011241,45.357593],[28.078938,45.414128],[28.21247,45.450456],[28.317683,45.347129],[28.451266,45.292197],[28.760705,45.234138]]]}},{"type":"Feature","properties":{"sigla":"reno","nome":"Reno"},"geometry":{"type":"MultiLineString","coordinates":[[[8.23002,48.965435],[8.417295,49.213999],[8.485922,49.330374],[8.498221,49.397399],[8.488919,49.436208],[8.45781,49.44675],[8.421843,49.505092],[8.380812,49.611236],[8.38939,49.690068],[8.431403,49.728489],[8.436829,49.767195],[8.401482,49.815228],[8.357351,49.911372],[8.304641,49.98067],[8.243352,50.023097],[8.129044,50.026404],[7.961613,49.990696],[7.803224,50.042088],[7.653879,50.180658],[7.606751,50.222361],[7.611195,50.266441],[7.628816,50.323802],[7.607836,50.366642],[7.556624,50.400076],[7.44366,50.432788],[7.343666,50.485833],[7.256746,50.559162],[7.203623,50.621613],[7.184502,50.673186],[7.125074,50.734216],[7.025442,50.804677],[6.99454,50.852607],[6.99454,50.904025],[6.973249,50.938338],[6.968392,50.998076],[6.937696,51.040089],[6.881058,51.064274],[6.850983,51.097191],[6.847469,51.138843],[6.816308,51.168867],[6.7575,51.187263],[6.759722,51.227261],[6.741119,51.268189],[6.689546,51.30276],[6.698382,51.364462],[6.707167,51.421823],[6.697607,51.457815],[6.693421,51.48678],[6.687478,51.524401],[6.623916,51.55923],[6.593014,51.591838],[6.595804,51.637469],[6.357214,51.775031],[6.211745,51.836991],[6.079764,51.869212],[6.038629,51.872183],[5.975274,51.87673],[5.898173,51.859574],[5.780454,51.863398],[5.622117,51.888203],[5.491582,51.877945],[5.388953,51.832676],[5.24953,51.813479],[4.98536,51.82371]]]}},{"type":"Feature","properties":{"sigla":"volga","nome":"Volga"},"geometry":{"type":"MultiLineString","coordinates":[[[47.841556,46.734925],[48.113942,46.683249],[48.21993,46.605243],[48.250316,46.483649],[48.313878,46.400579],[48.410616,46.355982],[48.500947,46.272111],[48.683675,46.08618]],[[45.663601,50.222309],[45.489968,50.122006],[45.414417,50.056066],[45.378967,49.991057],[45.360725,49.91623],[45.359588,49.831636],[45.305225,49.736964],[45.197634,49.632113],[45.106942,49.513154],[45.048444,49.407527],[45.010824,49.350631],[44.996355,49.313424],[44.990153,49.293581],[44.986949,49.259138],[44.975684,49.194749],[44.841842,49.012616],[44.587904,48.727465],[44.544341,48.665066],[44.527598,48.598016],[44.595501,48.545151],[44.864528,48.465673],[45.042502,48.434408],[45.129421,48.45141],[45.22771,48.446501],[45.337367,48.419784],[45.411058,48.424486],[45.448782,48.460712],[45.558594,48.451332],[45.733209,48.398597],[45.797959,48.383249],[45.831342,48.368934],[45.864932,48.352656],[45.90865,48.321676],[46.077684,48.218401],[46.155405,48.110087],[46.14662,47.993815],[46.193181,47.917592],[46.295087,47.88147],[46.350484,47.842972],[46.359476,47.802095],[46.408568,47.773002],[46.497865,47.755587],[46.616411,47.672904],[46.764205,47.524955],[46.87469,47.444417],[46.947967,47.431369],[47.008532,47.402843],[47.056591,47.358918],[47.081705,47.315614],[47.085116,47.25169],[47.086201,47.214018],[47.21224,47.143944],[47.463491,47.028913],[47.584982,46.9422],[47.576611,46.883754],[47.611699,46.854582],[47.69035,46.854608],[47.800318,46.772753],[47.941705,46.608938],[48.002063,46.505895],[47.981392,46.463572],[47.980152,46.418278],[47.998239,46.369935],[47.916435,46.249684],[47.734637,46.057396],[47.641103,45.929471],[47.635832,45.865857],[47.610355,45.834154],[47.578109,45.813483],[47.560746,45.789505],[47.563226,45.760566],[47.587204,45.737415],[47.631026,45.693594],[47.649836,45.656748]],[[49.904789,53.456737],[50.042145,53.45467],[50.108084,53.404725],[50.148495,53.30623],[50.128548,53.235588],[50.048346,53.192774],[49.957344,53.185229],[49.855541,53.212902],[49.717358,53.203058],[49.542795,53.155774],[49.427609,53.152467],[49.371695,53.193188],[49.269014,53.218974],[49.119462,53.229749],[48.918751,53.208535],[48.66688,53.155309],[48.524305,53.104847],[48.491025,53.057149],[48.503376,52.995138],[48.561357,52.918812],[48.504926,52.816363],[48.334084,52.68774],[48.177452,52.506098],[48.034929,52.271383],[47.900828,52.124803],[47.775048,52.066305],[47.643635,52.043025],[47.506589,52.054911],[47.272701,51.980962],[47.114262,51.918795],[46.970808,51.83017],[46.842547,51.772964],[46.774644,51.747927]],[[43.432419,56.674991],[43.656901,56.496397],[43.836839,56.403534],[44.046955,56.336923],[44.16731,56.27362],[44.197799,56.213623],[44.258105,56.179672],[44.348332,56.171662],[44.450858,56.140372],[44.565787,56.08575],[44.77611,56.082469],[45.081827,56.130605],[45.280885,56.137039],[45.373283,56.101847],[45.442839,56.103914],[45.489451,56.143292],[45.560144,56.15957],[45.654919,56.152749],[45.736775,56.166494],[45.805711,56.200833],[45.87227,56.198844],[45.936349,56.1605],[46.025026,56.171559],[46.1383,56.231917],[46.294053,56.286823],[46.492181,56.336277],[46.679714,56.308915],[46.856551,56.204683],[47.165938,56.150785],[47.828947,56.14541],[47.886101,56.121769],[47.92739,56.073348],[47.971935,55.992267],[48.066917,55.925321],[48.212334,55.872456],[48.459709,55.825275],[48.809042,55.78383],[49.002518,55.692983],[49.058949,55.48266]],[[37.148255,56.752402],[37.391961,56.861646],[37.477434,56.934768],[37.485805,57.008149],[37.557739,57.106334],[37.760931,57.290819]],[[32.598248,57.250356],[32.680827,57.079049],[32.675246,57.00944],[32.692041,56.972492],[32.729351,56.944897],[32.850843,56.9319],[33.056515,56.933476],[33.282393,56.899266],[33.528476,56.829245],[33.674927,56.765269],[33.721746,56.707443],[33.815538,56.640677],[33.956408,56.565101],[33.979663,56.50929],[33.885508,56.473272],[33.844477,56.444514],[33.856776,56.423016],[34.049839,56.35656],[34.42377,56.245146],[34.668406,56.208662],[34.783748,56.247006],[34.861831,56.289794],[34.902655,56.336975],[34.908857,56.368911],[34.880435,56.385499],[34.890977,56.415678],[34.940483,56.459345],[34.955779,56.50265],[34.936865,56.545541],[35.001202,56.578459],[35.222584,56.612927],[35.333895,56.703258],[35.421797,56.742273],[35.523393,56.76005],[35.606799,56.791107],[35.672014,56.835446],[35.772525,56.860664],[35.908331,56.866762],[36.065737,56.84622],[36.244847,56.799014],[36.344376,56.758138],[36.374555,56.706358]],[[41.343658,57.49308],[41.715315,57.447553],[41.889206,57.451222],[41.989148,57.488946],[42.173271,57.484709],[42.575831,57.415462]],[[40.007098,57.566667],[39.853309,57.668832],[39.798119,57.725211],[39.790367,57.769885],[39.696626,57.831302],[39.517102,57.909437],[39.246473,57.989691],[38.704026,58.113146]],[[38.300949,57.571628],[38.445592,57.760919],[38.479646,57.872437],[38.437065,58.017544]]]}},{"type":"Feature","properties":{"sigla":"elba","nome":"Elba"},"geometry":{"type":"MultiLineString","coordinates":[[[15.582749,50.692798],[15.614996,50.613913],[15.652564,50.575983],[15.706204,50.552677],[15.734058,50.522188],[15.736022,50.484412],[15.782272,50.440126],[15.864179,50.394082],[15.883816,50.372274],[15.889036,50.327523],[15.844852,50.272022],[15.819376,50.196626],[15.817205,50.106968],[15.677421,50.051932],[15.399918,50.031417],[15.235587,50.034698],[15.158796,50.075213],[15.088103,50.152365],[14.96935,50.17903],[14.778871,50.180942],[14.630973,50.222103],[14.472946,50.342716],[14.388197,50.43811],[14.332438,50.460434],[14.277351,50.441573],[14.240557,50.454156],[14.222057,50.49821],[14.178081,50.520069],[14.108731,50.519656],[14.062481,50.535365],[14.039433,50.567095],[14.039588,50.589393],[14.062946,50.60226],[14.06739,50.618513],[14.06956,50.641431],[14.083978,50.660732],[14.160356,50.68626],[14.202885,50.749667],[14.211567,50.850979],[14.136171,50.917874],[13.976698,50.950327],[13.87381,50.991358],[13.827611,51.040993],[13.743792,51.078691],[13.622456,51.104478],[13.522203,51.141401],[13.443035,51.189511],[13.39756,51.234961],[13.385778,51.277801],[13.344953,51.312424],[13.275087,51.33883],[13.226201,51.382445],[13.184343,51.473628]],[[13.191164,51.473628],[12.934229,51.622586],[12.842038,51.711418],[12.828912,51.789707],[12.741579,51.842779],[12.579935,51.870633],[12.381705,51.880968],[12.14699,51.873785],[11.994751,51.908692],[11.925195,51.985639],[11.843339,52.031295],[11.749392,52.045661],[11.690842,52.071602],[11.667795,52.109068],[11.668208,52.155292],[11.692083,52.210198],[11.757247,52.272753],[11.916927,52.377966],[11.977905,52.43773],[12.003433,52.561857],[12.013768,52.770319],[11.920544,52.918476],[11.723864,53.006274],[11.555088,53.054178],[11.414322,53.062188],[11.296913,53.093039],[11.202965,53.146834],[11.1393,53.16629],[11.105917,53.151459],[10.994347,53.200112],[10.804488,53.312173],[10.682428,53.369094],[10.601038,53.371678],[10.412988,53.416843],[10.305139,53.425525],[10.214808,53.412812],[10.082,53.439943]],[[10.082,53.439943],[9.818967,53.54035],[9.784034,53.554638],[9.899789,53.551719],[9.987639,53.538102],[10.047532,53.515907],[10.082,53.439943]]]}},{"type":"Feature","properties":{"sigla":"sena","nome":"Sena"},"geometry":{"type":"MultiLineString","coordinates":[[[4.707651,47.577871],[4.584248,47.739644],[4.553552,47.812482],[4.574326,47.850361],[4.565024,47.89147],[4.505906,47.958055],[4.408393,48.08182],[4.321835,48.145279],[4.213624,48.189669],[4.096112,48.283746],[3.969195,48.427432],[3.858297,48.516625],[3.763419,48.551326],[3.561209,48.525721],[3.251668,48.439834],[3.038399,48.393067],[2.921507,48.385419],[2.818929,48.409294],[2.686689,48.492441],[2.573053,48.53342],[2.49931,48.581531],[2.427687,48.650416],[2.404639,48.699405],[2.430271,48.728395],[2.430064,48.765654],[2.403916,48.811129],[2.352033,48.833867],[2.296325,48.852057],[2.269867,48.875208],[2.250023,48.908281],[2.21695,48.911588],[2.173335,48.904147],[2.14419,48.928125],[2.137575,48.947969],[2.111117,48.957891],[2.061611,48.954273],[2.008281,48.960604],[1.975931,48.996079],[1.907615,49.00595],[1.803332,48.990137],[1.718169,48.991739],[1.674554,49.017422],[1.66794,49.047187],[1.634867,49.060417],[1.585051,49.052045],[1.496891,49.084188],[1.396535,49.159739],[1.353696,49.211493],[1.31406,49.219167],[1.27861,49.212449],[1.244297,49.220743],[1.238095,49.244152],[1.22807,49.282005],[1.188796,49.306577],[1.092471,49.311771],[1.056091,49.328307],[1.042862,49.354766],[1.023018,49.381224],[0.972168,49.378123],[0.929794,49.389673],[0.897341,49.424219],[0.853416,49.414762],[0.828095,49.426337],[0.784893,49.470521],[0.718747,49.480443],[0.651775,49.460444],[0.585112,49.453312],[0.493128,49.49362],[0.439255,49.473208]]]}},{"type":"Feature","properties":{"sigla":"loire","nome":"Loire"},"geometry":{"type":"MultiLineString","coordinates":[[[3.083254,46.985427],[3.021862,47.149267],[2.915926,47.287243],[2.892878,47.363259],[2.917476,47.423411],[2.882749,47.498806],[2.788595,47.58955],[2.614342,47.691146],[2.359887,47.803594],[2.145378,47.871264],[1.970815,47.894183],[1.84519,47.892529],[1.768502,47.866278],[1.608202,47.764372],[1.364393,47.586889],[1.158204,47.473743],[0.989738,47.425013],[0.815434,47.395815],[0.63529,47.386255],[0.427757,47.340625],[0.207409,47.244042],[0.075401,47.218178],[-0.038313,47.249028],[-0.216364,47.364241],[-0.418031,47.40243],[-0.731242,47.370959],[-1.05639,47.374602],[-1.248704,47.336413],[-1.416575,47.257581],[-1.559047,47.216317],[-1.63253,47.201615],[-1.742524,47.215956]],[[3.083132,46.98503],[3.168228,46.976891],[3.248557,46.951589],[3.328886,46.846035],[3.489545,46.829127],[3.625486,46.740273],[3.724353,46.638546],[3.749069,46.557877],[3.860294,46.506866],[3.983878,46.460064],[3.990057,46.379129],[4.03949,46.238272],[4.101282,46.165568],[4.101282,46.062763],[4.033311,45.976945],[4.051848,45.925391],[4.156894,45.852274],[4.212507,45.744573],[4.218686,45.628023],[4.255761,45.476578],[4.200148,45.368153],[4.132177,45.307344],[4.082744,45.237768],[3.952982,45.198594],[3.909728,45.115805],[3.922086,45.037262],[3.903548,44.971727],[3.928265,44.871095],[4.070386,44.809755],[4.169252,44.774673],[4.200148,44.822904]]]}},{"type":"Feature","properties":{"sigla":"po","nome":"Pó"},"geometry":{"type":"MultiLineString","coordinates":[[[7.110192,44.706005],[7.325579,44.664819],[7.423506,44.686937],[7.501796,44.794527],[7.619308,44.84902],[7.664783,44.92501],[7.677496,45.040739],[7.730619,45.129003],[7.824257,45.189852],[7.975875,45.219772],[8.185372,45.218765],[8.360038,45.199205],[8.499668,45.161068],[8.594339,45.112647],[8.644052,45.053994],[8.807762,45.053607],[9.224481,45.140501],[9.4624,45.099521],[9.504981,45.093372],[9.549526,45.11567],[9.60699,45.12908],[9.651897,45.114301],[9.698716,45.086189],[9.732667,45.082778],[9.753855,45.104017],[9.781657,45.103035],[9.81628,45.079729],[9.845839,45.084587],[9.870437,45.117505],[9.908677,45.132646],[9.960457,45.129907],[10.007689,45.105774],[10.050374,45.060196],[10.15352,45.025831],[10.317128,45.002731],[10.429524,44.972372],[10.490606,44.934803],[10.5567,44.928292],[10.627703,44.952838],[10.665995,44.986143],[10.671473,45.028208],[10.739738,45.056914],[10.870686,45.072236],[11.020341,45.074768],[11.188496,45.064536],[11.312416,45.028957],[11.391894,44.968005],[11.479279,44.92687],[11.574467,44.90558],[11.683918,44.917517],[11.869488,44.985213],[12.084978,45.019888],[12.198873,45.012989],[12.282899,44.976041],[12.377157,44.960693],[12.523401,44.967953]]]}},{"type":"Feature","properties":{"sigla":"vistula","nome":"Vístula"},"geometry":{"type":"MultiLineString","coordinates":[[[18.879189,49.643843],[18.788187,49.817425],[18.770979,49.887705],[18.810253,49.925015]],[[18.93686,49.931888],[19.06817,49.9523],[19.141292,49.986587],[19.199893,50.041545],[19.348256,50.045731],[19.586278,49.999222],[19.851636,50.006044],[20.290679,50.096322],[20.521983,50.137302],[20.645283,50.18766],[20.73768,50.261067],[20.883201,50.307317],[21.081949,50.326386],[21.289275,50.385555],[21.505282,50.484877],[21.670078,50.585905],[21.783663,50.688586],[21.823609,50.845708],[21.790019,51.05722],[21.783818,51.188349],[21.805005,51.239095],[21.855545,51.287929],[21.93523,51.3348],[21.961016,51.386321],[21.932801,51.442442],[21.897093,51.472982],[21.853995,51.477943],[21.829603,51.500991],[21.824022,51.542074],[21.731728,51.590805],[21.552618,51.647184],[21.451952,51.704519],[21.429628,51.762861],[21.37113,51.820429],[21.276459,51.877247],[21.241215,51.91833],[21.2654,51.943806],[21.258734,51.993468],[21.221217,52.067313],[21.126287,52.170123],[20.973842,52.301847],[20.841963,52.383935],[20.730549,52.416387],[20.52405,52.41892],[20.222363,52.391634],[19.963567,52.42078],[19.639556,52.549273],[19.201753,52.643945],[18.959184,52.759829],[18.765914,52.928449],[18.537556,53.038262],[18.27411,53.089266],[18.199799,53.174016],[18.314624,53.292561],[18.463142,53.382633],[18.645353,53.444232],[18.739404,53.519473],[18.745295,53.608408],[18.777283,53.67383],[18.835367,53.715791],[18.870817,53.777235],[18.88353,53.85816],[18.872833,53.94663],[18.838623,54.042567],[18.853041,54.128531],[18.915983,54.204547],[18.949211,54.271546],[18.976237,54.348931]]]}},{"type":"Feature","properties":{"sigla":"ural","nome":"Ural"},"geometry":{"type":"MultiLineString","coordinates":[[[58.630871,51.695088],[58.628494,51.618813],[58.659293,51.561039],[58.722545,51.49634],[58.750812,51.424846],[58.744094,51.346556],[58.712623,51.287361],[58.656503,51.24726],[58.527105,51.201268],[58.324637,51.149333],[58.209295,51.10639],[58.181183,51.072438],[58.045171,51.068873],[57.801258,51.095796],[57.535693,51.164526],[57.248475,51.275165],[56.906429,51.3533],[56.509657,51.398982],[56.223731,51.472259],[56.048755,51.573131],[55.877086,51.647545],[55.708724,51.695553],[55.456181,51.735189],[55.119458,51.766453],[54.649616,51.725809],[54.046552,51.613206],[53.667195,51.55998],[53.511442,51.566129],[53.40566,51.550807],[53.34985,51.513962],[53.227377,51.484971],[53.038344,51.463732],[52.902642,51.466936],[52.820477,51.494583],[52.728131,51.498149],[52.625708,51.477633],[52.553723,51.441796],[52.512072,51.390559],[52.427942,51.3826],[52.301335,51.417792],[52.225061,51.420893],[52.199222,51.391928],[52.128219,51.381929],[52.01205,51.39092],[51.941357,51.378053],[51.916139,51.343326],[51.768758,51.285604],[51.499213,51.204885],[51.395292,51.148403],[51.364235,51.075281],[51.316434,50.998283],[51.221039,50.903767],[51.18254,50.825994],[51.200834,50.764964],[51.189207,50.708481],[51.147555,50.656598],[51.13598,50.594845],[51.15448,50.52317],[51.149674,50.478366],[51.121459,50.460331],[51.116033,50.436302],[51.133293,50.406174],[51.131381,50.364885],[51.110193,50.31233],[51.156082,50.253005],[51.26884,50.186808],[51.329095,50.122161],[51.340567,50.027438],[51.319638,49.955272],[51.347078,49.912587],[51.416014,49.875302],[51.470895,49.801767],[51.511926,49.691954],[51.557711,49.630718],[51.59373,49.613845],[51.608406,49.584622],[51.635743,49.546382],[51.707366,49.488013],[51.739095,49.449023],[51.743695,49.419774],[51.76049,49.404478],[51.827772,49.374351],[51.847823,49.352285],[51.846996,49.335749],[51.858571,49.323346],[51.883893,49.314148],[51.915726,49.27508],[51.947765,49.205627],[51.936293,49.137518],[51.881412,49.070778],[51.84958,49.000524],[51.841001,48.92673],[51.853869,48.895052],[51.880327,48.868594],[51.875986,48.815393],[51.803588,48.623079],[51.775579,48.585639],[51.730104,48.56024],[51.666955,48.546908],[51.624994,48.514636],[51.606339,48.468721],[51.602515,48.443038],[51.610473,48.42428],[51.634916,48.404539],[51.633262,48.385781],[51.60236,48.370407],[51.588665,48.318188],[51.592076,48.229149],[51.583549,48.181194],[51.569442,48.167448],[51.581999,48.11944],[51.640394,48.016398],[51.654036,47.881858],[51.62303,47.715796],[51.67357,47.578595],[51.805551,47.470126],[51.879242,47.397366],[51.894642,47.360262],[51.892058,47.331323],[51.871594,47.310498],[51.876865,47.293444],[51.907871,47.280112],[51.926784,47.250139],[51.933606,47.203605],[51.88379,47.121207],[51.724213,46.943853]],[[59.426275,54.51998],[59.306799,54.402959],[59.194093,54.324643],[59.161743,54.277824],[59.172182,54.23638],[59.149806,54.174756],[59.094719,54.092952],[59.102264,54.012156],[59.172647,53.932367],[59.190424,53.863457],[59.155697,53.805398],[59.168513,53.746229],[59.228974,53.685948],[59.253572,53.640447],[59.242513,53.609803],[59.182104,53.573268],[59.072446,53.530893],[59.021338,53.464385],[59.02878,53.373797],[59.066917,53.307212],[59.135647,53.264708],[59.129652,53.217165],[59.048934,53.164559],[58.974003,53.070714],[58.905066,52.935581],[58.904136,52.810834],[58.971419,52.696525],[58.995655,52.620251],[58.985682,52.599735],[58.989919,52.569453],[59.01028,52.545837],[59.057925,52.526768],[59.082523,52.513229],[59.080353,52.469821],[59.062163,52.419953],[58.833753,52.195781]]]}},{"type":"Feature","properties":{"sigla":"don","nome":"Don"},"geometry":{"type":"MultiLineString","coordinates":[[[42.109709,47.601772],[42.014728,47.560327],[41.852981,47.563893],[41.754744,47.590093],[41.592738,47.598671],[41.406806,47.598671],[41.295289,47.563893],[41.183926,47.547331],[41.072821,47.548984],[41.009208,47.566864],[40.993085,47.601022],[40.970244,47.61004],[40.926009,47.585907],[40.588458,47.491443],[40.411622,47.401396],[40.283051,47.284349],[40.112363,47.222493],[39.89956,47.21593],[39.68934,47.187172],[39.377886,47.11082],[39.293447,47.105756]],[[43.549104,49.506643],[43.379192,49.486644],[43.315734,49.455922],[43.301988,49.407811],[43.251913,49.365463],[43.165407,49.328876],[43.095489,49.324018],[43.042055,49.350812],[43.015907,49.380035],[43.017044,49.411661],[42.956634,49.44215],[42.834781,49.471503],[42.796851,49.515634],[42.769876,49.57253],[42.730963,49.581522],[42.647092,49.566561],[42.446484,49.578524],[42.296726,49.599479],[42.006253,49.610254],[41.832568,49.596508],[41.712937,49.615757],[41.467061,49.613019],[41.379521,49.588033],[41.313634,49.586767],[41.269502,49.609194],[41.260975,49.629684],[41.288054,49.648184],[41.279269,49.683066],[41.234517,49.734303],[41.140363,49.770296],[40.996599,49.791121],[40.921048,49.827269],[40.913606,49.878765],[40.889577,49.921759],[40.848959,49.956202],[40.778007,49.963824],[40.676618,49.944549],[40.644372,49.953385],[40.621221,49.976536],[40.5959,50.026559],[40.501539,50.120404],[40.431569,50.139162],[40.385887,50.082886],[40.321808,50.06511],[40.197991,50.096322],[40.039655,50.10335],[40.001414,50.132548],[40.030456,50.186239],[40.026529,50.238381],[39.989632,50.289024],[40.001931,50.345635],[40.063632,50.40819],[40.036347,50.475369],[39.920282,50.547096],[39.907001,50.617376],[39.879406,50.649829],[39.794347,50.691867],[39.757191,50.733441],[39.768043,50.774627],[39.794088,50.7969],[39.814242,50.833125],[39.788507,50.874156],[39.774658,50.918727],[39.777862,50.952187],[39.744789,50.962109],[39.677403,50.954565],[39.512865,50.95968],[39.266162,50.987017],[39.14312,51.024147],[39.143844,51.071121],[39.181567,51.110524],[39.256292,51.142408],[39.262079,51.173259],[39.198931,51.203128],[39.176762,51.237571],[39.16007,51.294182],[39.13108,51.363997],[39.051808,51.429574],[39.051653,51.477091],[39.058939,51.507115],[39.037235,51.539671],[39.017701,51.567654],[39.011914,51.597213],[39.038165,51.625893],[39.045813,51.656744],[39.034961,51.689817],[39.060335,51.757151],[39.122036,51.85867],[39.139968,51.934091],[39.13294,52.011735]],[[39.13294,52.018556],[39.151647,52.051604],[39.163791,52.08416],[39.154386,52.124881],[39.096456,52.179348],[38.990003,52.247664],[38.957653,52.289367],[38.958067,52.327194],[38.904943,52.43773],[38.930678,52.576223],[38.932745,52.664589],[38.910938,52.702882],[38.964371,52.794142],[39.092942,52.938371],[39.155367,53.117843],[39.151543,53.332611],[39.111649,53.448572],[39.056045,53.518594],[39.021319,53.560917],[38.998064,53.576213],[38.87125,53.6182],[38.64098,53.686827],[38.530961,53.753722],[38.541193,53.818886],[38.529256,53.860873],[38.478096,53.889011],[38.306117,54.063755]]]}},{"type":"Feature","properties":{"sigla":"tamisa","nome":"Tâmisa"},"geometry":{"type":"MultiLineString","coordinates":[[[-2.021912,51.685889],[-1.939282,51.648476],[-1.824302,51.652067],[-1.561992,51.700178],[-1.43399,51.704803],[-1.368826,51.725319],[-1.323815,51.763171],[-1.281544,51.75896],[-1.241908,51.712709],[-1.238808,51.681962],[-1.220153,51.649819],[-1.170285,51.627702],[-1.123905,51.586567],[-1.110211,51.525227],[-1.068663,51.48461],[-0.999236,51.464714],[-0.943942,51.478822],[-0.902808,51.526984],[-0.841416,51.554114],[-0.759767,51.56029],[-0.71455,51.549309],[-0.70574,51.521248],[-0.676904,51.503937],[-0.603653,51.494118],[-0.503245,51.415725],[-0.43325,51.392419],[-0.360231,51.398052],[-0.320337,51.418826],[-0.313593,51.454741],[-0.244863,51.479752],[-0.048751,51.500939],[0.384504,51.453139],[0.424502,51.465644]]]}},{"type":"Feature","properties":{"sigla":"oder","nome":"Óder"},"geometry":{"type":"MultiLineString","coordinates":[[[17.617974,49.739393],[17.846952,49.654024],[17.946429,49.637074],[18.015779,49.671749],[18.141663,49.729885],[18.224862,49.794739],[18.307338,49.885638],[18.316588,49.972402],[18.252612,50.055033],[18.231012,50.137457],[18.251786,50.219674],[18.185381,50.321011],[18.031902,50.441366],[17.958212,50.532161],[17.96431,50.593295],[17.938368,50.656469],[17.880387,50.721659],[17.762255,50.780467],[17.450232,50.881959],[17.360522,50.927589],[17.300009,50.974512],[17.268693,51.022726],[17.193607,51.067839],[17.01522,51.130988],[16.869079,51.22876],[16.738028,51.252944],[16.57318,51.236098],[16.474685,51.244779],[16.442335,51.278989],[16.439648,51.315344],[16.466623,51.353817],[16.474116,51.421409],[16.462231,51.518044],[16.40766,51.595042],[16.310405,51.652455],[16.223124,51.677001],[16.145816,51.668784],[16.020345,51.690902],[15.846609,51.743354],[15.768785,51.811205],[15.786665,51.894455],[15.757933,51.960886],[15.682485,52.010521],[15.423793,52.045764],[14.760887,52.076925],[14.704612,52.110205],[14.692365,52.150047],[14.705387,52.20746],[14.679859,52.249989],[14.615677,52.277636],[14.573922,52.314171],[14.554595,52.359647],[14.569685,52.431089],[14.619397,52.528499],[14.514029,52.645624],[14.253683,52.782515],[14.128626,52.87822],[14.138858,52.932868],[14.193687,52.982348],[14.293216,53.026738],[14.36856,53.105544],[14.445558,53.275482],[14.58064,53.445162],[14.618261,53.525829],[14.610199,53.584456],[14.583534,53.639336]]]}},{"type":"Feature","properties":{"sigla":"dniester","nome":"Dniéster"},"geometry":{"type":"MultiLineString","coordinates":[[[30.478326,46.101166],[30.49295,46.090159]],[[22.846595,49.267071],[23.082343,49.460651],[23.388371,49.55403],[23.607376,49.564753],[23.841263,49.52398],[24.018617,49.481011],[24.13923,49.435923],[24.226615,49.372361],[24.280668,49.290351],[24.360457,49.245211],[24.46598,49.237047],[24.594292,49.181908],[24.745394,49.079795],[24.851176,49.02786],[24.911637,49.026],[24.98693,48.998198],[25.122116,48.917635],[25.154517,48.878464],[25.185367,48.881874],[25.210534,48.88451],[25.230274,48.864253],[25.250738,48.841903],[25.301898,48.841903],[25.339001,48.832472],[25.397654,48.845288],[25.520541,48.808907],[25.668232,48.689406],[25.731226,48.658917],[25.780577,48.659873],[25.826982,48.649176],[25.894058,48.607524],[25.95793,48.601943],[26.005421,48.613803],[26.036633,48.617239],[26.071928,48.572281],[26.092909,48.562669],[26.130374,48.572152],[26.168718,48.547244],[26.253106,48.529441],[26.397903,48.535126],[26.498466,48.516677],[26.554793,48.474096],[26.59107,48.466293],[26.607296,48.493268],[26.638819,48.504223],[26.668378,48.516574],[26.694319,48.539001],[26.720468,48.549957],[26.758708,48.561842],[26.78403,48.564788],[26.80377,48.579076],[26.834983,48.582565],[26.883558,48.558251],[26.996678,48.560344],[27.271907,48.600548],[27.432982,48.58365],[27.479904,48.509597],[27.573749,48.464897],[27.714412,48.449498],[27.820039,48.41627],[27.890629,48.365214],[27.963389,48.333562],[28.038423,48.321289],[28.080126,48.295812],[28.088498,48.257055],[28.158829,48.237986],[28.291018,48.238555],[28.347138,48.213052],[28.326984,48.161428],[28.340524,48.144452],[28.387549,48.162125],[28.423051,48.146881],[28.442016,48.108692],[28.463049,48.090502],[28.495656,48.095928],[28.539168,48.104093],[28.574463,48.068746],[28.571776,48.027973],[28.604384,48.008956],[28.653321,48.017121],[28.765562,47.98658],[28.933924,47.897904],[29.010199,47.795739],[28.994386,47.680087],[29.017485,47.582677],[29.079497,47.503561],[29.103475,47.449559],[29.089419,47.420775],[29.102958,47.391785],[29.119908,47.368504],[29.116445,47.340547],[29.103733,47.310187],[29.153859,47.234792],[29.144557,47.180971],[29.131948,47.153246],[29.136961,47.135573],[29.172256,47.135573],[29.215147,47.143143],[29.264963,47.146037],[29.313591,47.115781],[29.35917,47.06643],[29.360255,47.029404],[29.316743,47.004625],[29.300207,46.983851],[29.310645,46.967108],[29.423558,46.954705],[29.472444,46.911814],[29.498593,46.828718],[29.537298,46.80058],[29.588665,46.8274],[29.635173,46.812595],[29.676825,46.756113],[29.689795,46.715004],[29.673982,46.689192],[29.693413,46.664542],[29.748086,46.640926],[29.763434,46.620462],[29.769842,46.601032],[29.805137,46.580878],[29.898258,46.553438],[30.131009,46.423084],[30.219685,46.426288],[30.254102,46.400527],[30.268778,46.320041]]]}},{"type":"Feature","properties":{"sigla":"ebro","nome":"Ebro"},"geometry":{"type":"MultiLineString","coordinates":[[[-4.18886,43.011173],[-4.102251,43.001484],[-4.05476,42.952521],[-4.01745,42.861053],[-3.962672,42.825035],[-3.890377,42.844414],[-3.821958,42.841856],[-3.757388,42.817283],[-3.709251,42.832631],[-3.677522,42.887899],[-3.626776,42.898002],[-3.522131,42.845447],[-3.451231,42.806922],[-3.336613,42.791859],[-3.15466,42.787414],[-3.010896,42.75522],[-2.905424,42.695275],[-2.842793,42.644167],[-2.823052,42.601844],[-2.755795,42.559676],[-2.641022,42.517612],[-2.563146,42.506863],[-2.522192,42.527327],[-2.39543,42.513788],[-2.182936,42.466245],[-1.994421,42.39085],[-1.747614,42.235924],[-1.405206,41.978265],[-1.110185,41.8021],[-0.748398,41.621517],[-0.526422,41.478916],[-0.444231,41.374322],[-0.301087,41.309417],[-0.097069,41.284199],[0.040339,41.306058],[0.111136,41.374994],[0.167101,41.410651],[0.208132,41.413131],[0.262754,41.398895],[0.330864,41.367966],[0.362206,41.328434],[0.356754,41.280271],[0.364299,41.255725],[0.39502,41.254304],[0.525426,41.248904],[0.589866,41.219629],[0.631724,41.164697],[0.652498,41.119196],[0.651981,41.083126],[0.613844,41.037521],[0.53788,40.982383],[0.517054,40.903886],[0.551264,40.802032],[0.650586,40.744619],[0.89114,40.722347]]]}},{"type":"Feature","properties":{"sigla":"rodano","nome":"Ródano"},"geometry":{"type":"MultiLineString","coordinates":[[[4.617424,43.710045],[4.514071,43.702294],[4.466529,43.683225],[4.440174,43.650204],[4.435626,43.626898],[4.443739,43.613256],[4.433766,43.591035],[4.378886,43.560287],[4.371237,43.528144],[4.409736,43.447219]],[[6.1333,46.204596],[5.902203,46.122611],[5.814457,46.013316],[5.793063,45.849476],[5.746967,45.737105],[5.676274,45.676179],[5.572921,45.704291],[5.437012,45.821389],[5.349782,45.846711],[5.285187,45.812269],[5.191032,45.798936],[5.058431,45.817385],[4.95177,45.808057],[4.870949,45.770953],[4.82351,45.712533],[4.809454,45.632796],[4.819324,45.582128],[4.85312,45.560527],[4.84139,45.512778],[4.784029,45.438958],[4.789713,45.288916],[4.858236,45.062676],[4.863817,44.911006],[4.806353,44.833956],[4.780566,44.76117],[4.786458,44.692699],[4.77235,44.637198],[4.721294,44.573429],[4.673545,44.350084],[4.675405,44.228128],[4.710958,44.133095],[4.759327,44.07054],[4.820409,44.040413],[4.843405,44.012353],[4.820616,43.973234],[4.690236,43.906416],[4.637681,43.827764],[4.619388,43.715058],[4.631377,43.638784],[4.694629,43.579097],[4.723619,43.553673],[4.735401,43.507526],[4.743256,43.448614],[4.787233,43.401434]],[[8.250484,46.482279],[8.068273,46.374121],[7.955308,46.334691],[7.798625,46.324615],[7.652898,46.326578],[7.471203,46.277486],[7.204966,46.178009],[7.089159,46.151757],[7.020481,46.196819],[6.866382,46.402594]]]}}]}