{"type":"FeatureCollection","features":[{"type":"Feature","properties":{"sigla":"VAT","nome":"Vaticano"},"geometry":{"type":"Point","coordinates":[12.453387,41.903282]}},{"type":"Feature","properties":{"sigla":"GBR","nome":"Londres"},"geometry":{"type":"Point","coordinates":[-0.118668,51.501941]}},{"type":"Feature","properties":{"sigla":"UKR","nome":"Kiev"},"geometry":{"type":"Point","coordinates":[30.514682,50.435313]}},{"type":"Feature","properties":{"sigla":"CHE","nome":"Berna"},"geometry":{"type":"Point","coordinates":[7.466976,46.916683]}},{"type":"Feature","properties":{"sigla":"SWE","nome":"Estocolmo"},"geometry":{"type":"Point","coordinates":[18.0663,59.324127]}},{"type":"Feature","properties":{"sigla":"ESP","nome":"Madrid"},"geometry":{"type":"Point","coordinates":[-3.685297,40.401972]}},{"type":"Feature","properties":{"sigla":"SVK","nome":"Bratislava"},"geometry":{"type":"Point","coordinates":[17.116981,48.150018]}},{"type":"Feature","properties":{"sigla":"SVN","nome":"Liubliana"},"geometry":{"type":"Point","coordinates":[14.514969,46.055288]}},{"type":"Feature","properties":{"sigla":"SRB","nome":"Belgrado"},"geometry":{"type":"Point","coordinates":[20.466045,44.820591]}},{"type":"Feature","properties":{"sigla":"SMR","nome":"San Marino"},"geometry":{"type":"Point","coordinates":[12.44177,43.936096]}},{"type":"Feature","properties":{"sigla":"RUS","nome":"Moscovo"},"geometry":{"type":"Point","coordinates":[37.613577,55.75411]}},{"type":"Feature","properties":{"sigla":"ROU","nome":"Bucareste"},"geometry":{"type":"Point","coordinates":[26.098001,44.435318]}},{"type":"Feature","properties":{"sigla":"PRT","nome":"Lisboa"},"geometry":{"type":"Point","coordinates":[-9.146812,38.724669]}},{"type":"Feature","properties":{"sigla":"POL","nome":"Varsóvia"},"geometry":{"type":"Point","coordinates":[21.005347,52.230872]}},{"type":"Feature","properties":{"sigla":"NOR","nome":"Oslo"},"geometry":{"type":"Point","coordinates":[10.748033,59.918636]}},{"type":"Feature","properties":{"sigla":"NLD","nome":"Amesterdão"},"geometry":{"type":"Point","coordinates":[4.914694,52.351914]}},{"type":"Feature","properties":{"sigla":"MNE","nome":"Podgorica"},"geometry":{"type":"Point","coordinates":[19.266307,42.465972]}},{"type":"Feature","properties":{"sigla":"MDA","nome":"Chișinău"},"geometry":{"type":"Point","coordinates":[28.857711,47.005024]}},{"type":"Feature","properties":{"sigla":"MCO","nome":"Mónaco"},"geometry":{"type":"Point","coordinates":[7.406913,43.739646]}},{"type":"Feature","properties":{"sigla":"MLT","nome":"Valeta"},"geometry":{"type":"Point","coordinates":[14.514711,35.899732]}},{"type":"Feature","properties":{"sigla":"MKD","nome":"Skopje"},"geometry":{"type":"Point","coordinates":[21.433461,42.000006]}},{"type":"Feature","properties":{"sigla":"LUX","nome":"Luxemburgo"},"geometry":{"type":"Point","coordinates":[6.130003,49.61166]}},{"type":"Feature","properties":{"sigla":"LTU","nome":"Vilnius"},"geometry":{"type":"Point","coordinates":[25.316635,54.683366]}},{"type":"Feature","properties":{"sigla":"LIE","nome":"Vaduz"},"geometry":{"type":"Point","coordinates":[9.51667,47.133724]}},{"type":"Feature","properties":{"sigla":"LVA","nome":"Riga"},"geometry":{"type":"Point","coordinates":[24.099965,56.950024]}},{"type":"Feature","properties":{"sigla":"KOS","nome":"Pristina"},"geometry":{"type":"Point","coordinates":[21.165984,42.66671]}},{"type":"Feature","properties":{"sigla":"ITA","nome":"Roma"},"geometry":{"type":"Point","coordinates":[12.481313,41.897902]}},{"type":"Feature","properties":{"sigla":"IRL","nome":"Dublin"},"geometry":{"type":"Point","coordinates":[-6.25698,53.346731]}},{"type":"Feature","properties":{"sigla":"ISL","nome":"Reykjavík"},"geometry":{"type":"Point","coordinates":[-21.936546,64.143459]}},{"type":"Feature","properties":{"sigla":"HUN","nome":"Budapeste"},"geometry":{"type":"Point","coordinates":[19.081375,47.501952]}},{"type":"Feature","properties":{"sigla":"GRC","nome":"Atenas"},"geometry":{"type":"Point","coordinates":[23.731375,37.985272]}},{"type":"Feature","properties":{"sigla":"DEU","nome":"Berlim"},"geometry":{"type":"Point","coordinates":[13.399603,52.523764]}},{"type":"Feature","properties":{"sigla":"FRA","nome":"Paris"},"geometry":{"type":"Point","coordinates":[2.352992,48.858092]}},{"type":"Feature","properties":{"sigla":"FIN","nome":"Helsínquia"},"geometry":{"type":"Point","coordinates":[24.932457,60.163804]}},{"type":"Feature","properties":{"sigla":"EST","nome":"Tallinn"},"geometry":{"type":"Point","coordinates":[24.728041,59.433877]}},{"type":"Feature","properties":{"sigla":"DNK","nome":"Copenhaga"},"geometry":{"type":"Point","coordinates":[12.56154,55.68051]}},{"type":"Feature","properties":{"sigla":"CZE","nome":"Praga"},"geometry":{"type":"Point","coordinates":[14.422939,50.086967]}},{"type":"Feature","properties":{"sigla":"HRV","nome":"Zagreb"},"geometry":{"type":"Point","coordinates":[15.999995,45.800007]}},{"type":"Feature","properties":{"sigla":"BGR","nome":"Sófia"},"geometry":{"type":"Point","coordinates":[23.314708,42.685295]}},{"type":"Feature","properties":{"sigla":"BIH","nome":"Sarajevo"},"geometry":{"type":"Point","coordinates":[18.383002,43.850022]}},{"type":"Feature","properties":{"sigla":"BEL","nome":"Bruxelas"},"geometry":{"type":"Point","coordinates":[4.331371,50.835263]}},{"type":"Feature","properties":{"sigla":"BLR","nome":"Minsk"},"geometry":{"type":"Point","coordinates":[27.564681,53.901923]}},{"type":"Feature","properties":{"sigla":"AUT","nome":"Viena"},"geometry":{"type":"Point","coordinates":[16.364693,48.201961]}},{"type":"Feature","properties":{"sigla":"AND","nome":"Andorra-a-Velha"},"geometry":{"type":"Point","coordinates":[1.526594,42.510753]}},{"type":"Feature","properties":{"sigla":"ALB","nome":"Tirana"},"geometry":{"type":"Point","coordinates":[19.818883,41.327541]}}]}