{"type":"FeatureCollection","features":[{"type":"Feature","properties":{"sigla":"RUS_0","nome":"Moscou"},"geometry":{"type":"Point","coordinates":[37.613577,55.75411]}},{"type":"Feature","properties":{"sigla":"FRA_1","nome":"Paris"},"geometry":{"type":"Point","coordinates":[2.352992,48.858092]}},{"type":"Feature","properties":{"sigla":"GBR_2","nome":"Londres"},"geometry":{"type":"Point","coordinates":[-0.118668,51.501941]}},{"type":"Feature","properties":{"sigla":"ESP_3","nome":"Madrid"},"geometry":{"type":"Point","coordinates":[-3.685297,40.401972]}},{"type":"Feature","properties":{"sigla":"ESP_4","nome":"Barcelona"},"geometry":{"type":"Point","coordinates":[2.181424,41.385245]}},{"type":"Feature","properties":{"sigla":"RUS_5","nome":"São Petersburgo"},"geometry":{"type":"Point","coordinates":[30.314074,59.94096]}},{"type":"Feature","properties":{"sigla":"DEU_6","nome":"Berlim"},"geometry":{"type":"Point","coordinates":[13.399603,52.523764]}},{"type":"Feature","properties":{"sigla":"ITA_7","nome":"Roma"},"geometry":{"type":"Point","coordinates":[12.481313,41.897902]}},{"type":"Feature","properties":{"sigla":"GRC_8","nome":"Atenas"},"geometry":{"type":"Point","coordinates":[23.731375,37.985272]}},{"type":"Feature","properties":{"sigla":"ITA_9","nome":"Milão"},"geometry":{"type":"Point","coordinates":[9.203063,45.471921]}},{"type":"Feature","properties":{"sigla":"DEU_10","nome":"Frankfurt"},"geometry":{"type":"Point","coordinates":[8.675015,50.099977]}},{"type":"Feature","properties":{"sigla":"PRT_11","nome":"Lisboa"},"geometry":{"type":"Point","coordinates":[-9.146812,38.724669]}},{"type":"Feature","properties":{"sigla":"UKR_12","nome":"Kiev"},"geometry":{"type":"Point","coordinates":[30.514682,50.435313]}},{"type":"Feature","properties":{"sigla":"AUT_13","nome":"Viena"},"geometry":{"type":"Point","coordinates":[16.364693,48.201961]}},{"type":"Feature","properties":{"sigla":"GBR_14","nome":"Birmingham"},"geometry":{"type":"Point","coordinates":[-1.921943,52.47692]}}]}