{"type":"FeatureCollection","features":[{"type":"Feature","properties":{"sigla":"USA_0","nome":"Nova York"},"geometry":{"type":"Point","coordinates":[-73.995718,40.721562]}},{"type":"Feature","properties":{"sigla":"MEX_1","nome":"Cidade do México"},"geometry":{"type":"Point","coordinates":[-99.132934,19.444388]}},{"type":"Feature","properties":{"sigla":"USA_2","nome":"Los Angeles"},"geometry":{"type":"Point","coordinates":[-118.231986,34.049219]}},{"type":"Feature","properties":{"sigla":"USA_3","nome":"Chicago"},"geometry":{"type":"Point","coordinates":[-87.635237,41.847961]}},{"type":"Feature","properties":{"sigla":"USA_4","nome":"Miami"},"geometry":{"type":"Point","coordinates":[-80.226052,25.789557]}},{"type":"Feature","properties":{"sigla":"USA_5","nome":"Filadélfia"},"geometry":{"type":"Point","coordinates":[-75.179841,39.945942]}},{"type":"Feature","properties":{"sigla":"CAN_6","nome":"Toronto"},"geometry":{"type":"Point","coordinates":[-79.389459,43.664645]}},{"type":"Feature","properties":{"sigla":"USA_7","nome":"Dallas"},"geometry":{"type":"Point","coordinates":[-96.794687,32.771958]}},{"type":"Feature","properties":{"sigla":"USA_8","nome":"Atlanta"},"geometry":{"type":"Point","coordinates":[-84.367642,33.739457]}},{"type":"Feature","properties":{"sigla":"USA_9","nome":"Boston"},"geometry":{"type":"Point","coordinates":[-71.07196,42.331906]}},{"type":"Feature","properties":{"sigla":"USA_10","nome":"Houston"},"geometry":{"type":"Point","coordinates":[-95.348436,29.741273]}},{"type":"Feature","properties":{"sigla":"USA_11","nome":"Washington"},"geometry":{"type":"Point","coordinates":[-77.011364,38.901495]}},{"type":"Feature","properties":{"sigla":"MEX_12","nome":"Guadalajara"},"geometry":{"type":"Point","coordinates":[-103.33198,20.671962]}},{"type":"Feature","properties":{"sigla":"USA_13","nome":"Detroit"},"geometry":{"type":"Point","coordinates":[-83.051334,42.333558]}},{"type":"Feature","properties":{"sigla":"MEX_14","nome":"Monterrei"},"geometry":{"type":"Point","coordinates":[-100.331931,25.671941]}}]}