{"type":"FeatureCollection","features":[{"type":"Feature","properties":{"sigla":"USA","nome":"Washington"},"geometry":{"type":"Point","coordinates":[-77.011364,38.901495]}},{"type":"Feature","properties":{"sigla":"TTO","nome":"Port of Spain"},"geometry":{"type":"Point","coordinates":[-61.517031,10.651997]}},{"type":"Feature","properties":{"sigla":"VCT","nome":"Kingstown"},"geometry":{"type":"Point","coordinates":[-61.220236,13.155756]}},{"type":"Feature","properties":{"sigla":"LCA","nome":"Castries"},"geometry":{"type":"Point","coordinates":[-60.992875,14.007875]}},{"type":"Feature","properties":{"sigla":"KNA","nome":"Basseterre"},"geometry":{"type":"Point","coordinates":[-62.717009,17.302031]}},{"type":"Feature","properties":{"sigla":"PAN","nome":"Cidade do Panamá"},"geometry":{"type":"Point","coordinates":[-79.534983,8.969963]}},{"type":"Feature","properties":{"sigla":"NIC","nome":"Manágua"},"geometry":{"type":"Point","coordinates":[-86.270437,12.154962]}},{"type":"Feature","properties":{"sigla":"MEX","nome":"Cidade do México"},"geometry":{"type":"Point","coordinates":[-99.132934,19.444388]}},{"type":"Feature","properties":{"sigla":"JAM","nome":"Kingston"},"geometry":{"type":"Point","coordinates":[-76.767434,17.977077]}},{"type":"Feature","properties":{"sigla":"HND","nome":"Tegucigalpa"},"geometry":{"type":"Point","coordinates":[-87.219475,14.103991]}},{"type":"Feature","properties":{"sigla":"HTI","nome":"Porto Príncipe"},"geometry":{"type":"Point","coordinates":[-72.33798,18.54297]}},{"type":"Feature","properties":{"sigla":"GTM","nome":"Cidade da Guatemala"},"geometry":{"type":"Point","coordinates":[-90.528911,14.623081]}},{"type":"Feature","properties":{"sigla":"GRD","nome":"Saint George's"},"geometry":{"type":"Point","coordinates":[-61.741643,12.052633]}},{"type":"Feature","properties":{"sigla":"SLV","nome":"San Salvador"},"geometry":{"type":"Point","coordinates":[-89.215576,13.70328]}},{"type":"Feature","properties":{"sigla":"DOM","nome":"Santo Domingo"},"geometry":{"type":"Point","coordinates":[-69.929742,18.470745]}},{"type":"Feature","properties":{"sigla":"DMA","nome":"Roseau"},"geometry":{"type":"Point","coordinates":[-61.387013,15.301016]}},{"type":"Feature","properties":{"sigla":"CUB","nome":"Havana"},"geometry":{"type":"Point","coordinates":[-82.366128,23.133905]}},{"type":"Feature","properties":{"sigla":"CRI","nome":"San José"},"geometry":{"type":"Point","coordinates":[-84.078814,9.930371]}},{"type":"Feature","properties":{"sigla":"CAN","nome":"Ottawa"},"geometry":{"type":"Point","coordinates":[-75.701961,45.418643]}},{"type":"Feature","properties":{"sigla":"BLZ","nome":"Belmopan"},"geometry":{"type":"Point","coordinates":[-88.767073,17.252033]}},{"type":"Feature","properties":{"sigla":"BRB","nome":"Bridgetown"},"geometry":{"type":"Point","coordinates":[-59.616527,13.102003]}},{"type":"Feature","properties":{"sigla":"BHS","nome":"Nassau"},"geometry":{"type":"Point","coordinates":[-77.350044,25.08339]}},{"type":"Feature","properties":{"sigla":"ATG","nome":"Saint John's"},"geometry":{"type":"Point","coordinates":[-61.850034,17.118036]}}]}