{"type":"FeatureCollection","features":[{"type":"Feature","properties":{"sigla":"mississippi","nome":"Mississippi"},"geometry":{"type":"MultiLineString","coordinates":[[[-89.376141,28.981332],[-89.25713,29.154913],[-89.01575,29.202869]],[[-89.260954,29.155146],[-89.288601,29.177522]],[[-89.288601,29.177522],[-89.180778,29.335703]],[[-89.288601,29.177522],[-89.433063,29.294388],[-89.519052,29.347305],[-89.615584,29.386992],[-89.665968,29.415595],[-89.669689,29.4435],[-89.71364,29.485642],[-89.758004,29.505538],[-89.869315,29.608193],[-89.972875,29.688808],[-90.006981,29.753895],[-90.01158,29.810894],[-89.986724,29.85978],[-89.958095,29.875644],[-89.931947,29.87766],[-89.922697,29.888279],[-89.922542,29.90293],[-89.932515,29.913859],[-90.041449,29.932023],[-90.249602,29.942772],[-90.39042,29.976],[-90.463956,30.031656],[-90.58183,30.04752],[-90.744094,30.023491],[-90.849229,30.040337],[-90.878246,30.075219],[-90.897211,30.09806],[-90.944159,30.126714],[-90.990048,30.126378],[-91.021131,30.147101],[-91.037719,30.181285],[-91.074461,30.203583],[-91.109885,30.208828],[-91.133476,30.227199],[-91.129522,30.24818],[-91.147893,30.267817],[-91.17939,30.284896],[-91.191198,30.307194],[-91.187245,30.328175],[-91.195126,30.351791],[-91.225615,30.368431],[-91.235278,30.402486],[-91.217915,30.479458],[-91.226442,30.504857],[-91.258068,30.53408],[-91.257034,30.565215],[-91.276025,30.614566],[-91.338321,30.706188],[-91.387672,30.743808],[-91.422657,30.753343],[-91.529085,30.755978],[-91.557067,30.780034],[-91.546603,30.814734],[-91.523271,30.853776],[-91.526372,30.871036],[-91.545595,30.908346],[-91.618356,30.938112],[-91.646287,30.952426],[-91.659697,30.972012],[-91.657216,30.995989],[-91.652617,31.029553],[-91.611043,31.0649],[-91.596367,31.10991],[-91.63081,31.217604],[-91.618252,31.276954],[-91.558695,31.28791],[-91.528955,31.345193],[-91.529007,31.448753],[-91.505727,31.518697],[-91.459089,31.554973],[-91.414699,31.639981],[-91.372531,31.77372],[-91.28649,31.883971],[-91.156523,31.970685],[-91.092548,32.045848],[-91.088698,32.104139],[-91.07459,32.131321],[-91.048158,32.145919],[-91.004595,32.185581],[-90.947725,32.240074],[-90.937648,32.277332],[-90.940438,32.303093],[-90.944702,32.330714],[-90.990022,32.381047],[-91.059268,32.423758],[-91.103813,32.490498],[-91.100816,32.541373],[-91.116112,32.586228],[-91.14965,32.625012],[-91.142416,32.66103],[-91.094357,32.694258],[-91.092083,32.725858],[-91.135594,32.755779],[-91.13606,32.80885],[-91.093375,32.885021],[-91.096088,32.93768],[-91.144173,32.966877],[-91.152854,33.040568],[-91.106785,33.217921],[-91.117301,33.240814],[-91.163345,33.294454],[-91.168461,33.359463],[-91.14102,33.438502],[-91.154327,33.500204],[-91.192955,33.522528],[-91.202722,33.546971],[-91.214582,33.583403],[-91.172724,33.616682],[-91.170373,33.647456],[-91.207476,33.675671],[-91.184119,33.715668],[-91.100299,33.767448],[-91.077148,33.796697],[-91.052705,33.8276],[-91.038184,33.901394],[-91.05007,33.945163],[-91.070172,33.974206],[-91.060354,33.989295],[-91.043145,34.00286],[-90.9431,34.02968],[-90.914729,34.04862],[-90.908787,34.071564],[-90.940258,34.128563],[-90.909717,34.188766],[-90.817216,34.252225],[-90.768123,34.308113],[-90.762336,34.35643],[-90.718101,34.3917],[-90.635418,34.413869],[-90.584,34.503708],[-90.563846,34.661166],[-90.539248,34.728165],[-90.49721,34.738087],[-90.474756,34.760049],[-90.467573,34.805266],[-90.415948,34.85162],[-90.319934,34.899162],[-90.282106,34.945309],[-90.293424,34.970062],[-90.29376,35.004479],[-90.255958,35.046388],[-90.14227,35.114291],[-90.092919,35.203588],[-90.107879,35.314201],[-90.066021,35.414118],[-89.967345,35.503311],[-89.926521,35.591652],[-89.943497,35.67914],[-89.894559,35.750505],[-89.779657,35.805748],[-89.763585,35.828046],[-89.768107,35.845254],[-89.769941,35.864297],[-89.768934,35.8721],[-89.763585,35.888766],[-89.738212,35.898739],[-89.70377,35.906904],[-89.688913,35.92096],[-89.689171,35.943594],[-89.709325,35.983049],[-89.697698,36.030308],[-89.641887,36.104515],[-89.634136,36.167922],[-89.674547,36.22058],[-89.654083,36.247969],[-89.627986,36.255255],[-89.594629,36.259441],[-89.583544,36.272231],[-89.583544,36.287656],[-89.611708,36.321969],[-89.604086,36.351916],[-89.555277,36.372922],[-89.540601,36.426666],[-89.560032,36.513095],[-89.555484,36.540767],[-89.549645,36.553066],[-89.535589,36.555288],[-89.519517,36.554823],[-89.496831,36.52883],[-89.485385,36.498134],[-89.471484,36.488884],[-89.451821,36.497514],[-89.397458,36.587793],[-89.351311,36.611202],[-89.330537,36.615905],[-89.280126,36.60004],[-89.256123,36.594407],[-89.203051,36.625517],[-89.156335,36.715718],[-89.129515,36.811061],[-89.122487,36.911597],[-89.15432,36.992109],[-89.22491,37.052674],[-89.272401,37.079985],[-89.28147,37.077789],[-89.291676,37.070657],[-89.29581,37.051641],[-89.293252,37.038179],[-89.285888,37.022702],[-89.290022,37.01278],[-89.300823,37.012056],[-89.351879,37.035517],[-89.413942,37.102413],[-89.48691,37.212742],[-89.502929,37.300514],[-89.461976,37.365678],[-89.461976,37.434124],[-89.502929,37.505799],[-89.523419,37.57595],[-89.523419,37.644524],[-89.623284,37.747257],[-89.822961,37.884096],[-89.969826,37.968535],[-90.063877,38.000523],[-90.173586,38.069046],[-90.299005,38.174001],[-90.365771,38.254254],[-90.373987,38.309755],[-90.316601,38.457808],[-90.150745,38.780527],[-90.132193,38.818639],[-90.126767,38.832617],[-90.134209,38.846673],[-90.149918,38.859902],[-90.220069,38.897678],[-90.35435,38.930208],[-90.47796,38.948114],[-90.577076,38.909615],[-90.66353,38.987491],[-90.737221,39.181795],[-90.91938,39.386899],[-91.209905,39.602803],[-91.378732,39.749409],[-91.425861,39.82682],[-91.466815,39.942859],[-91.501644,40.097527],[-91.499784,40.22602],[-91.441958,40.379448],[-91.390773,40.397121],[-91.380541,40.447557],[-91.394183,40.536647],[-91.339045,40.603982],[-91.215124,40.64956],[-91.102134,40.749787],[-91.000125,40.904687],[-90.954003,41.015585],[-90.963822,41.082531],[-91.001339,41.145964],[-91.066503,41.205909],[-91.082109,41.280323],[-91.048106,41.369103],[-90.938759,41.425585],[-90.754067,41.449822],[-90.586739,41.494729],[-90.436671,41.560358],[-90.347529,41.632033],[-90.319236,41.709651],[-90.276009,41.770009],[-90.217769,41.813107],[-90.176609,41.883645],[-90.15245,41.98152],[-90.149427,42.053712],[-90.167514,42.100299],[-90.233221,42.154016],[-90.346573,42.21484],[-90.410497,42.272071],[-90.425044,42.32566],[-90.48473,42.383253],[-90.589633,42.4448],[-90.657329,42.520506],[-90.68787,42.610319],[-90.788742,42.67693],[-90.959946,42.720338],[-91.069578,42.788551],[-91.117585,42.881646],[-91.148152,42.986214],[-91.161329,43.102331],[-91.147583,43.199586],[-91.106966,43.278031],[-91.117198,43.331154],[-91.178357,43.35893],[-91.21869,43.395284],[-91.238276,43.440243],[-91.278428,43.79743],[-91.319924,43.936285],[-91.382685,43.990804],[-91.514848,44.054211],[-91.716438,44.126454],[-91.840978,44.19415],[-91.912291,44.288873],[-92.055125,44.399822],[-92.148582,44.445246],[-92.240307,44.462144],[-92.313094,44.497801],[-92.36694,44.552268],[-92.441587,44.586581],[-92.537033,44.600792],[-92.643539,44.645337],[-92.819884,44.757785],[-92.962563,44.790186],[-93.030207,44.838142],[-93.070412,44.912401],[-93.118755,44.937464],[-93.175237,44.913228],[-93.232495,44.963044],[-93.290528,45.086912],[-93.348999,45.166649],[-93.407859,45.202357],[-93.935863,45.388651],[-94.062987,45.439191],[-94.133293,45.496345],[-94.189207,45.577037],[-94.211996,45.632125],[-94.201712,45.661632],[-94.237782,45.713825],[-94.320155,45.78873],[-94.370539,45.852809],[-94.388833,45.906061],[-94.386404,45.972078],[-94.363149,46.050833],[-94.365785,46.124885],[-94.394233,46.194287],[-94.333461,46.284462],[-94.183445,46.395515],[-94.091383,46.481737],[-94.057225,46.54318],[-93.959479,46.568786],[-93.798093,46.558554],[-93.691795,46.58602],[-93.64061,46.651184],[-93.572035,46.697563],[-93.486045,46.72521],[-93.403673,46.807427],[-93.324815,46.944318],[-93.309157,47.023177],[-93.356596,47.044054],[-93.401864,47.089736],[-93.444937,47.160119],[-93.50855,47.211279],[-93.592757,47.243163],[-93.676111,47.248899],[-93.75869,47.228435],[-93.798248,47.242233],[-93.794838,47.290318],[-93.828944,47.31166],[-93.900568,47.306234],[-93.975835,47.335845],[-94.094122,47.43279]],[[-95.025822,47.156114],[-94.9681,47.3175],[-94.877071,47.451419],[-94.794286,47.482063],[-94.63706,47.439999]],[[-94.50774,47.456535],[-94.326485,47.405634]]]}},{"type":"Feature","properties":{"sigla":"riogrande","nome":"Rio Grande (Bravo)"},"geometry":{"type":"MultiLineString","coordinates":[[[-99.172081,26.564141],[-99.107769,26.446913],[-99.015269,26.398957],[-98.87321,26.381232],[-98.765232,26.340408],[-98.691412,26.276458],[-98.598291,26.237856],[-98.485869,26.224575],[-98.378124,26.182356],[-98.275029,26.111197],[-98.082793,26.06443],[-97.801415,26.042054],[-97.587242,25.984202],[-97.440274,25.890823],[-97.375627,25.871806],[-97.35816,25.870514],[-97.349737,25.884777],[-97.338653,25.911184],[-97.281783,25.941621],[-97.146235,25.961465]],[[-101.038633,29.460295],[-101.016335,29.400661],[-100.924144,29.314697],[-100.754594,29.182508],[-100.658631,29.068536],[-100.636307,28.972805],[-100.549697,28.821342],[-100.398905,28.614223],[-100.331726,28.50255],[-100.348159,28.486427],[-100.336273,28.428136],[-100.296043,28.327677],[-100.221267,28.242617],[-100.111946,28.172958],[-100.00141,28.047849],[-99.889634,27.867292],[-99.754267,27.729936],[-99.595311,27.635885],[-99.505316,27.548345],[-99.484258,27.467394],[-99.485834,27.398044],[-99.51007,27.340321],[-99.499813,27.285518],[-99.455138,27.233713],[-99.440256,27.170125],[-99.457722,27.081706],[-99.456534,27.056669]],[[-106.566358,31.819531],[-106.43603,31.76447],[-106.346966,31.678997],[-106.255705,31.544664],[-106.148063,31.450923],[-106.024091,31.397774],[-105.812709,31.241039],[-105.513993,30.980771],[-105.275817,30.807267],[-105.098153,30.720554],[-104.978832,30.645933],[-104.917854,30.583353],[-104.835895,30.447651],[-104.681331,30.134362],[-104.681331,29.990521],[-104.622213,29.854276],[-104.503977,29.677672],[-104.400625,29.573751],[-104.312206,29.542435],[-104.21552,29.479906],[-104.110616,29.386114],[-103.989745,29.323172],[-103.852906,29.291081],[-103.663977,29.2069],[-103.422932,29.070681],[-103.257697,29.001124],[-103.168297,28.998179],[-103.090007,29.041871],[-103.022828,29.132201],[-102.956811,29.190363],[-102.892009,29.216382],[-102.865679,29.258034],[-102.877823,29.315317],[-102.834002,29.443965],[-102.734189,29.643953],[-102.614945,29.752344],[-102.476246,29.769088],[-102.385657,29.806656],[-102.343076,29.864973],[-102.26892,29.871174],[-102.163087,29.82526],[-101.990901,29.795701],[-101.752337,29.782472],[-101.611596,29.786968],[-101.568704,29.80924],[-101.54638,29.808078],[-101.544623,29.783531],[-101.509302,29.773118],[-101.440392,29.776839],[-101.380344,29.742552],[-101.303527,29.634083]],[[-107.293445,32.910343],[-107.2404,32.74286],[-107.171644,32.674414],[-107.069506,32.649144],[-106.975351,32.583851],[-106.889155,32.478535],[-106.846418,32.399315],[-106.84709,32.346295],[-106.777172,32.194728],[-106.56628,31.819531]],[[-107.181411,33.173195],[-107.279803,33.115783]],[[-107.426564,37.775963],[-107.066948,37.74395],[-106.924346,37.808855],[-106.813914,37.792215],[-106.688134,37.715631],[-106.541553,37.677701],[-106.374199,37.678424],[-106.195967,37.647289],[-106.006831,37.584295],[-105.878596,37.524945],[-105.811236,37.469238],[-105.763461,37.406038],[-105.735246,37.335318],[-105.731603,37.239536],[-105.75248,37.118717],[-105.74292,36.979733],[-105.702819,36.822585],[-105.694809,36.650683],[-105.718942,36.464028],[-105.760697,36.338919],[-105.849864,36.24355],[-106.006263,36.133273],[-106.072616,36.048033],[-106.101038,35.951088],[-106.166098,35.855228],[-106.267694,35.760376],[-106.343193,35.648315],[-106.392493,35.519073],[-106.487319,35.375722],[-106.627595,35.218316],[-106.692423,35.089383],[-106.681777,34.98895],[-106.716271,34.780875],[-106.795853,34.465183],[-106.849855,34.294651],[-106.878277,34.269278],[-106.886364,34.147063],[-106.874169,33.927904],[-106.928016,33.748845],[-107.047905,33.609835],[-107.123404,33.494235],[-107.169939,33.356]]]}},{"type":"Feature","properties":{"sigla":"colorado_na","nome":"Colorado"},"geometry":{"type":"MultiLineString","coordinates":[[[-64.970292,-38.803678],[-64.596284,-38.841298],[-64.390302,-38.877678],[-64.227728,-38.925427],[-63.988957,-39.038495],[-63.674015,-39.216882],[-63.456405,-39.315688],[-63.33618,-39.334911],[-63.214353,-39.380077],[-63.090898,-39.450977],[-62.918376,-39.499087],[-62.696736,-39.524409],[-62.516618,-39.60828],[-62.308775,-39.821807],[-62.279371,-39.851986],[-62.253972,-39.880459]],[[-70.302008,-35.288078],[-70.223047,-35.59054],[-70.165634,-35.721799],[-70.072358,-35.813163],[-69.865317,-35.860136],[-69.762351,-35.963799],[-69.694448,-36.139809],[-69.67091,-36.25975],[-69.691684,-36.323726],[-69.693389,-36.406511],[-69.676077,-36.508314],[-69.694164,-36.596112],[-69.747649,-36.670009],[-69.784805,-36.779615],[-69.80563,-36.924826],[-69.796587,-37.019756],[-69.757778,-37.064249],[-69.699203,-37.10621],[-69.620887,-37.145691],[-69.463016,-37.1737],[-69.225511,-37.190236],[-69.076372,-37.239897],[-69.015601,-37.322579],[-68.870416,-37.383299],[-68.640869,-37.421953],[-68.501472,-37.465413],[-68.452276,-37.513731],[-68.272597,-37.557966],[-67.962513,-37.598067],[-67.783247,-37.658631],[-67.734852,-37.739608],[-67.750536,-37.820482],[-67.830324,-37.901407],[-67.866265,-37.968587],[-67.858359,-38.022227],[-67.824459,-38.055713],[-67.764566,-38.069252],[-67.689532,-38.122427],[-67.599305,-38.215341],[-67.45983,-38.252032],[-67.271108,-38.232446],[-67.15003,-38.26924],[-67.096648,-38.362464],[-66.993089,-38.435896],[-66.762534,-38.516305],[-66.653342,-38.563692],[-66.603216,-38.610046],[-66.575802,-38.671076],[-66.519578,-38.70973],[-66.434518,-38.72606],[-66.06821,-38.740219],[-65.892639,-38.7612],[-65.75735,-38.799027],[-65.658028,-38.807398],[-65.594776,-38.786418],[-65.514213,-38.791482],[-65.416441,-38.822798],[-65.270093,-38.829723],[-64.977734,-38.803678]],[[-114.720951,32.724489],[-114.788001,32.564808],[-114.839316,32.504321],[-114.897297,32.489826],[-114.959076,32.41983],[-115.024627,32.294308],[-115.093047,32.212969],[-115.164309,32.175711],[-115.198596,32.124241],[-115.195909,32.058457],[-115.186943,32.043574],[-115.172887,32.045228],[-115.15294,32.036288],[-115.125655,31.988203],[-115.092788,31.964638],[-115.035195,31.966085],[-115.009486,31.946061],[-114.98109,31.917664],[-114.933599,31.90074]],[[-114.163517,34.253362],[-114.329321,34.142025],[-114.418282,34.051152],[-114.509051,33.903926],[-114.495099,33.784656],[-114.499259,33.685877],[-114.521557,33.607613],[-114.556,33.535628],[-114.602612,33.469895],[-114.651162,33.430621],[-114.701701,33.417805],[-114.719426,33.33086],[-114.704388,33.169784],[-114.648087,33.071754],[-114.550548,33.036795],[-114.490861,32.98362],[-114.469002,32.912307],[-114.477529,32.842001],[-114.516467,32.772754],[-114.582174,32.734721],[-114.720899,32.724489]],[[-114.590984,35.352778],[-114.610518,34.997606],[-114.610932,34.907404],[-114.557472,34.794569],[-114.397999,34.589698],[-114.378879,34.540631]],[[-114.741363,36.013513],[-114.73232,35.98367],[-114.687103,35.917343],[-114.683692,35.813602],[-114.677077,35.729809],[-114.650128,35.683507],[-114.645167,35.630539]],[[-112.876386,36.280421],[-113.206289,36.124204],[-113.295585,36.047697],[-113.324834,35.994702],[-113.323129,35.835358],[-113.355556,35.764045],[-113.422012,35.762417],[-113.579237,35.801329],[-113.635694,35.830836]],[[-111.473449,36.932139],[-111.590832,36.849534],[-111.682764,36.747706],[-111.788391,36.599136],[-111.851953,36.487954],[-111.873553,36.41416],[-111.86482,36.320006],[-111.825753,36.205594],[-111.834434,36.125857],[-111.890762,36.080795],[-111.995019,36.072837],[-112.147154,36.101983],[-112.256166,36.151437],[-112.322105,36.221149],[-112.376598,36.246108],[-112.419696,36.226265],[-112.459306,36.228745],[-112.495376,36.253601],[-112.4992,36.288121],[-112.470778,36.332356],[-112.467419,36.365946],[-112.489175,36.388787],[-112.532583,36.400647],[-112.597695,36.401525],[-112.693038,36.371579],[-112.881373,36.280421]],[[-105.861362,40.16468],[-105.985231,40.127422],[-106.125791,40.092695],[-106.284644,40.09099],[-106.401123,40.062103],[-106.4821,40.018514],[-106.594806,39.922654],[-106.638369,39.894077],[-106.676196,39.889891],[-106.726322,39.920251],[-106.79314,39.924437],[-106.876649,39.902474],[-106.969408,39.828112],[-107.071366,39.701375],[-107.132034,39.64373],[-107.235387,39.602389],[-107.540795,39.578902],[-107.733729,39.579187],[-107.846719,39.556759],[-107.944078,39.511697],[-108.106083,39.410179],[-108.242328,39.314551],[-108.314029,39.178307],[-108.433557,39.099423],[-108.557864,39.089862],[-108.801105,39.183965],[-108.866864,39.200502],[-108.952026,39.198383],[-109.050625,39.141022],[-109.195577,39.032889],[-109.26472,38.935143],[-109.30632,38.811843],[-109.362854,38.734173],[-109.434271,38.702212],[-109.498737,38.651207],[-109.556279,38.581185],[-109.595656,38.553771],[-109.614156,38.561419],[-109.634517,38.546175],[-109.64847,38.485351],[-109.67038,38.452847],[-109.700146,38.448661],[-109.722987,38.414296],[-109.738903,38.349753],[-109.784534,38.279369],[-109.897447,38.165164],[-110.130921,37.961766],[-110.248459,37.894948],[-110.367573,37.89792]],[[-105.845575,40.404097],[-105.816404,40.215298],[-105.820641,40.184912]]]}},{"type":"Feature","properties":{"sigla":"yukon","nome":"Yukon"},"geometry":{"type":"MultiLineString","coordinates":[[[-134.915532,61.56787],[-134.870289,61.628409],[-134.885482,61.685382],[-134.946047,61.758918],[-134.964444,61.815969],[-134.940724,61.856431],[-134.939717,61.888522],[-134.961498,61.91219],[-135.121282,61.9572],[-135.419041,62.02363],[-135.628693,62.048719],[-135.750236,62.032493],[-135.928132,62.045567],[-136.307127,62.121221],[-136.362214,62.145458],[-136.377768,62.196824],[-136.35379,62.275424],[-136.583415,62.427895],[-137.356081,62.781207],[-137.451708,62.808595],[-137.73275,62.819525],[-138.398213,62.80056],[-139.236379,62.969697],[-139.417815,63.010573],[-139.531969,63.071138],[-139.564421,63.161261],[-139.544526,63.233608],[-139.472386,63.28823],[-139.506079,63.352722],[-139.645683,63.427033],[-139.730354,63.512584],[-139.76012,63.609348],[-139.759448,63.674047],[-139.728442,63.706629],[-139.723146,63.750166],[-139.743609,63.804633],[-139.742834,63.865353],[-139.72082,63.932403],[-139.65346,63.983097],[-139.540779,64.017462],[-139.481636,64.056969],[-139.476106,64.101566],[-139.51135,64.158203],[-139.587469,64.226829],[-139.848978,64.296593],[-140.295901,64.367441],[-140.452636,64.404777],[-140.477337,64.425629],[-140.47018,64.452759],[-140.464573,64.498492],[-140.479249,64.526088],[-140.545163,64.517613],[-140.588829,64.528155],[-140.610301,64.557765],[-140.64911,64.571795],[-140.70523,64.570297],[-140.730216,64.584895],[-140.724015,64.615643],[-140.745796,64.627322],[-140.795535,64.620035],[-140.88217,64.64068],[-140.933149,64.674476],[-141.005729,64.689282],[-141.064795,64.725559],[-141.059421,64.749381],[-141.092545,64.774961],[-141.164246,64.802298],[-141.176028,64.832994],[-141.127918,64.867152],[-141.12877,64.887771],[-141.178586,64.894902],[-141.198017,64.913299],[-141.18701,64.942961],[-141.229927,64.953607],[-141.326691,64.945183],[-141.373458,64.965906],[-141.368601,65.040733],[-141.404464,65.086002],[-141.533448,65.128531],[-141.767517,65.183412],[-141.923761,65.240669],[-142.002154,65.300304],[-142.14739,65.33472],[-142.359445,65.34397],[-142.502382,65.363039],[-142.576279,65.391978],[-142.654827,65.393011],[-142.738026,65.366062],[-142.928867,65.354822],[-143.22735,65.359215],[-143.447363,65.383245],[-143.588904,65.426808],[-143.672517,65.471844],[-143.698226,65.518275],[-143.781218,65.55419],[-143.921571,65.57946],[-144.022857,65.613205],[-144.085127,65.655424],[-144.087375,65.721699],[-144.029679,65.812004],[-144.016604,65.876031],[-144.048153,65.913729],[-144.250776,66.026771],[-144.624423,66.215132],[-144.832162,66.334944],[-144.873942,66.386129],[-145.002849,66.453438],[-145.218908,66.536843],[-145.453416,66.586634],[-145.828016,66.61066]],[[-163.258841,62.016112],[-163.240599,61.939527],[-163.241555,61.885525],[-163.289381,61.84713],[-163.388342,61.829146],[-163.538514,61.831575],[-163.644037,61.816201],[-163.704912,61.783077],[-163.773822,61.776746],[-163.836273,61.797107],[-163.844696,61.834934],[-163.860199,61.851264],[-163.898311,61.852556],[-163.958979,61.83881],[-164.001689,61.85147],[-164.026417,61.89059],[-164.086801,61.878833],[-164.182815,61.81615],[-164.264102,61.789045],[-164.330662,61.797572],[-164.429209,61.781862],[-164.559769,61.741916],[-164.646405,61.744449],[-164.745753,61.761553],[-164.831329,61.739048],[-164.879414,61.697733],[-164.869182,61.665022],[-164.76632,61.628693],[-164.742833,61.590608],[-164.778128,61.55092],[-164.888354,61.50684],[-165.007416,61.480382],[-165.091209,61.440694],[-165.188232,61.39217],[-165.205854,61.330469],[-165.201461,61.286337],[-165.243939,61.268767]],[[-163.258841,62.016112],[-163.434489,62.060502],[-163.730879,62.092257],[-163.903711,62.133572],[-163.95301,62.184473],[-163.947946,62.248294],[-163.888518,62.325137],[-163.859424,62.391644],[-163.860742,62.447868],[-163.929859,62.531558],[-164.066802,62.64274],[-164.221883,62.710074],[-164.481686,62.745318],[-164.522355,62.737153],[-164.589431,62.709351]],[[-145.828016,66.61066],[-146.664221,66.508111],[-147.015388,66.444575],[-147.158583,66.386026],[-147.323198,66.352462],[-147.509259,66.343832],[-147.596489,66.32112],[-147.58481,66.284275],[-147.745679,66.264224],[-148.079095,66.260917],[-148.364194,66.22464],[-148.600976,66.155342],[-148.728668,66.103717],[-148.764377,66.06744],[-148.790422,66.061524],[-148.812462,66.085269],[-148.87282,66.090333],[-148.971444,66.076691],[-149.013922,66.056253],[-149.000176,66.028916],[-149.053765,66.007031],[-149.174584,65.990649],[-149.251349,65.956595],[-149.284009,65.904918],[-149.438134,65.889364],[-149.713673,65.909879],[-149.920378,65.890087],[-150.058199,65.829884],[-150.0482,65.798284],[-149.890303,65.795235],[-149.827051,65.755418],[-149.85847,65.678885],[-149.92968,65.649998],[-150.040733,65.66886],[-150.125275,65.640593],[-150.183256,65.565249],[-150.324359,65.520187],[-150.548583,65.505408],[-150.791901,65.446316],[-151.054314,65.342937],[-151.401115,65.25979],[-152.047845,65.165377],[-152.349222,65.123932],[-152.534276,65.134164],[-152.698943,65.182223],[-152.856556,65.201318],[-153.007115,65.191473],[-153.126436,65.165635],[-153.214596,65.123881],[-153.331178,65.111633],[-153.476182,65.128841],[-153.739861,65.083805],[-154.122241,64.976448],[-154.402482,64.927045],[-154.580662,64.935572],[-154.847675,64.90224],[-155.134065,64.867049],[-155.381466,64.789637],[-155.575485,64.75566],[-155.754002,64.763722],[-155.998354,64.720753],[-156.202424,64.712691],[-156.424994,64.680419],[-156.732598,64.664219],[-156.759573,64.69569],[-156.809157,64.718427],[-156.917161,64.729538],[-156.992763,64.755066],[-157.035887,64.794908],[-157.271428,64.825527],[-157.396253,64.819661],[-157.509528,64.843639],[-157.76915,64.850331],[-157.84191,64.869271],[-157.913353,64.85754],[-158.002547,64.800954],[-158.168609,64.681324],[-158.286431,64.642773],[-158.500888,64.463559],[-158.6785,64.342817],[-158.690567,64.310804],[-158.659199,64.222747],[-158.67372,64.138333],[-158.73413,64.057563],[-158.825675,63.994105],[-159.00972,63.92491],[-159.148782,63.883956],[-159.202525,63.847576],[-159.217304,63.802101],[-159.255933,63.767322],[-159.318461,63.743086],[-159.385899,63.678956],[-159.458194,63.574879],[-159.478891,63.494109],[-159.447962,63.436748],[-159.502222,63.372308],[-159.641645,63.300736],[-159.725103,63.213506],[-159.752543,63.110567],[-159.825665,63.034912],[-159.944521,62.986543],[-160.018909,62.915695],[-160.048856,62.822471],[-160.090404,62.756273],[-160.14363,62.717102],[-160.170244,62.66031],[-160.170347,62.585896],[-160.133037,62.522954],[-160.058313,62.471484],[-160.006429,62.414537],[-159.975243,62.370664],[-159.962918,62.320847],[-159.955631,62.279868],[-159.912637,62.253461],[-159.805253,62.236098],[-159.744327,62.214265],[-159.729909,62.187962],[-159.74244,62.154449],[-159.781921,62.113728],[-159.85171,62.085797],[-159.951807,62.070656],[-160.032164,62.033061],[-160.092832,61.973013],[-160.33597,61.940716],[-160.761655,61.936116],[-161.06714,61.906764],[-161.252503,61.852607],[-161.338648,61.805013],[-161.325625,61.764034],[-161.346399,61.719954],[-161.40097,61.672773],[-161.527577,61.637168],[-161.75361,61.616549],[-161.825569,61.601021],[-161.920395,61.575725],[-161.955664,61.596887],[-161.962951,61.656056],[-162.022663,61.744914],[-162.134749,61.863459],[-162.249393,61.923275],[-162.366595,61.924386],[-162.440002,61.947847],[-162.469612,61.993658],[-162.527438,62.005854],[-162.61348,61.984382],[-162.667947,61.956839],[-162.690839,61.923171],[-162.739596,61.918133],[-162.814217,61.941646],[-162.888269,61.940044],[-162.961753,61.913224],[-163.043014,61.907514],[-163.132001,61.922887],[-163.20396,61.959061],[-163.258841,62.016112]],[[-145.828016,66.61066],[-145.832902,66.610973]],[[-145.82546,66.610973],[-145.828016,66.61066]]]}},{"type":"Feature","properties":{"sigla":"mackenzie","nome":"Mackenzie"},"geometry":{"type":"MultiLineString","coordinates":[[[-117.668109,61.307809],[-117.705601,61.367159],[-117.8597,61.414701],[-118.142887,61.470202],[-118.32347,61.454906],[-118.401501,61.368735],[-118.700217,61.29985],[-119.219565,61.2482],[-119.77271,61.304165],[-120.35965,61.467773],[-120.673378,61.567198],[-120.713892,61.602519],[-120.718001,61.648227],[-120.685729,61.704296],[-120.684023,61.752174],[-120.712962,61.79181],[-120.867526,61.820775],[-121.147716,61.839146],[-121.279853,61.863976],[-121.363155,61.87966],[-121.589162,61.973685],[-122.235298,62.117759],[-122.602563,62.167213],[-122.906317,62.170056],[-123.139016,62.204265],[-123.388303,62.310435],[-123.402049,62.326067],[-123.355902,62.405287],[-123.249784,62.548069],[-123.203947,62.709403],[-123.218339,62.88934],[-123.253944,63.023957],[-123.310711,63.113306],[-123.418559,63.198804],[-123.57749,63.280479],[-123.683194,63.378716],[-123.735698,63.493437],[-123.830033,63.630483],[-123.966226,63.78975],[-124.083816,63.896824],[-124.182828,63.951782],[-124.26582,63.978472],[-124.33287,63.976922],[-124.390128,63.999453],[-124.437644,64.046013],[-124.450719,64.104227],[-124.429376,64.174042],[-124.447825,64.231842],[-124.506064,64.277576],[-124.584095,64.311449],[-124.681945,64.333386],[-124.789096,64.404906],[-124.905575,64.525984],[-124.946606,64.614661],[-124.912189,64.670988],[-124.943143,64.707472],[-125.039416,64.724008],[-125.109438,64.763696],[-125.153156,64.826431],[-125.375132,64.874697],[-125.619019,64.895316],[-125.775315,64.908493],[-126.026953,64.956346],[-126.181621,65.049105],[-126.459381,65.177391],[-126.646295,65.237956],[-126.929327,65.29139],[-127.061412,65.295291],[-127.336589,65.374511],[-128.03019,65.608347],[-128.400865,65.619871],[-128.587985,65.642686],[-128.715006,65.680694],[-128.750146,65.739295],[-128.817274,65.790584],[-128.970469,65.866729],[-129.065424,65.94998],[-129.102114,66.040414],[-129.092864,66.108601],[-129.037648,66.154541],[-128.922642,66.201851],[-128.747872,66.25053],[-128.666404,66.292155],[-128.67829,66.326727],[-128.745237,66.357526],[-128.867193,66.384553],[-129.08904,66.480128],[-129.410726,66.644305],[-129.699287,66.749776],[-129.954724,66.796595],[-130.11784,66.860364],[-130.188663,66.941031],[-130.236102,67.045727],[-130.260106,67.174453],[-130.306278,67.258014],[-130.374595,67.296461],[-130.496422,67.325193],[-130.70504,67.339688],[-130.759403,67.353667],[-130.807669,67.373511],[-130.881747,67.420278],[-130.955696,67.460534],[-131.159715,67.488517],[-131.436907,67.473246],[-131.90662,67.403173],[-132.568905,67.278168],[-133.020118,67.245301],[-133.260258,67.304471],[-133.433116,67.370565],[-133.538743,67.443532],[-133.640003,67.47906],[-133.736948,67.477122],[-133.887249,67.525904],[-134.090957,67.62533],[-134.199374,67.717624],[-134.2125,67.802735],[-134.277302,67.889035],[-134.393781,67.976497],[-134.447886,68.072538],[-134.43967,68.177183],[-134.409051,68.230978],[-134.366496,68.291646],[-134.330219,68.313944],[-134.271566,68.318259],[-134.198857,68.344614],[-134.12496,68.392001],[-134.099354,68.42926],[-134.074886,68.517058],[-134.102584,68.576125],[-134.244229,68.706194]],[[-134.244229,68.706194],[-134.39099,68.705936],[-134.538888,68.770325],[-134.835899,68.963775]],[[-134.244229,68.706194],[-134.545064,68.919359],[-134.625576,69.017131],[-134.586043,69.070565],[-134.502973,69.111441],[-134.313011,69.153945],[-134.244669,69.191591],[-134.174337,69.252827]],[[-134.835899,68.963775],[-135.033742,68.907861],[-135.131488,68.902823],[-135.195127,68.930056],[-135.321735,68.935586],[-135.606084,68.911401],[-135.637969,68.892229]],[[-134.835899,68.963775],[-135.037385,69.0624],[-135.07622,69.109942],[-135.019582,69.139294],[-135.03922,69.181256],[-135.183061,69.263163],[-135.254994,69.323831]]]}},{"type":"Feature","properties":{"sigla":"columbia","nome":"Columbia"},"geometry":{"type":"MultiLineString","coordinates":[[[-122.149929,45.593755],[-122.202535,45.591068],[-122.560963,45.625071],[-122.649847,45.627448],[-122.725914,45.67375],[-122.74643,45.749688],[-122.843375,45.978098],[-122.941999,46.11486],[-123.042277,46.160025],[-123.120903,46.178784],[-123.220587,46.153617]],[[-118.168182,48.232405],[-118.231951,48.085592],[-118.28417,48.035001],[-118.346078,48.031694],[-118.367679,47.99583],[-118.348869,47.927411],[-118.351453,47.878525],[-118.375327,47.849173],[-118.433308,47.857183],[-118.525344,47.902554],[-118.665439,47.926946],[-118.853592,47.930356],[-118.982577,47.981904],[-119.05234,48.081613],[-119.22835,48.100889],[-119.510503,48.039704],[-119.681087,48.030454],[-119.739998,48.073035],[-119.801028,48.08474],[-119.864228,48.065542],[-119.886579,48.028903],[-119.86813,47.974746],[-119.870481,47.928858],[-119.893632,47.891186],[-119.969183,47.813103],[-120.040316,47.783182],[-120.139948,47.76277],[-120.21382,47.693472],[-120.26193,47.575236],[-120.273454,47.486921],[-120.248391,47.428578],[-120.193976,47.381734],[-120.068376,47.328817],[-120.068247,47.275358],[-120.048817,47.244584],[-120.010059,47.218591],[-119.99745,47.176139],[-120.011041,47.117279],[-119.991663,46.985349],[-119.939366,46.780452],[-119.837874,46.674206],[-119.687185,46.666661],[-119.576546,46.680614],[-119.505956,46.716012],[-119.41746,46.678753],[-119.311058,46.568786],[-119.2561,46.456183],[-119.252586,46.341022],[-119.201117,46.268546],[-119.107608,46.237178],[-119.084586,46.232682],[-119.057301,46.22028],[-119.036062,46.206482],[-118.967849,46.132378],[-118.947514,46.109899],[-118.932451,46.094861],[-118.924932,46.079797],[-118.93121,46.063442],[-118.958832,46.038379],[-118.990432,46.018638],[-119.049911,45.981483],[-119.177345,45.945077],[-119.429113,45.934173],[-119.934276,45.837874],[-120.156045,45.762168],[-120.351434,45.725168],[-120.715779,45.689821],[-121.045242,45.639049],[-121.184277,45.643778],[-121.242697,45.687031],[-121.402119,45.711835],[-121.662517,45.71814],[-121.882012,45.68946],[-122.085127,45.602643],[-122.149903,45.593858]],[[-117.907113,49.341588],[-117.721284,49.330969],[-117.676403,49.275494],[-117.710561,49.171624],[-117.701053,49.097985],[-117.64793,49.054525],[-117.681778,49.015226],[-117.716892,48.97453],[-117.907914,48.857948],[-118.020982,48.765603],[-118.073563,48.66349]],[[-117.880189,50.103144],[-117.917396,50.092369],[-117.924838,50.06449],[-117.914916,50.015914],[-117.949513,49.970723],[-118.028682,49.928865],[-118.074312,49.881348],[-118.092476,49.801508]],[[-115.865429,50.287473],[-116.08141,50.591486],[-116.224037,50.758401],[-116.365217,50.889556],[-116.544638,51.009962],[-116.762299,51.119671],[-116.931488,51.244159],[-117.0521,51.383479],[-117.182842,51.470967],[-117.323712,51.506624],[-117.424894,51.558145],[-117.517085,51.659224]],[[-117.872748,51.870219],[-118.366206,52.089973]],[[-118.52661,52.102091],[-118.581258,52.051888],[-118.595314,51.998532],[-118.589035,51.924996],[-118.610868,51.85761],[-118.660736,51.79627],[-118.681226,51.742268],[-118.672312,51.695605],[-118.599396,51.590004],[-118.462557,51.425518],[-118.358946,51.322656],[-118.288666,51.281418],[-118.237299,51.213774],[-118.204872,51.119671],[-118.195261,51.048512],[-118.208412,51.000246],[-118.137874,50.902836],[-117.906441,50.68285]]]}}]}