{"type":"FeatureCollection","features":[{"type":"Feature","properties":{"sigla":"VUT","nome":"Vanuatu"},"geometry":{"type":"MultiPolygon","coordinates":[[[[166.745801,-14.826855],[166.810156,-15.157422],[166.923438,-15.13916],[166.987305,-14.940039],[167.075586,-14.935645],[167.068555,-15.071777],[167.131641,-15.135352],[167.200781,-15.443066],[167.199609,-15.485742],[167.093945,-15.580859],[166.936621,-15.578027],[166.825781,-15.634863],[166.758301,-15.631152],[166.758984,-15.566797],[166.631055,-15.406055],[166.647852,-15.211523],[166.527246,-14.850098],[166.567383,-14.641797],[166.607813,-14.636523],[166.745801,-14.826855]]],[[[167.4125,-16.095898],[167.483691,-16.117578],[167.49873,-16.166211],[167.641992,-16.263281],[167.681348,-16.260547],[167.775977,-16.340527],[167.836621,-16.449707],[167.759766,-16.516406],[167.611426,-16.498633],[167.526367,-16.574316],[167.449316,-16.55498],[167.349219,-16.154492],[167.315625,-16.115527],[167.218066,-16.155273],[167.151465,-16.080469],[167.199512,-15.885059],[167.253711,-15.876758],[167.335742,-15.916699],[167.4125,-16.095898]]],[[[168.446777,-16.778809],[168.476562,-16.793652],[168.460156,-16.835059],[168.322754,-16.787793],[168.181445,-16.804004],[168.124316,-16.690039],[168.135352,-16.636914],[168.199219,-16.593848],[168.366016,-16.758789],[168.446777,-16.778809]]],[[[168.29668,-16.336523],[168.02168,-16.315625],[167.929004,-16.228711],[168.064258,-16.18125],[168.163867,-16.081641],[168.29668,-16.336523]]],[[[168.445801,-17.542188],[168.54541,-17.684668],[168.584961,-17.695898],[168.524609,-17.798047],[168.25166,-17.780762],[168.305859,-17.745703],[168.277832,-17.706055],[168.158203,-17.710547],[168.273145,-17.552246],[168.445801,-17.542188]]],[[[167.911328,-15.435938],[167.844238,-15.481836],[167.674219,-15.451563],[167.82627,-15.312012],[168.002539,-15.283203],[167.911328,-15.435938]]],[[[168.212891,-15.97041],[168.122852,-15.680859],[168.159961,-15.461816],[168.267773,-15.892285],[168.256348,-15.955176],[168.212891,-15.97041]]],[[[168.18916,-15.328711],[168.171875,-15.390625],[168.130469,-15.318945],[168.114941,-14.988574],[168.136426,-14.986426],[168.186914,-15.196875],[168.18916,-15.328711]]],[[[167.218945,-15.724121],[167.200781,-15.750098],[167.094727,-15.685254],[167.119043,-15.622559],[167.234375,-15.64502],[167.218945,-15.724121]]],[[[167.584863,-14.260938],[167.543262,-14.311621],[167.430273,-14.294922],[167.403516,-14.281543],[167.410742,-14.197461],[167.506445,-14.142188],[167.598926,-14.183789],[167.584863,-14.260938]]],[[[167.488867,-13.907227],[167.451074,-13.909375],[167.391797,-13.788379],[167.406836,-13.748047],[167.481055,-13.709473],[167.553516,-13.813965],[167.542871,-13.873145],[167.488867,-13.907227]]],[[[169.896289,-20.186621],[169.861133,-20.241797],[169.7375,-20.202148],[169.750684,-20.15332],[169.829492,-20.144727],[169.896289,-20.186621]]],[[[169.491309,-19.540137],[169.438477,-19.648828],[169.347266,-19.623535],[169.21748,-19.476367],[169.247461,-19.344727],[169.336719,-19.329297],[169.359961,-19.457813],[169.491309,-19.540137]]],[[[169.334375,-18.940234],[169.288281,-18.988574],[169.248047,-18.983301],[168.986914,-18.871289],[168.987109,-18.707617],[169.01582,-18.64375],[169.143848,-18.631055],[169.178027,-18.725098],[169.255762,-18.763379],[169.201172,-18.795703],[169.296191,-18.866797],[169.334375,-18.940234]]]]}},{"type":"Feature","properties":{"sigla":"FSM","nome":"Micronésia"},"geometry":{"type":"MultiPolygon","coordinates":[[[[162.983203,5.325732],[162.993457,5.277246],[162.921094,5.31792],[162.983203,5.325732]]],[[[138.142676,9.500684],[138.06709,9.419043],[138.116895,9.550195],[138.18584,9.593311],[138.213574,9.547217],[138.142676,9.500684]]],[[[151.647754,7.346191],[151.569727,7.345508],[151.629492,7.39043],[151.647754,7.346191]]],[[[151.881445,7.432031],[151.855957,7.431787],[151.865332,7.466162],[151.910547,7.460156],[151.881445,7.432031]]],[[[158.314844,6.813672],[158.183398,6.80127],[158.134766,6.944824],[158.186133,6.977734],[158.294629,6.951074],[158.334961,6.893164],[158.314844,6.813672]]]]}},{"type":"Feature","properties":{"sigla":"MHL","nome":"Ilhas Marshall"},"geometry":{"type":"MultiPolygon","coordinates":[[[[169.635059,5.830078],[169.590527,5.801904],[169.651074,5.945117],[169.73457,6.01416],[169.635059,5.830078]]],[[[168.830273,7.308984],[168.81543,7.293555],[168.675098,7.321924],[168.830273,7.308984]]],[[[171.577344,7.048242],[171.688379,7.028271],[171.756836,6.973145],[171.61416,7.007178],[171.577344,7.048242]]],[[[171.101953,7.138232],[171.226953,7.086963],[171.39375,7.110937],[171.235352,7.06875],[171.035742,7.156104],[171.101953,7.138232]]],[[[166.890332,11.153076],[166.844727,11.153369],[166.888086,11.168652],[166.890332,11.153076]]]]}},{"type":"Feature","properties":{"sigla":"TON","nome":"Tonga"},"geometry":{"type":"MultiPolygon","coordinates":[[[[-175.161914,-21.169336],[-175.078174,-21.129004],[-175.156592,-21.263672],[-175.335449,-21.157715],[-175.362354,-21.106836],[-175.318066,-21.068262],[-175.322607,-21.099316],[-175.158008,-21.146484],[-175.199756,-21.155664],[-175.161914,-21.169336]]],[[[-173.953516,-18.639355],[-173.991309,-18.698633],[-174.069141,-18.640234],[-173.968066,-18.565332],[-173.921875,-18.588574],[-173.953516,-18.639355]]],[[[-174.913135,-21.300488],[-174.918652,-21.450586],[-174.972949,-21.349805],[-174.913135,-21.300488]]]]}},{"type":"Feature","properties":{"sigla":"SLB","nome":"Ilhas Salomão"},"geometry":{"type":"MultiPolygon","coordinates":[[[[159.687695,-8.50791],[159.640039,-8.521484],[159.569238,-8.484766],[159.538477,-8.451367],[159.553223,-8.399219],[159.594629,-8.379492],[159.641602,-8.414453],[159.687695,-8.50791]]],[[[166.929199,-11.665137],[166.805957,-11.677344],[166.747461,-11.59082],[166.855469,-11.578809],[166.929199,-11.665137]]],[[[166.133203,-10.757812],[165.968164,-10.779492],[165.904004,-10.851465],[165.819336,-10.844043],[165.791016,-10.784766],[165.79043,-10.756055],[165.835938,-10.760645],[165.90918,-10.674316],[166.023828,-10.661133],[166.162109,-10.693066],[166.133203,-10.757812]]],[[[160.57627,-11.797852],[160.506543,-11.832227],[160.443066,-11.814941],[160.270215,-11.663965],[160.003516,-11.57959],[159.986328,-11.494727],[160,-11.471973],[160.077344,-11.492871],[160.44873,-11.695898],[160.57627,-11.797852]]],[[[161.547852,-9.625684],[161.553809,-9.769727],[161.47793,-9.691113],[161.44248,-9.718945],[161.409766,-9.681641],[161.416992,-9.51377],[161.36416,-9.353418],[161.406836,-9.368457],[161.547852,-9.625684]]],[[[159.188574,-9.123535],[159.071094,-9.109668],[159.036328,-9.075],[159.129785,-8.993066],[159.228418,-9.02998],[159.233984,-9.09375],[159.188574,-9.123535]]],[[[160.168164,-8.995508],[160.253516,-9.007324],[160.40752,-9.140332],[160.371484,-9.18125],[160.275977,-9.168652],[160.253125,-9.123438],[160.105371,-9.080762],[160.096289,-9.033984],[160.168164,-8.995508]]],[[[157.763477,-8.242188],[157.898438,-8.506348],[157.885449,-8.569141],[157.833691,-8.572656],[157.819336,-8.612012],[157.749219,-8.523633],[157.587891,-8.44541],[157.558008,-8.269922],[157.351367,-8.275293],[157.302441,-8.333301],[157.232422,-8.314844],[157.217578,-8.262793],[157.228516,-8.211621],[157.321582,-8.16123],[157.433398,-7.984668],[157.490625,-7.965723],[157.598828,-8.005957],[157.612305,-8.164844],[157.65127,-8.216797],[157.763477,-8.242188]]],[[[158.200781,-8.821973],[158.155371,-8.785938],[158.209961,-8.678125],[158.253418,-8.797363],[158.200781,-8.821973]]],[[[158.10791,-8.68418],[158.009473,-8.763086],[157.937598,-8.736426],[157.879297,-8.66875],[157.909277,-8.565625],[157.998438,-8.508203],[158.105469,-8.536816],[158.132227,-8.556641],[158.068359,-8.606641],[158.10791,-8.68418]]],[[[157.388965,-8.713477],[157.333887,-8.7],[157.212305,-8.565039],[157.233789,-8.519922],[157.379492,-8.420898],[157.410938,-8.475098],[157.332227,-8.650684],[157.388965,-8.713477]]],[[[156.687891,-7.923047],[156.66875,-7.936816],[156.611035,-7.865918],[156.611719,-7.805762],[156.510938,-7.707813],[156.502441,-7.640234],[156.560938,-7.574023],[156.717676,-7.695703],[156.809082,-7.722852],[156.687891,-7.923047]]],[[[156.603906,-8.171582],[156.591699,-8.196289],[156.539648,-8.072949],[156.570312,-7.958789],[156.612402,-8.096191],[156.603906,-8.171582]]],[[[157.171875,-8.108105],[157.041211,-8.11748],[156.958301,-8.014355],[156.958984,-7.937988],[157.024121,-7.867871],[157.102734,-7.855469],[157.186133,-7.941211],[157.200586,-8.015918],[157.171875,-8.108105]]],[[[155.839844,-7.097168],[155.739355,-7.121094],[155.677539,-7.088965],[155.738965,-6.972949],[155.864648,-7.043262],[155.839844,-7.097168]]],[[[157.64541,-8.758887],[157.643164,-8.794043],[157.58584,-8.783105],[157.453516,-8.705957],[157.579297,-8.703711],[157.64541,-8.758887]]],[[[159.750391,-9.272656],[159.970605,-9.433301],[160.35459,-9.421582],[160.625488,-9.588867],[160.681836,-9.691602],[160.794336,-9.767383],[160.818945,-9.862793],[160.649219,-9.928613],[160.321094,-9.821289],[160.002344,-9.812402],[159.802734,-9.763477],[159.680469,-9.636816],[159.612305,-9.470703],[159.625586,-9.31123],[159.686328,-9.268652],[159.750391,-9.272656]]],[[[159.879102,-8.534277],[159.880859,-8.557422],[159.746484,-8.473828],[159.644531,-8.37168],[159.354102,-8.260449],[159.291699,-8.203418],[158.944043,-8.040723],[158.596973,-7.759082],[158.56543,-7.651367],[158.457422,-7.544727],[158.734375,-7.604297],[159.109375,-7.903516],[159.198047,-7.90957],[159.431445,-8.029004],[159.843066,-8.326953],[159.793945,-8.406055],[159.879102,-8.534277]]],[[[157.486719,-7.330371],[157.518652,-7.365625],[157.441309,-7.425684],[157.339258,-7.393066],[157.314648,-7.341504],[157.101562,-7.323633],[156.904297,-7.180469],[156.695801,-6.910938],[156.494922,-6.761621],[156.457422,-6.715234],[156.452539,-6.638281],[156.479395,-6.608887],[156.604199,-6.641016],[156.76543,-6.764063],[157.030273,-6.891992],[157.102539,-6.957227],[157.148438,-7.11377],[157.193359,-7.160352],[157.336133,-7.280469],[157.486719,-7.330371]]],[[[160.749414,-8.313965],[160.997656,-8.612012],[160.944336,-8.799023],[161.158691,-8.961816],[161.208789,-9.132617],[161.256641,-9.191992],[161.258496,-9.316895],[161.367969,-9.490332],[161.367383,-9.61123],[161.321875,-9.589551],[161.191016,-9.392871],[161.041504,-9.308008],[160.873438,-9.156836],[160.77207,-8.963867],[160.662598,-8.620605],[160.714063,-8.539258],[160.59043,-8.372754],[160.596289,-8.328223],[160.749414,-8.313965]]],[[[161.715332,-10.387305],[161.841113,-10.446094],[161.914355,-10.436426],[162.022852,-10.476855],[162.105371,-10.453809],[162.287207,-10.709961],[162.287988,-10.776172],[162.37334,-10.823242],[162.123633,-10.824414],[161.786816,-10.716895],[161.537891,-10.566406],[161.487012,-10.361426],[161.293945,-10.326465],[161.304785,-10.204395],[161.475684,-10.237988],[161.715332,-10.387305]]]]}},{"type":"Feature","properties":{"sigla":"WSM","nome":"Samoa"},"geometry":{"type":"MultiPolygon","coordinates":[[[[-172.333496,-13.465234],[-172.221533,-13.55957],[-172.176855,-13.684668],[-172.224951,-13.804297],[-172.330859,-13.774707],[-172.535693,-13.791699],[-172.778516,-13.516797],[-172.333496,-13.465234]]],[[[-171.454102,-14.046484],[-171.728223,-14.047266],[-171.911914,-14.00166],[-172.028076,-13.906836],[-172.045898,-13.857129],[-171.858154,-13.807129],[-171.603906,-13.879199],[-171.56543,-13.943066],[-171.461377,-13.977637],[-171.454102,-14.046484]]]]}},{"type":"Feature","properties":{"sigla":"PNG","nome":"Papua-Nova Guiné"},"geometry":{"type":"MultiPolygon","coordinates":[[[[152.96582,-4.756348],[152.891699,-4.832422],[152.739941,-4.63584],[152.680664,-4.498438],[152.696777,-4.282031],[152.668164,-4.131836],[152.598438,-3.994824],[152.279395,-3.582422],[152.192188,-3.505859],[151.972949,-3.453418],[151.879785,-3.400098],[151.578516,-3.153516],[151.066797,-2.829004],[150.968066,-2.779883],[150.847852,-2.779785],[150.746094,-2.738867],[150.826465,-2.712891],[150.825391,-2.572949],[151.174609,-2.789062],[151.226465,-2.870313],[151.475391,-2.94248],[151.807129,-3.172852],[152.03291,-3.251367],[152.179395,-3.410352],[153.016797,-4.105664],[153.124219,-4.252344],[153.13252,-4.352441],[153.044336,-4.476367],[153.023242,-4.666309],[152.96582,-4.756348]]],[[[151.915625,-4.296777],[151.967578,-4.316992],[152.117188,-4.212207],[152.197266,-4.285156],[152.405664,-4.340723],[152.363574,-4.49082],[152.4,-4.73125],[152.351172,-4.822168],[152.257617,-4.954688],[152.013281,-5.003809],[151.983691,-5.074414],[151.993945,-5.149023],[152.142969,-5.357031],[152.077051,-5.458301],[151.86543,-5.564844],[151.515137,-5.552344],[151.422461,-5.747363],[151.229297,-5.919922],[151.043164,-6.015039],[150.808984,-6.071387],[150.473535,-6.263379],[149.652539,-6.29043],[149.483008,-6.124805],[149.382324,-6.078125],[149.099023,-6.116992],[148.719141,-5.867383],[148.401172,-5.765039],[148.337207,-5.669434],[148.344727,-5.544922],[148.432031,-5.471777],[148.564941,-5.50791],[148.999219,-5.48457],[149.358887,-5.583984],[149.631738,-5.516016],[149.831445,-5.524121],[149.962793,-5.447754],[150.011914,-5.139551],[150.045313,-5.034668],[150.090039,-5.011816],[150.170313,-5.070605],[150.081543,-5.186426],[150.072461,-5.30957],[150.10625,-5.429004],[150.183105,-5.523633],[150.29873,-5.535645],[150.404395,-5.473145],[150.519434,-5.460254],[150.625781,-5.520898],[150.734473,-5.510449],[150.900293,-5.447168],[150.95293,-5.42373],[151.137793,-5.112891],[151.326563,-4.960352],[151.572559,-4.9375],[151.671191,-4.883301],[151.664648,-4.637012],[151.544238,-4.299219],[151.593066,-4.200781],[151.819336,-4.216992],[151.915625,-4.296777]]],[[[140.976172,-9.11875],[140.975195,-6.905371],[140.862305,-6.740039],[140.874609,-6.611523],[140.975,-6.346094],[140.973438,-2.609766],[141.185645,-2.627832],[142.211523,-3.083496],[142.905176,-3.320703],[143.508984,-3.431152],[144.066406,-3.805176],[144.477734,-3.825293],[144.62666,-3.993066],[144.843457,-4.101465],[145.087793,-4.349121],[145.33457,-4.385254],[145.766992,-4.823047],[145.792871,-5.17793],[145.745215,-5.402441],[145.852832,-5.471289],[146.403418,-5.616602],[147.034277,-5.919238],[147.37666,-5.950781],[147.566699,-6.056934],[147.802051,-6.315234],[147.854492,-6.551172],[147.845508,-6.662402],[147.810449,-6.703613],[147.70957,-6.723633],[147.119141,-6.72168],[146.953613,-6.834082],[146.960742,-6.928809],[147.104883,-7.166992],[147.190039,-7.378125],[147.724316,-7.87627],[148.126758,-8.103613],[148.246875,-8.554297],[148.451172,-8.694531],[148.583105,-9.051758],[148.679492,-9.091992],[148.791797,-9.089453],[149.097461,-9.016895],[149.19834,-9.03125],[149.247656,-9.070996],[149.264063,-9.180762],[149.203027,-9.406836],[149.263184,-9.497852],[149.475781,-9.588281],[149.865625,-9.630078],[150.011035,-9.688184],[149.984668,-9.737012],[149.76123,-9.805859],[149.763086,-9.868652],[149.874414,-10.012988],[150.364063,-10.189648],[150.538867,-10.206738],[150.666992,-10.257129],[150.849512,-10.236035],[150.636816,-10.337988],[150.446094,-10.307324],[150.410254,-10.339258],[150.488867,-10.425781],[150.647168,-10.517969],[150.482422,-10.636914],[150.319922,-10.654883],[150.016797,-10.577148],[149.948047,-10.482617],[149.754102,-10.353027],[148.936816,-10.255176],[148.654199,-10.157324],[148.430566,-10.191406],[148.26875,-10.128223],[148.150488,-10.107324],[148.051367,-10.12832],[147.768652,-10.070117],[147.553125,-9.912402],[147.408301,-9.674707],[147.017188,-9.387891],[146.925391,-9.247168],[146.96377,-9.05957],[146.85625,-9.087695],[146.696582,-9.025391],[146.630859,-8.951172],[146.455859,-8.643555],[146.033203,-8.076367],[145.728711,-7.952441],[145.467773,-7.930078],[145.2875,-7.861621],[144.973828,-7.802148],[144.885352,-7.733594],[144.864258,-7.631543],[144.773438,-7.64248],[144.509863,-7.567383],[144.449707,-7.598145],[144.43125,-7.679395],[144.351855,-7.666992],[144.225391,-7.764941],[144.142871,-7.757227],[143.898242,-7.673828],[143.654883,-7.460352],[143.74209,-7.549805],[143.942285,-7.944238],[143.840625,-7.941895],[143.887988,-8.017676],[143.833398,-8.029102],[143.518164,-8.000684],[143.61377,-8.200391],[143.094922,-8.31123],[142.905469,-8.314453],[142.708594,-8.272266],[142.524121,-8.32168],[142.447559,-8.316211],[142.347461,-8.16748],[142.206836,-8.195801],[142.325098,-8.19834],[142.391016,-8.312695],[142.474805,-8.369434],[142.575977,-8.335645],[142.797949,-8.34502],[143.111816,-8.474512],[143.377246,-8.762207],[143.366211,-8.961035],[142.647168,-9.327832],[142.22959,-9.169922],[141.621582,-9.211328],[141.405664,-9.150684],[141.133203,-9.221289],[140.976172,-9.11875]]],[[[148.025781,-5.826367],[147.985449,-5.833984],[147.967969,-5.788574],[147.874512,-5.749219],[147.781055,-5.627246],[147.794629,-5.492383],[147.846484,-5.49082],[148.054785,-5.611523],[148.076074,-5.650195],[148.025781,-5.826367]]],[[[146.019336,-4.726172],[145.952344,-4.755762],[145.904004,-4.733008],[145.883594,-4.66748],[145.900195,-4.604199],[145.995801,-4.539258],[146.053418,-4.640137],[146.019336,-4.726172]]],[[[152.670605,-3.133398],[152.646191,-3.221191],[152.543262,-3.095605],[152.63877,-3.042773],[152.670605,-3.133398]]],[[[152.099219,-2.947363],[152.088477,-2.997852],[152.057324,-2.994922],[151.95459,-2.870508],[151.974707,-2.845605],[152.099219,-2.947363]]],[[[149.76543,-1.553027],[149.763184,-1.58916],[149.671094,-1.57627],[149.545898,-1.47168],[149.580957,-1.353223],[149.725293,-1.430664],[149.76543,-1.553027]]],[[[151.080957,-10.020117],[151.123438,-10.020215],[151.255664,-9.922656],[151.296484,-9.956738],[151.230859,-10.194727],[150.95918,-10.092578],[150.952441,-9.998438],[150.896094,-9.968066],[150.776074,-9.709082],[151.051465,-9.938965],[151.044141,-9.983105],[151.080957,-10.020117]]],[[[150.34541,-9.493848],[150.331348,-9.518555],[150.272852,-9.500391],[150.109766,-9.361914],[150.134961,-9.25957],[150.208301,-9.206348],[150.320117,-9.26416],[150.368164,-9.396484],[150.34541,-9.493848]]],[[[151.106836,-8.733496],[151.124121,-8.804883],[151.046191,-8.72832],[151.082813,-8.568652],[151.00498,-8.523828],[151.046289,-8.450586],[151.117578,-8.418848],[151.138574,-8.568066],[151.106836,-8.733496]]],[[[154.280762,-11.361426],[154.266016,-11.415918],[154.22959,-11.397461],[154.121191,-11.425684],[154.064063,-11.419336],[154.023438,-11.347949],[154.117676,-11.365527],[154.101758,-11.311426],[154.280762,-11.361426]]],[[[143.586816,-8.481738],[143.366895,-8.416895],[143.321875,-8.367578],[143.581445,-8.390918],[143.586816,-8.481738]]],[[[147.17627,-5.431934],[147.120215,-5.437402],[147.005859,-5.307031],[147.014746,-5.257422],[147.131055,-5.19082],[147.206348,-5.251563],[147.221875,-5.381543],[147.17627,-5.431934]]],[[[147.067578,-1.960156],[147.400586,-2.025098],[147.424414,-1.994531],[147.438086,-2.058984],[147.336523,-2.066016],[147.206348,-2.181934],[146.926367,-2.189063],[146.747852,-2.148828],[146.546484,-2.208594],[146.532422,-2.126172],[146.607031,-2.102539],[146.595898,-2.016895],[146.65625,-1.974023],[147.067578,-1.960156]]],[[[150.436621,-2.661816],[150.165723,-2.660254],[150.043457,-2.5125],[149.961621,-2.473828],[150.102539,-2.40498],[150.227148,-2.38418],[150.429492,-2.47041],[150.436621,-2.661816]]],[[[150.528418,-9.346582],[150.669043,-9.428516],[150.788672,-9.417969],[150.879102,-9.512695],[150.894043,-9.66748],[150.844043,-9.702832],[150.848242,-9.662598],[150.809961,-9.654785],[150.43623,-9.624609],[150.508496,-9.536133],[150.434668,-9.434961],[150.437305,-9.359961],[150.528418,-9.346582]]],[[[152.630957,-8.959375],[152.810059,-8.967188],[152.849805,-9.024512],[152.95293,-9.070117],[152.995313,-9.107813],[152.966895,-9.208984],[152.86748,-9.224316],[152.720117,-9.166504],[152.638086,-9.058398],[152.515137,-9.009863],[152.630957,-8.959375]]],[[[153.536133,-11.476172],[153.703223,-11.528516],[153.759863,-11.586328],[153.553711,-11.630566],[153.379004,-11.55957],[153.357031,-11.49502],[153.286816,-11.516992],[153.322363,-11.471484],[153.234473,-11.420313],[153.203613,-11.324121],[153.536133,-11.476172]]],[[[143.590332,-8.633398],[143.608203,-8.677148],[143.253809,-8.489551],[143.206836,-8.423438],[143.443359,-8.518945],[143.590332,-8.633398]]],[[[147.876953,-2.283105],[147.844531,-2.335742],[147.735547,-2.315527],[147.790234,-2.305566],[147.83584,-2.246777],[147.876953,-2.283105]]],[[[151.957227,-2.830176],[151.933398,-2.830371],[151.946387,-2.708594],[152.001953,-2.737793],[152.011328,-2.80918],[151.957227,-2.830176]]],[[[150.89873,-10.565332],[150.884668,-10.643457],[150.785742,-10.603418],[150.799316,-10.554102],[150.89873,-10.565332]]],[[[153.659277,-4.099316],[153.650098,-4.123047],[153.591504,-4.095996],[153.662988,-4.041211],[153.659277,-4.099316]]],[[[155.957617,-6.686816],[155.914941,-6.79668],[155.891895,-6.761523],[155.719336,-6.862793],[155.520898,-6.830273],[155.344043,-6.72168],[155.208594,-6.526855],[155.234473,-6.411621],[155.202148,-6.307617],[155.010156,-6.209766],[154.759277,-5.931348],[154.708984,-5.74707],[154.729297,-5.444434],[154.870508,-5.521387],[154.99707,-5.539941],[155.093848,-5.620215],[155.197852,-5.82832],[155.372559,-5.974414],[155.466992,-6.145117],[155.638477,-6.220801],[155.822559,-6.380469],[155.927637,-6.565039],[155.957617,-6.686816]]],[[[154.647266,-5.432715],[154.627344,-5.440625],[154.583887,-5.314453],[154.540039,-5.11084],[154.632617,-5.013867],[154.682031,-5.054004],[154.727148,-5.218066],[154.698438,-5.382812],[154.647266,-5.432715]]]]}},{"type":"Feature","properties":{"sigla":"PLW","nome":"Palau"},"geometry":{"type":"MultiPolygon","coordinates":[[[[131.172363,3.026221],[131.136719,3.039453],[131.187891,3.055615],[131.172363,3.026221]]],[[[134.59541,7.382031],[134.534668,7.360645],[134.515723,7.525781],[134.651172,7.712109],[134.59541,7.382031]]]]}},{"type":"Feature","properties":{"sigla":"NZL","nome":"Nova Zelândia"},"geometry":{"type":"MultiPolygon","coordinates":[[[[173.115332,-41.279297],[173.230859,-41.28418],[173.737891,-40.988965],[173.947168,-40.924121],[174.002441,-40.917773],[173.952832,-40.984863],[173.889844,-41.007227],[173.915137,-41.070117],[173.860352,-41.124414],[173.862402,-41.19209],[173.797852,-41.271973],[173.89707,-41.239355],[173.957617,-41.099902],[174.024023,-41.072266],[173.999414,-40.993262],[174.211816,-40.985449],[174.223828,-41.024414],[174.302539,-41.019531],[174.199512,-41.160156],[174.038574,-41.241895],[174.138086,-41.248242],[174.370117,-41.103711],[174.367578,-41.188379],[174.237109,-41.312207],[174.102051,-41.365918],[174.069336,-41.429492],[174.092383,-41.505176],[174.161133,-41.561816],[174.083691,-41.670801],[174.169922,-41.657227],[174.283105,-41.740625],[174.21543,-41.850195],[173.887988,-42.130176],[173.88916,-42.211621],[173.839844,-42.270898],[173.545117,-42.517969],[173.347559,-42.84082],[173.221191,-42.976562],[172.888867,-43.124219],[172.718555,-43.258789],[172.624023,-43.272461],[172.734766,-43.354785],[172.699707,-43.399707],[172.52666,-43.464746],[172.693457,-43.444336],[172.74043,-43.467871],[172.807031,-43.620996],[173.073242,-43.676172],[173.116895,-43.797852],[173.093945,-43.844141],[173.065625,-43.874609],[172.920605,-43.891406],[172.817676,-43.870117],[172.749316,-43.813086],[172.502734,-43.843652],[172.475977,-43.833398],[172.583789,-43.773535],[172.480371,-43.72666],[172.395605,-43.777832],[172.350391,-43.859375],[172.296582,-43.867871],[172.035547,-43.701758],[172.179785,-43.895996],[171.658984,-44.117188],[171.442578,-44.13584],[171.364551,-44.25498],[171.240723,-44.26416],[171.312988,-44.301855],[171.231055,-44.521191],[171.146289,-44.912305],[170.999023,-44.911426],[171.13418,-44.977734],[171.113281,-45.039258],[170.939648,-45.216406],[170.889941,-45.373926],[170.700586,-45.684277],[170.788477,-45.79248],[170.77627,-45.870898],[170.419141,-45.941016],[170.335449,-45.991797],[170.186133,-46.16084],[169.918262,-46.334375],[169.686621,-46.55166],[169.342285,-46.620508],[169.098633,-46.630664],[168.766797,-46.566309],[168.572266,-46.611035],[168.382129,-46.605371],[168.325684,-46.545703],[168.343066,-46.489063],[168.319727,-46.447168],[168.18916,-46.362207],[167.841992,-46.366211],[167.682227,-46.192969],[167.539453,-46.148535],[167.368945,-46.241504],[166.830762,-46.225488],[166.731543,-46.197852],[166.712109,-46.133691],[166.916699,-45.957227],[166.730273,-46.052734],[166.649902,-46.041699],[166.726953,-45.963281],[166.717969,-45.889355],[166.612695,-45.955371],[166.493164,-45.963867],[166.477637,-45.902734],[166.512891,-45.811719],[166.836035,-45.774512],[167.00332,-45.712109],[166.809961,-45.699023],[166.797656,-45.645605],[166.825586,-45.602832],[166.99082,-45.531738],[166.733984,-45.543555],[166.77832,-45.409668],[166.919922,-45.40791],[166.875586,-45.367578],[166.869238,-45.31123],[167.155664,-45.410938],[167.117773,-45.317969],[167.230078,-45.290332],[167.032813,-45.222461],[167.025879,-45.123633],[167.12793,-45.050781],[167.188184,-45.094141],[167.259473,-45.082227],[167.171875,-44.99707],[167.410742,-44.82793],[167.466211,-44.958301],[167.482129,-44.873926],[167.45625,-44.838281],[167.484961,-44.771387],[167.577637,-44.74082],[167.787012,-44.59502],[167.908984,-44.664746],[167.856543,-44.500684],[168.366602,-44.082031],[168.650977,-43.972168],[168.806445,-43.991992],[169.066504,-43.863477],[169.178906,-43.913086],[169.135742,-43.819824],[169.169531,-43.777051],[169.515234,-43.623633],[169.833887,-43.537012],[169.835059,-43.458984],[169.908008,-43.446582],[169.858984,-43.425977],[170.017578,-43.349414],[170.240234,-43.163867],[170.3,-43.144629],[170.396094,-43.182227],[170.374316,-43.134668],[170.302832,-43.107617],[170.458691,-43.037695],[170.611816,-43.091797],[170.523633,-43.008984],[170.66543,-42.96123],[170.735254,-43.029785],[170.741602,-42.927344],[170.969922,-42.718359],[171.011426,-42.763672],[171.011719,-42.885059],[171.038379,-42.862109],[171.027734,-42.696094],[171.189551,-42.500488],[171.313379,-42.460156],[171.252246,-42.401953],[171.48623,-41.794727],[171.536328,-41.75752],[171.731641,-41.719629],[171.948047,-41.538672],[172.010742,-41.444727],[172.093359,-41.201562],[172.139453,-40.947266],[172.272754,-40.758691],[172.640625,-40.518262],[172.830176,-40.490039],[172.943652,-40.51875],[172.732617,-40.54375],[172.704395,-40.667773],[172.766797,-40.773438],[172.988672,-40.848242],[173.042285,-40.953613],[173.068652,-41.18584],[173.115332,-41.279297]]],[[[173.914648,-40.863672],[173.780859,-40.921777],[173.812402,-40.793652],[173.964453,-40.712988],[173.914648,-40.863672]]],[[[166.746289,-45.655859],[166.729199,-45.729688],[166.532031,-45.699805],[166.56709,-45.644434],[166.685645,-45.615039],[166.746289,-45.655859]]],[[[166.979492,-45.179688],[167.022656,-45.299805],[166.892676,-45.240527],[166.979492,-45.179688]]],[[[168.144922,-46.862207],[168.145313,-46.902148],[168.041016,-46.887793],[168.043164,-46.932617],[168.155957,-46.988281],[168.241406,-46.979004],[168.240918,-47.07002],[168.015039,-47.11748],[167.905566,-47.179883],[167.784961,-47.176074],[167.676367,-47.242969],[167.521973,-47.258691],[167.53877,-47.199023],[167.629004,-47.142285],[167.654102,-47.044238],[167.740918,-47.013574],[167.741992,-46.956836],[167.800781,-46.906543],[167.765234,-46.797656],[167.783984,-46.699805],[167.955762,-46.694434],[168.144922,-46.862207]]],[[[175.543164,-36.279297],[175.551172,-36.333887],[175.474609,-36.314453],[175.346191,-36.217773],[175.336621,-36.134766],[175.389551,-36.077734],[175.512598,-36.176953],[175.543164,-36.279297]]],[[[173.269434,-34.934766],[173.28457,-34.980566],[173.447852,-34.844336],[173.438672,-34.928516],[173.472656,-34.946973],[173.69375,-35.005664],[173.78623,-35.068555],[173.843945,-35.02627],[174.104004,-35.142871],[174.143164,-35.3],[174.203223,-35.308594],[174.320312,-35.24668],[174.543457,-35.582031],[174.508594,-35.667383],[174.580664,-35.785547],[174.391016,-35.77373],[174.395801,-35.797363],[174.802148,-36.309473],[174.751758,-36.49082],[174.819238,-36.612109],[174.777148,-36.649805],[174.722461,-36.841211],[174.891406,-36.909375],[174.952051,-36.85293],[175.299512,-36.993262],[175.385352,-37.206934],[175.54248,-37.201367],[175.568164,-37.159375],[175.493164,-36.865723],[175.487402,-36.689551],[175.385547,-36.556348],[175.399805,-36.500781],[175.46084,-36.475684],[175.681445,-36.746973],[175.772168,-36.735156],[175.780664,-36.80459],[175.876172,-36.957715],[175.990137,-37.437012],[176.114551,-37.538281],[176.129004,-37.586719],[176.05332,-37.561719],[176.037891,-37.600684],[176.108398,-37.645117],[176.291699,-37.680078],[176.77002,-37.889648],[177.274023,-37.993457],[177.45332,-37.957422],[177.558301,-37.897461],[177.727344,-37.705566],[178.00918,-37.554883],[178.272168,-37.566895],[178.53623,-37.69209],[178.393945,-37.960254],[178.31543,-38.444043],[178.267676,-38.551172],[178.084863,-38.693945],[177.976172,-38.722266],[177.910352,-39.021777],[177.965625,-39.14248],[177.908789,-39.239551],[177.786133,-39.110938],[177.522949,-39.073828],[177.296582,-39.11582],[177.076758,-39.221777],[176.954102,-39.367578],[176.939258,-39.555273],[176.966602,-39.605176],[177.109863,-39.673145],[176.842188,-40.157813],[176.68877,-40.293457],[176.611523,-40.441992],[176.385156,-40.667676],[175.98291,-41.213281],[175.687305,-41.411719],[175.309766,-41.610645],[175.222168,-41.574414],[175.165625,-41.417383],[175.053906,-41.391211],[174.881348,-41.424023],[174.875,-41.278223],[174.900195,-41.242676],[174.865625,-41.223047],[174.819727,-41.262891],[174.841211,-41.290723],[174.757031,-41.325293],[174.669531,-41.32627],[174.635352,-41.289453],[175.016797,-40.847656],[175.1625,-40.621582],[175.254102,-40.289355],[175.155957,-40.114941],[175.009277,-39.952148],[174.81377,-39.860156],[174.56748,-39.812988],[174.352051,-39.643359],[173.934375,-39.509082],[173.812109,-39.425781],[173.763672,-39.31875],[173.781641,-39.21123],[173.844336,-39.139355],[174.071387,-39.03125],[174.398438,-38.962598],[174.566211,-38.841602],[174.597363,-38.785059],[174.715332,-38.225586],[174.840039,-38.022656],[174.80166,-37.895508],[174.928027,-37.804492],[174.729199,-37.44873],[174.767676,-37.339063],[174.707422,-37.325293],[174.58584,-37.097754],[174.609668,-37.069922],[174.659668,-37.08877],[174.734277,-37.215234],[174.746387,-37.150098],[174.803613,-37.110059],[174.928906,-37.084766],[174.782031,-36.94375],[174.601465,-36.985742],[174.475586,-36.941895],[174.381934,-36.725977],[174.188867,-36.492285],[174.245703,-36.484961],[174.401563,-36.601953],[174.454297,-36.510742],[174.446875,-36.450879],[174.354102,-36.375977],[174.392773,-36.240039],[174.267871,-36.163086],[174.277539,-36.24375],[174.253711,-36.249121],[174.036426,-36.122461],[173.914453,-35.908691],[173.917285,-36.018164],[174.166406,-36.327637],[174.145801,-36.376953],[174.097461,-36.391016],[174.054688,-36.359766],[173.945117,-36.175879],[173.412207,-35.542578],[173.626172,-35.319141],[173.581641,-35.312598],[173.496094,-35.362305],[173.376367,-35.500098],[173.313965,-35.443359],[173.274512,-35.339648],[173.228125,-35.33125],[173.116699,-35.205273],[173.18877,-35.12373],[173.190625,-35.016211],[172.705957,-34.455176],[173.043945,-34.429102],[172.96377,-34.535156],[173.18125,-34.852734],[173.269434,-34.934766]]],[[[169.178223,-52.497266],[169.233496,-52.548242],[169.127539,-52.570312],[169.021777,-52.49541],[169.178223,-52.497266]]],[[[166.221094,-50.761523],[166.242871,-50.845703],[166.073242,-50.822656],[166.013281,-50.77793],[165.971387,-50.819531],[165.88916,-50.807715],[165.915625,-50.763086],[166.073828,-50.679004],[166.101367,-50.538965],[166.225098,-50.530957],[166.26748,-50.558594],[166.20957,-50.612012],[166.22041,-50.694336],[166.179492,-50.714648],[166.221094,-50.761523]]],[[[-176.177637,-43.740332],[-176.274854,-43.764844],[-176.381738,-43.866797],[-176.375244,-43.790625],[-176.407373,-43.760938],[-176.516553,-43.784766],[-176.44126,-43.816113],[-176.500146,-43.860156],[-176.439111,-43.954688],[-176.385449,-43.951465],[-176.333594,-44.025293],[-176.333838,-44.048438],[-176.515527,-44.116602],[-176.597998,-44.107227],[-176.629346,-44.036133],[-176.631543,-44.00625],[-176.523779,-43.900977],[-176.555127,-43.851953],[-176.63457,-43.820215],[-176.847656,-43.823926],[-176.761084,-43.75791],[-176.667236,-43.765137],[-176.566113,-43.717578],[-176.177637,-43.740332]]],[[[-176.176465,-44.32168],[-176.220801,-44.330566],[-176.229297,-44.236719],[-176.154687,-44.224512],[-176.122559,-44.268457],[-176.176465,-44.32168]]],[[[-172.47915,-8.580762],[-172.483691,-8.58291],[-172.497021,-8.546484],[-172.47915,-8.580762]]],[[[-171.186426,-9.355469],[-171.204443,-9.333301],[-171.194434,-9.33877],[-171.186426,-9.355469]]]]}},{"type":"Feature","properties":{"sigla":"NRU","nome":"Nauru"},"geometry":{"type":"Polygon","coordinates":[[[166.958398,-0.516602],[166.938965,-0.550781],[166.907031,-0.52373],[166.938965,-0.489355],[166.958398,-0.516602]]]}},{"type":"Feature","properties":{"sigla":"KIR","nome":"Kiribati"},"geometry":{"type":"MultiPolygon","coordinates":[[[[172.969629,3.129199],[172.887109,3.10127],[172.9625,3.148779],[172.969629,3.129199]]],[[[172.844238,3.051221],[172.770313,3.012549],[172.750488,3.033057],[172.887109,3.073975],[172.844238,3.051221]]],[[[173.01875,1.845703],[173.023633,1.822559],[172.934766,1.943701],[173.01875,1.845703]]],[[[173.029395,1.717383],[172.993262,1.713086],[173.027832,1.747314],[173.023633,1.809326],[173.029395,1.717383]]],[[[173.032813,1.013135],[173.086523,0.973437],[172.991113,0.835449],[172.969922,0.842773],[173.065039,0.962695],[172.990039,1.025098],[173.032813,1.013135]]],[[[174.508691,-0.801758],[174.476367,-0.829004],[174.452734,-0.64707],[174.381055,-0.591797],[174.474805,-0.642188],[174.508691,-0.801758]]],[[[174.773242,-1.211914],[174.778906,-1.263379],[174.716797,-1.133691],[174.773242,-1.211914]]],[[[173.038379,1.34209],[173.011328,1.338379],[173.171875,1.375146],[173.038379,1.34209]]],[[[169.551074,-0.87373],[169.525586,-0.852637],[169.555273,-0.856543],[169.551074,-0.87373]]],[[[-172.214551,-4.511133],[-172.180957,-4.514844],[-172.22832,-4.507031],[-172.197852,-4.491699],[-172.214551,-4.511133]]],[[[-171.085156,-3.135449],[-171.096729,-3.136914],[-171.087695,-3.115039],[-171.085156,-3.135449]]],[[[-171.233203,-4.463477],[-171.261963,-4.449219],[-171.239404,-4.444141],[-171.233203,-4.463477]]],[[[-174.512939,-4.675098],[-174.501025,-4.694727],[-174.54082,-4.657324],[-174.512939,-4.675098]]],[[[-154.95625,-4.087988],[-155.015039,-4.048047],[-154.951221,-4.031055],[-154.95625,-4.087988]]],[[[-151.782617,-11.441016],[-151.806689,-11.45127],[-151.813281,-11.391797],[-151.782617,-11.441016]]],[[[-155.863818,-5.62666],[-155.914355,-5.631641],[-155.928613,-5.607617],[-155.863818,-5.62666]]],[[[-157.342139,1.855566],[-157.175781,1.739844],[-157.246143,1.731738],[-157.420117,1.787549],[-157.578955,1.902051],[-157.531494,1.926855],[-157.43584,1.847266],[-157.365186,1.946094],[-157.492188,2.029297],[-157.441895,2.025049],[-157.321875,1.968555],[-157.342139,1.855566]]],[[[-159.339063,3.923535],[-159.259326,3.839209],[-159.274756,3.796582],[-159.35874,3.815332],[-159.30625,3.838379],[-159.354199,3.880518],[-159.377783,3.846631],[-159.409033,3.873242],[-159.339063,3.923535]]],[[[-171.697607,-2.766406],[-171.628418,-2.855859],[-171.696094,-2.825684],[-171.638525,-2.84668],[-171.672656,-2.787988],[-171.724805,-2.781348],[-171.697607,-2.766406]]]]}},{"type":"Feature","properties":{"sigla":"FJI","nome":"Fiji"},"geometry":{"type":"MultiPolygon","coordinates":[[[[179.999219,-16.168555],[179.848242,-16.30166],[179.748145,-16.446289],[179.619141,-16.527734],[179.56416,-16.636914],[179.568164,-16.747461],[179.841016,-16.5375],[179.930371,-16.519434],[179.890039,-16.666992],[179.92793,-16.744434],[179.714746,-16.743555],[179.419336,-16.806543],[179.345996,-16.769727],[179.32334,-16.718066],[179.202344,-16.712695],[179.055469,-16.813574],[179.006836,-16.900195],[178.883691,-16.886035],[178.80293,-16.952148],[178.706641,-16.976172],[178.603711,-16.800586],[178.497461,-16.787891],[178.583594,-16.621875],[178.686328,-16.665625],[178.805078,-16.631445],[178.865723,-16.540039],[178.960547,-16.482813],[179.35918,-16.379883],[179.551758,-16.249902],[179.999219,-16.168555]]],[[[178.280176,-17.371973],[178.280176,-17.416211],[178.591602,-17.651465],[178.574902,-17.749316],[178.667676,-18.080859],[178.461133,-18.138965],[178.331543,-18.135254],[178.160156,-18.250195],[177.955469,-18.264063],[177.457324,-18.148242],[177.321387,-18.077539],[177.263477,-17.968652],[177.263965,-17.863477],[177.360156,-17.82002],[177.423242,-17.737305],[177.400684,-17.631641],[177.504492,-17.539551],[177.617969,-17.461035],[177.817969,-17.388477],[177.940234,-17.395117],[178.187598,-17.312988],[178.280176,-17.371973]]],[[[-179.974902,-16.924805],[-180,-16.962988],[-180,-16.785547],[-179.860986,-16.688281],[-179.822314,-16.765332],[-179.867773,-16.850293],[-179.974902,-16.924805]]],[[[180,-16.963086],[179.925879,-17.000293],[179.896973,-16.964063],[180,-16.785742],[180,-16.963086]]],[[[178.487891,-18.974121],[178.487695,-19.01709],[178.358984,-19.045605],[178.287988,-19.003711],[178.162109,-19.121484],[178.020801,-19.15166],[177.958691,-19.121582],[178.051953,-19.060156],[178.104102,-19.066211],[178.208398,-18.969629],[178.334277,-18.934473],[178.487891,-18.974121]]],[[[-178.988086,-17.97666],[-179.039209,-17.988379],[-179.079004,-17.944141],[-179.047607,-17.92041],[-178.988086,-17.97666]]],[[[-178.761914,-18.233887],[-178.773633,-18.252441],[-178.8479,-18.202051],[-178.763086,-18.191406],[-178.761914,-18.233887]]],[[[-178.251123,-17.952734],[-178.306836,-17.963281],[-178.357227,-17.920898],[-178.325391,-17.875781],[-178.280322,-17.886426],[-178.251123,-17.952734]]],[[[-178.956494,-17.272852],[-178.981836,-17.307031],[-179.003906,-17.294922],[-178.971484,-17.212695],[-179.014941,-17.182422],[-179.005029,-17.14834],[-178.914844,-17.223047],[-178.956494,-17.272852]]],[[[-178.535107,-19.166016],[-178.595947,-19.151367],[-178.589307,-19.118848],[-178.556689,-19.112988],[-178.574072,-19.143164],[-178.535107,-19.166016]]],[[[-179.799854,-18.940332],[-179.797607,-18.969824],[-179.830225,-18.955566],[-179.865039,-18.99873],[-179.856201,-18.943262],[-179.799854,-18.940332]]],[[[177.23418,-17.14707],[177.182813,-17.163867],[177.210156,-17.084277],[177.287402,-17.048633],[177.23418,-17.14707]]],[[[179.422363,-17.366797],[179.388965,-17.393848],[179.373145,-17.256152],[179.432813,-17.271582],[179.422363,-17.366797]]],[[[179.349316,-18.102344],[179.253516,-18.030566],[179.306445,-17.944043],[179.362402,-18.065234],[179.349316,-18.102344]]],[[[178.827539,-17.729004],[178.776074,-17.746777],[178.747656,-17.685742],[178.787109,-17.624414],[178.831055,-17.618848],[178.852539,-17.68125],[178.827539,-17.729004]]],[[[-179.929443,-16.502832],[-179.999951,-16.540039],[-179.999951,-16.488867],[-179.900928,-16.431543],[-179.929443,-16.502832]]],[[[-179.956152,-16.149219],[-180,-16.168262],[-179.969385,-16.126074],[-179.94458,-16.126074],[-179.956152,-16.149219]]],[[[180,-16.540039],[179.984668,-16.522168],[180,-16.488867],[180,-16.540039]]],[[[177.121484,-12.505469],[177.00625,-12.491113],[177.118066,-12.482324],[177.121484,-12.505469]]],[[[174.629688,-21.69502],[174.592969,-21.702344],[174.587207,-21.680078],[174.629688,-21.69502]]],[[[-178.711621,-20.667773],[-178.729102,-20.660156],[-178.727539,-20.645215],[-178.711621,-20.667773]]]]}},{"type":"Feature","properties":{"sigla":"AUS","nome":"Austrália"},"geometry":{"type":"MultiPolygon","coordinates":[[[[143.178906,-11.954492],[143.104688,-12.169629],[143.110254,-12.303516],[143.254102,-12.397656],[143.289648,-12.498828],[143.401563,-12.639941],[143.397559,-12.736133],[143.457715,-12.855762],[143.529492,-13.303809],[143.586621,-13.443652],[143.548438,-13.741016],[143.756348,-14.348828],[143.961816,-14.462891],[144.105859,-14.394531],[144.209863,-14.301953],[144.473047,-14.231836],[144.586426,-14.354688],[144.648047,-14.49248],[145.287695,-14.943164],[145.25166,-15.097461],[145.293066,-15.327246],[145.271582,-15.47666],[145.375391,-15.881055],[145.458008,-16.056445],[145.426074,-16.406152],[145.549902,-16.625098],[145.754785,-16.879492],[145.912109,-16.9125],[145.901953,-17.070215],[146.049805,-17.381055],[146.125879,-17.635254],[146.022852,-18.175781],[146.032227,-18.272852],[146.223047,-18.509863],[146.333203,-18.553711],[146.296875,-18.841211],[146.383398,-18.977051],[146.481152,-19.078711],[146.691992,-19.187402],[147.002637,-19.256055],[147.13877,-19.393164],[147.278125,-19.41416],[147.418555,-19.378125],[147.509766,-19.474121],[147.586035,-19.622754],[147.742383,-19.770117],[147.853223,-19.794727],[147.915625,-19.869238],[148.081055,-19.898633],[148.366895,-20.0875],[148.600488,-20.145215],[148.759375,-20.289551],[148.884766,-20.480859],[148.72998,-20.467773],[148.683691,-20.580176],[148.789453,-20.735645],[149.060547,-20.961133],[149.204883,-21.125098],[149.329297,-21.476074],[149.454102,-21.578711],[149.460059,-21.76543],[149.524023,-22.023633],[149.595703,-22.257617],[149.703906,-22.440527],[149.822461,-22.389844],[149.974414,-22.550684],[150.005566,-22.521582],[149.941895,-22.308105],[149.98125,-22.184277],[150.020605,-22.168359],[150.076172,-22.164453],[150.234863,-22.372949],[150.541309,-22.559082],[150.57959,-22.555762],[150.568555,-22.383984],[150.622852,-22.367285],[150.763867,-22.576172],[150.783008,-23.176563],[150.843164,-23.458008],[151.153809,-23.784082],[151.500781,-24.012402],[151.690918,-24.038379],[151.831641,-24.122949],[152.129883,-24.597559],[152.456348,-24.802441],[152.502051,-24.963965],[152.654297,-25.201953],[152.78916,-25.274121],[152.913477,-25.432129],[152.920508,-25.688574],[153.028223,-25.870313],[153.164941,-25.96416],[153.08418,-26.303809],[153.162109,-26.982715],[153.116797,-27.194434],[153.385742,-27.768555],[153.454883,-28.04834],[153.575684,-28.240527],[153.569141,-28.533398],[153.616895,-28.673047],[153.60459,-28.854492],[153.462207,-29.050195],[153.348047,-29.29043],[153.346973,-29.496582],[153.272363,-29.89248],[153.030566,-30.563379],[153.047852,-30.907129],[152.943945,-31.434863],[152.78584,-31.786328],[152.559277,-32.045703],[152.545313,-32.243066],[152.47041,-32.439063],[152.247461,-32.608691],[152.215723,-32.678125],[152.136523,-32.678125],[152.188086,-32.72168],[152.164258,-32.757422],[151.954297,-32.820312],[151.812891,-32.901074],[151.483789,-33.347461],[151.432031,-33.521582],[151.29209,-33.580957],[151.322754,-33.699316],[151.280273,-33.92666],[151.244629,-33.985059],[151.20166,-33.964063],[151.124805,-34.005273],[151.231543,-34.029688],[150.960352,-34.29707],[150.871289,-34.499121],[150.781055,-34.892188],[150.80459,-35.012891],[150.697363,-35.041895],[150.680957,-35.07666],[150.722168,-35.13457],[150.690332,-35.177734],[150.56748,-35.214258],[150.374121,-35.58418],[150.195312,-35.833594],[150.062793,-36.550391],[149.960254,-36.845508],[149.950586,-37.080273],[149.986328,-37.258398],[149.932715,-37.528516],[149.809375,-37.547852],[149.480859,-37.771191],[149.298438,-37.802148],[148.943945,-37.788477],[148.2625,-37.830664],[147.876758,-37.93418],[147.631445,-38.055664],[147.395605,-38.219141],[146.856836,-38.663477],[146.435742,-38.711816],[146.292578,-38.699805],[146.21748,-38.727441],[146.216211,-38.782715],[146.336621,-38.894238],[146.426953,-38.819629],[146.466602,-38.840332],[146.483789,-39.065039],[146.4,-39.145508],[146.340039,-39.123828],[146.254297,-38.964453],[146.158398,-38.865723],[146.069922,-38.834082],[145.935352,-38.901758],[145.79082,-38.666992],[145.606348,-38.656836],[145.397266,-38.535352],[145.462793,-38.416309],[145.542188,-38.393848],[145.475781,-38.24375],[145.292773,-38.237598],[145.191211,-38.383594],[144.95957,-38.500781],[144.717773,-38.340332],[144.911426,-38.344043],[145.066992,-38.204883],[145.119922,-38.091309],[144.891309,-37.899805],[144.395508,-38.136914],[144.589453,-38.157617],[144.665234,-38.209961],[144.101562,-38.462305],[143.811719,-38.698828],[143.538965,-38.820898],[143.226465,-38.743164],[143.082617,-38.645898],[142.840234,-38.580859],[142.455859,-38.386328],[142.187695,-38.399414],[141.924707,-38.283789],[141.725,-38.271387],[141.593945,-38.387793],[141.424219,-38.363477],[141.213867,-38.171973],[141.010938,-38.076953],[140.627246,-38.028418],[140.39043,-37.89668],[140.212109,-37.642188],[139.784277,-37.245801],[139.738477,-37.05957],[139.857324,-36.662109],[139.729004,-36.371387],[139.465918,-36.010352],[139.037695,-35.689258],[138.968945,-35.580762],[139.066895,-35.598438],[139.1125,-35.542285],[139.178027,-35.523047],[139.230566,-35.597656],[139.289453,-35.611328],[139.29209,-35.485938],[139.325098,-35.42666],[139.28252,-35.375391],[139.192773,-35.347266],[138.915234,-35.488867],[138.875293,-35.536816],[138.770996,-35.538379],[138.521875,-35.642383],[138.184375,-35.612695],[138.252148,-35.486523],[138.399805,-35.325781],[138.511133,-35.024414],[138.489941,-34.763574],[138.089258,-34.169824],[137.919238,-34.456055],[137.874121,-34.727441],[137.691699,-35.142969],[137.45957,-35.131348],[137.144434,-35.236426],[136.883594,-35.239746],[137.014258,-34.91582],[137.391016,-34.913281],[137.492969,-34.597754],[137.458984,-34.378906],[137.493848,-34.161133],[137.650391,-33.859082],[137.931836,-33.579102],[137.852344,-33.200781],[137.992578,-33.094238],[137.913184,-32.770703],[137.783203,-32.578125],[137.790918,-32.823242],[137.680176,-32.978027],[137.442285,-33.193555],[137.354199,-33.430176],[137.237305,-33.629492],[137.130273,-33.703027],[136.936523,-33.750195],[136.635547,-33.896582],[136.430664,-34.02998],[136.121094,-34.428711],[135.891016,-34.660938],[135.998535,-34.94375],[135.969727,-34.981836],[135.792383,-34.863281],[135.647559,-34.939648],[135.480859,-34.758203],[135.324219,-34.642676],[135.230664,-34.579785],[135.123047,-34.585742],[135.12959,-34.536523],[135.216797,-34.487305],[135.378711,-34.597656],[135.45,-34.581055],[135.218945,-33.959766],[134.88877,-33.626367],[134.84668,-33.444629],[134.719043,-33.255176],[134.607715,-33.190137],[134.30127,-33.165039],[134.173535,-32.979102],[134.100391,-32.748633],[134.227148,-32.730566],[134.23418,-32.548535],[133.930176,-32.411719],[133.786719,-32.268848],[133.665332,-32.207227],[133.212109,-32.183789],[132.757422,-31.95625],[132.648633,-31.949316],[132.323633,-32.02002],[132.214648,-32.007129],[131.721191,-31.696289],[131.393164,-31.548535],[131.143652,-31.495703],[130.783008,-31.604004],[130.129785,-31.579102],[128.946191,-31.702637],[128.067676,-32.066504],[127.319824,-32.264063],[126.779297,-32.310938],[126.136523,-32.256836],[125.917188,-32.296973],[125.56748,-32.505859],[125.266602,-32.614453],[124.758789,-32.882715],[124.373242,-32.958398],[124.24375,-33.015234],[124.126074,-33.129395],[123.868359,-33.596387],[123.650391,-33.836328],[123.506836,-33.916211],[123.36543,-33.905371],[123.207617,-33.988281],[123.067578,-33.900586],[122.777539,-33.89082],[122.150977,-33.991797],[122.061133,-33.874414],[121.405078,-33.826758],[120.814551,-33.871289],[120.418359,-33.963086],[120.209375,-33.935449],[119.854102,-33.974707],[119.635156,-34.101172],[119.450586,-34.368262],[119.247656,-34.456445],[118.895312,-34.479883],[118.135547,-34.986621],[117.863086,-35.05498],[117.581934,-35.097754],[116.517188,-34.987891],[115.986719,-34.79502],[115.72627,-34.526074],[115.565039,-34.425781],[115.277637,-34.303906],[115.12793,-34.341797],[115.008789,-34.255859],[114.973437,-34.051172],[114.993848,-33.515332],[115.181641,-33.643457],[115.358789,-33.639941],[115.515332,-33.531348],[115.683008,-33.192871],[115.618555,-32.666992],[115.654297,-32.596582],[115.70791,-32.567969],[115.725391,-32.401074],[115.738086,-31.887891],[115.698438,-31.694531],[115.45459,-31.302539],[115.294336,-30.961816],[115.176855,-30.808008],[115.07793,-30.560449],[114.968848,-30.042285],[114.94209,-29.721582],[114.958984,-29.433594],[114.856836,-29.142969],[114.628418,-28.871777],[114.537402,-28.542871],[114.165137,-28.080664],[114.098437,-27.544238],[114.028125,-27.347266],[113.709375,-26.847754],[113.333008,-26.417383],[113.184766,-26.182227],[113.323242,-26.243848],[113.356055,-26.080469],[113.546582,-26.436719],[113.581641,-26.558105],[113.733691,-26.595117],[113.836426,-26.500586],[113.852832,-26.332129],[113.589063,-26.098633],[113.513379,-25.89834],[113.395312,-25.713281],[113.397363,-25.647168],[113.451367,-25.599121],[113.539453,-25.625195],[113.713086,-25.830762],[113.683594,-26.05166],[113.72373,-26.129785],[113.76582,-26.159766],[113.853906,-26.014453],[113.991992,-26.321484],[114.090332,-26.393652],[114.215723,-26.289453],[114.214258,-25.851562],[113.992773,-25.544824],[113.670801,-24.977051],[113.569238,-24.692969],[113.417676,-24.435645],[113.421289,-24.132324],[113.489844,-23.869629],[113.757031,-23.418164],[113.795117,-22.914551],[113.682813,-22.637793],[113.958398,-21.93916],[114.022852,-21.881445],[114.123926,-21.828613],[114.142578,-21.909766],[114.092773,-22.181348],[114.163867,-22.32334],[114.141602,-22.483105],[114.303516,-22.425391],[114.377734,-22.341504],[114.602832,-21.942188],[114.709277,-21.823438],[115.456152,-21.491699],[116.010938,-21.030371],[116.706738,-20.653809],[117.139063,-20.640918],[117.292773,-20.713086],[117.40625,-20.721191],[117.683887,-20.642773],[118.199219,-20.375195],[118.751465,-20.261914],[119.104492,-19.995313],[119.585938,-20.038281],[119.767773,-19.958398],[120.196289,-19.909473],[120.433691,-19.841992],[120.997949,-19.604395],[121.337695,-19.319922],[121.493555,-19.106445],[121.833789,-18.477051],[122.00625,-18.393652],[122.34541,-18.111914],[122.360938,-18.036914],[122.237402,-17.968555],[122.147461,-17.549023],[122.160254,-17.313672],[122.260938,-17.135742],[122.432031,-16.97041],[122.522559,-16.942871],[122.72041,-16.787695],[122.916797,-16.432617],[122.970703,-16.436816],[123.14209,-16.863086],[123.265918,-17.036816],[123.383203,-17.292773],[123.563086,-17.520898],[123.60791,-17.219922],[123.593555,-17.030371],[123.664062,-17.023242],[123.799023,-17.127148],[123.831055,-17.120801],[123.829492,-16.996875],[123.874414,-16.918652],[123.856348,-16.864746],[123.778125,-16.867773],[123.49043,-16.490723],[123.581348,-16.470898],[123.625977,-16.416309],[123.646484,-16.343066],[123.607031,-16.224023],[123.647461,-16.179883],[123.728906,-16.19248],[123.85918,-16.382324],[123.915234,-16.363574],[123.961328,-16.286914],[124.044434,-16.264941],[124.129785,-16.278809],[124.300391,-16.388281],[124.771973,-16.402637],[124.669238,-16.33877],[124.454492,-16.335254],[124.404883,-16.298926],[124.388281,-16.203027],[124.416406,-16.133496],[124.43457,-16.103809],[124.576855,-16.113672],[124.648535,-15.870215],[124.64834,-15.805469],[124.606641,-15.822656],[124.504297,-15.972461],[124.381641,-15.758203],[124.439551,-15.493555],[124.561621,-15.496289],[124.690918,-15.359668],[124.692578,-15.273633],[124.97207,-15.404297],[125.016406,-15.466504],[125.062988,-15.442285],[125.072949,-15.306738],[124.90918,-15.310059],[124.839063,-15.160742],[125.02334,-15.071875],[125.038184,-15.004102],[125.355664,-15.119824],[125.383789,-15.015625],[125.243262,-14.944531],[125.178711,-14.714746],[125.266504,-14.648438],[125.28457,-14.584082],[125.435938,-14.556836],[125.579785,-14.483203],[125.59707,-14.278125],[125.627734,-14.256641],[125.70459,-14.291406],[125.661621,-14.529492],[125.738477,-14.444336],[125.819531,-14.469141],[125.850098,-14.597266],[125.890625,-14.617969],[125.946094,-14.52041],[126.020703,-14.494531],[126.016602,-14.371289],[126.111328,-14.114063],[126.053906,-13.977246],[126.119043,-13.957715],[126.184277,-14.002051],[126.258496,-14.163574],[126.323047,-14.062109],[126.403125,-14.018945],[126.569727,-14.160938],[126.679102,-14.089355],[126.780664,-13.955176],[126.775586,-13.788477],[126.903223,-13.744141],[127.457617,-14.031445],[127.672852,-14.195117],[127.887598,-14.485156],[128.199414,-14.751758],[128.080469,-15.087988],[128.069434,-15.329297],[128.111719,-15.312012],[128.155469,-15.225586],[128.254688,-15.298535],[128.175,-15.043164],[128.403223,-14.869141],[128.409863,-14.828906],[128.575781,-14.774512],[129.058203,-14.884375],[129.165137,-14.987598],[129.175195,-15.115039],[129.21582,-15.160254],[129.233594,-14.906055],[129.267578,-14.871484],[129.458984,-14.933203],[129.634766,-15.139746],[129.650293,-15.086816],[129.612695,-14.925879],[129.637109,-14.850977],[129.84873,-14.828906],[129.753516,-14.789551],[129.604688,-14.64707],[129.697949,-14.557422],[129.60791,-14.559668],[129.378711,-14.39248],[129.45918,-14.213477],[129.709863,-13.97998],[129.838867,-13.572949],[129.937891,-13.50166],[130.135938,-13.44834],[130.259766,-13.302246],[130.134961,-13.145508],[130.168164,-12.957422],[130.317969,-12.88291],[130.399902,-12.687891],[130.61748,-12.646875],[130.622656,-12.431055],[130.672363,-12.406934],[130.736133,-12.427734],[130.867383,-12.557813],[130.898242,-12.523633],[130.873828,-12.367188],[131.023438,-12.342871],[131.019531,-12.213867],[131.219922,-12.17793],[131.291602,-12.067871],[131.34209,-12.210059],[131.438281,-12.276953],[131.72627,-12.278125],[131.887988,-12.231934],[132.064063,-12.280762],[132.253223,-12.186035],[132.37207,-12.23916],[132.411035,-12.295117],[132.441602,-12.176367],[132.510547,-12.134863],[132.583789,-12.110254],[132.712793,-12.123438],[132.630469,-12.035156],[132.629883,-11.83584],[132.674219,-11.649023],[132.475195,-11.491504],[132.27793,-11.467676],[132.133594,-11.500684],[131.944629,-11.348535],[131.822461,-11.302441],[131.811816,-11.271387],[131.961523,-11.180859],[132.155469,-11.311133],[132.197754,-11.30498],[132.262695,-11.204004],[132.333984,-11.223535],[132.557324,-11.366895],[132.682813,-11.505566],[132.857129,-11.391113],[132.961035,-11.407324],[133.024902,-11.452832],[133.185254,-11.705664],[133.356152,-11.728223],[133.533203,-11.816211],[133.904199,-11.832031],[134.237109,-12.007715],[134.417383,-12.052734],[134.538086,-12.06084],[134.730273,-11.984375],[134.854688,-12.102539],[135.029688,-12.19375],[135.217969,-12.22168],[135.352344,-12.129199],[135.54873,-12.060645],[135.885254,-11.82168],[135.922461,-11.825781],[135.833984,-11.950684],[135.895801,-11.969531],[135.889453,-11.992773],[135.702539,-12.151563],[135.704395,-12.209863],[135.743945,-12.241699],[135.937793,-12.152148],[136.008496,-12.191406],[136.031445,-12.330859],[136.081836,-12.422461],[136.260645,-12.433789],[136.328516,-12.305566],[136.291895,-12.196387],[136.249902,-12.173047],[136.270117,-12.131641],[136.443359,-11.951465],[136.540234,-11.957617],[136.609766,-12.133594],[136.719434,-12.226465],[136.897461,-12.243555],[136.947461,-12.349902],[136.537012,-12.784277],[136.517773,-12.832813],[136.594336,-13.003809],[136.461035,-13.225195],[136.411914,-13.236133],[136.294141,-13.137988],[135.927344,-13.304297],[135.929199,-13.621582],[135.989551,-13.810156],[135.954492,-13.934863],[135.883398,-14.153125],[135.744531,-14.286621],[135.405176,-14.758203],[135.45332,-14.923145],[135.530762,-15.000391],[136.205371,-15.403418],[136.291406,-15.570117],[136.583594,-15.706543],[136.644141,-15.675586],[136.704883,-15.685254],[136.698145,-15.834961],[136.784668,-15.894238],[137.002148,-15.87832],[137.299316,-16.066309],[137.703711,-16.233008],[137.912891,-16.476562],[138.071582,-16.616992],[138.24502,-16.718359],[138.505664,-16.789551],[138.625684,-16.777832],[138.820312,-16.860645],[139.009863,-16.899316],[139.110352,-17.014063],[139.154102,-17.167773],[139.248438,-17.328613],[139.440527,-17.380566],[139.689648,-17.540723],[139.894531,-17.611328],[140.03584,-17.702637],[140.209668,-17.704395],[140.511133,-17.624512],[140.830469,-17.414453],[140.966016,-17.014551],[141.219141,-16.646191],[141.411914,-16.069531],[141.393164,-15.904688],[141.451563,-15.605273],[141.625488,-15.056641],[141.522949,-14.470117],[141.594336,-14.152832],[141.480664,-13.926758],[141.472559,-13.797559],[141.64541,-13.259082],[141.613574,-12.943457],[141.782227,-12.778711],[141.920313,-12.80293],[141.929785,-12.739844],[141.852148,-12.578711],[141.677734,-12.491406],[141.688574,-12.351074],[141.870508,-11.975586],[141.961133,-12.054297],[141.951563,-11.896191],[142.138965,-11.273242],[142.168359,-10.946582],[142.326465,-10.88418],[142.456445,-10.707324],[142.544824,-10.707324],[142.605078,-10.748242],[142.552734,-10.874414],[142.723047,-11.010449],[142.779688,-11.115332],[142.836816,-11.306934],[142.872559,-11.821387],[142.988477,-11.919043],[143.178906,-11.954492]]],[[[153.077441,-25.750781],[153.051953,-25.77832],[153.006934,-25.728906],[152.97666,-25.551367],[153.060742,-25.302246],[153.038086,-25.193164],[153.227539,-25.005762],[153.241992,-24.922559],[153.14375,-24.814844],[153.256934,-24.728906],[153.282129,-24.738281],[153.297949,-24.915234],[153.359277,-24.977734],[153.350195,-25.063086],[153.141406,-25.512793],[153.077441,-25.750781]]],[[[139.507812,-16.573047],[139.430566,-16.661035],[139.391504,-16.648633],[139.354297,-16.696582],[139.15957,-16.741699],[139.162695,-16.625879],[139.292969,-16.467285],[139.587891,-16.395215],[139.697754,-16.514941],[139.559668,-16.529492],[139.507812,-16.573047]]],[[[136.714648,-13.803906],[136.758008,-13.84541],[136.804492,-13.84248],[136.845313,-13.750977],[136.89082,-13.786621],[136.905566,-13.826953],[136.788184,-13.945801],[136.745313,-14.072656],[136.787012,-14.157813],[136.885449,-14.197266],[136.950781,-14.184277],[136.894336,-14.293066],[136.649707,-14.280469],[136.335449,-14.211816],[136.427734,-14.126465],[136.424707,-13.864844],[136.655664,-13.675879],[136.701953,-13.681641],[136.714648,-13.803906]]],[[[130.459277,-11.679297],[130.579883,-11.737109],[130.60625,-11.816602],[130.502539,-11.835645],[130.31748,-11.771777],[130.076563,-11.825488],[130.043262,-11.787305],[130.07207,-11.680762],[130.139063,-11.69707],[130.197559,-11.658203],[130.152832,-11.477539],[130.294922,-11.336816],[130.339258,-11.337012],[130.459277,-11.679297]]],[[[130.618848,-11.376074],[130.752246,-11.384375],[130.912793,-11.309277],[131.023047,-11.334375],[131.268262,-11.189844],[131.436914,-11.313184],[131.538574,-11.436914],[131.467871,-11.50957],[131.458594,-11.587891],[131.382812,-11.58252],[131.29209,-11.710938],[130.950977,-11.926465],[130.644922,-11.742383],[130.511914,-11.617871],[130.422754,-11.445801],[130.38457,-11.192188],[130.42666,-11.183105],[130.618848,-11.376074]]],[[[113.183008,-26.053125],[113.156445,-26.094531],[112.964258,-25.783105],[112.908203,-25.569824],[112.94707,-25.531543],[112.982422,-25.520215],[113.183008,-26.053125]]],[[[137.596484,-35.738672],[137.835938,-35.762109],[137.928906,-35.726074],[138.046582,-35.755176],[138.123438,-35.852344],[138.011914,-35.907617],[137.835547,-35.867773],[137.670898,-35.897949],[137.590234,-36.027148],[137.448438,-36.074805],[137.382227,-36.020898],[137.20957,-35.982422],[137.147754,-36.039062],[136.755078,-36.033105],[136.540625,-35.890137],[136.638672,-35.748828],[137.334082,-35.59248],[137.584961,-35.620215],[137.635449,-35.656445],[137.596484,-35.738672]]],[[[145.486523,-38.354883],[145.33584,-38.420996],[145.280273,-38.390625],[145.295313,-38.318945],[145.426563,-38.31416],[145.486523,-38.354883]]],[[[145.314453,-38.49082],[145.355078,-38.557031],[145.270898,-38.519727],[145.128418,-38.527637],[145.217773,-38.458594],[145.314453,-38.49082]]],[[[149.04375,-20.291504],[148.938867,-20.283691],[148.981055,-20.153516],[149.04375,-20.291504]]],[[[148.935547,-20.149902],[148.886914,-20.143555],[148.967871,-20.044336],[148.935547,-20.149902]]],[[[151.146582,-23.49082],[151.240137,-23.529688],[151.228809,-23.594922],[151.295801,-23.720313],[151.238281,-23.775781],[151.033301,-23.530176],[151.059961,-23.460547],[151.146582,-23.49082]]],[[[150.516699,-22.322559],[150.462402,-22.307715],[150.488477,-22.210742],[150.548828,-22.306934],[150.516699,-22.322559]]],[[[149.92832,-22.193066],[149.893652,-22.223242],[149.869531,-22.150391],[149.875391,-22.074023],[149.912305,-22.04873],[149.92832,-22.193066]]],[[[153.53877,-27.436426],[153.452734,-27.711719],[153.426563,-27.706445],[153.395801,-27.665039],[153.435449,-27.405371],[153.53877,-27.436426]]],[[[153.44248,-27.316016],[153.420898,-27.330957],[153.376563,-27.235352],[153.365039,-27.138867],[153.379883,-27.049414],[153.432324,-27.029883],[153.466797,-27.038086],[153.426367,-27.201465],[153.44248,-27.316016]]],[[[142.274805,-10.704785],[142.191406,-10.762012],[142.137207,-10.731934],[142.131055,-10.640625],[142.197949,-10.591992],[142.274805,-10.704785]]],[[[142.338965,-10.192188],[142.279395,-10.254199],[142.195117,-10.199316],[142.21875,-10.149414],[142.29873,-10.14043],[142.338965,-10.192188]]],[[[142.167578,-10.154102],[142.141992,-10.18125],[142.097656,-10.121777],[142.148828,-10.051758],[142.191992,-10.085254],[142.167578,-10.154102]]],[[[146.27832,-18.23125],[146.341992,-18.400098],[146.298828,-18.484766],[146.235645,-18.450781],[146.098828,-18.251758],[146.27832,-18.23125]]],[[[136.598535,-11.378906],[136.526563,-11.438867],[136.52168,-11.393848],[136.710547,-11.158398],[136.731738,-11.024609],[136.780273,-11.0125],[136.741406,-11.194629],[136.598535,-11.378906]]],[[[136.338672,-11.602344],[136.180273,-11.676758],[136.267383,-11.576465],[136.479297,-11.465918],[136.470508,-11.509277],[136.338672,-11.602344]]],[[[137.093652,-15.778125],[137.050879,-15.824414],[136.985059,-15.725977],[136.942676,-15.711719],[137.00957,-15.594824],[137.064551,-15.662891],[137.093652,-15.778125]]],[[[136.862695,-15.619922],[136.845605,-15.544043],[136.876855,-15.502539],[136.890234,-15.588867],[136.862695,-15.619922]]],[[[136.591016,-15.628223],[136.514258,-15.627344],[136.522559,-15.543164],[136.612305,-15.544141],[136.591016,-15.628223]]],[[[139.45918,-17.114551],[139.42168,-17.131641],[139.408203,-17.090625],[139.492773,-16.99043],[139.560059,-17.041992],[139.570898,-17.094434],[139.45918,-17.114551]]],[[[136.237402,-13.824512],[136.122656,-13.816602],[136.134375,-13.753125],[136.21543,-13.664746],[136.275391,-13.791113],[136.237402,-13.824512]]],[[[132.593359,-11.302832],[132.573633,-11.318359],[132.49375,-11.163672],[132.516309,-11.116016],[132.483789,-11.037305],[132.537793,-11.028418],[132.578809,-10.968848],[132.629102,-11.169141],[132.593359,-11.302832]]],[[[125.198828,-14.579492],[125.134766,-14.641699],[125.091211,-14.591699],[125.117383,-14.491992],[125.159961,-14.456055],[125.198145,-14.474805],[125.198828,-14.579492]]],[[[124.597266,-15.401953],[124.524219,-15.421484],[124.482813,-15.340332],[124.519336,-15.26748],[124.550879,-15.270313],[124.605078,-15.356543],[124.597266,-15.401953]]],[[[115.446191,-20.787793],[115.388086,-20.866016],[115.318066,-20.850586],[115.308594,-20.811133],[115.43457,-20.667969],[115.446191,-20.787793]]],[[[145.042969,-40.786719],[145.283008,-40.769922],[145.349414,-40.826367],[145.533496,-40.863965],[145.821484,-41.024609],[146.31748,-41.163477],[146.574414,-41.142383],[146.723438,-41.078027],[146.848145,-41.168066],[146.856641,-41.058301],[146.989844,-40.992383],[147.320508,-40.956445],[147.454785,-41.00166],[147.62168,-40.844727],[147.872949,-40.872559],[147.96875,-40.77959],[148.215234,-40.854883],[148.292871,-40.94707],[148.312207,-41.349707],[148.287598,-41.815723],[148.342578,-42.215332],[148.33125,-42.261621],[148.290332,-42.25498],[148.277148,-42.136426],[148.183105,-42.064746],[148.241602,-42.021875],[148.213672,-41.97002],[148.022754,-42.259473],[148.009375,-42.435937],[147.924414,-42.572461],[147.912109,-42.658496],[147.980859,-43.157031],[147.78584,-43.22002],[147.647949,-43.020605],[147.687305,-42.979883],[147.773926,-43.003418],[147.8,-42.928125],[147.573828,-42.845703],[147.53584,-42.878027],[147.536719,-42.996484],[147.452344,-43.033398],[147.408008,-42.893848],[147.297949,-42.790918],[147.347656,-42.926563],[147.325,-43.013477],[147.259766,-43.071094],[147.24502,-43.215918],[147.172852,-43.255859],[146.996973,-43.156348],[146.9875,-43.21875],[147.077344,-43.275879],[146.873926,-43.6125],[146.699219,-43.601953],[146.548535,-43.508887],[146.186719,-43.512793],[146.043164,-43.547168],[145.981738,-43.408398],[145.994434,-43.376074],[146.226367,-43.355273],[146.208008,-43.316211],[145.975293,-43.277148],[145.873242,-43.292383],[145.802734,-43.244043],[145.609961,-42.998242],[145.487598,-42.92666],[145.268164,-42.544336],[145.198828,-42.230859],[145.372949,-42.338477],[145.468262,-42.492871],[145.527246,-42.388184],[145.516602,-42.354492],[145.360352,-42.227539],[145.331055,-42.14707],[145.294434,-42.191016],[145.234863,-42.196973],[145.258984,-42.107324],[145.238184,-42.019629],[144.915527,-41.644043],[144.766113,-41.390039],[144.646094,-40.980859],[144.718555,-40.672266],[145.042969,-40.786719]]],[[[143.92793,-40.116113],[143.89873,-40.120215],[143.887598,-39.983594],[143.838574,-39.904102],[143.879395,-39.7],[143.939355,-39.658105],[143.948828,-39.583691],[144.000781,-39.580176],[144.091309,-39.638086],[144.120898,-39.785254],[144.106055,-39.874023],[144.141016,-39.953809],[144.111914,-40.02207],[143.92793,-40.116113]]],[[[148.000391,-39.757617],[148.17793,-39.938477],[148.297363,-39.985742],[148.289844,-40.06543],[148.250781,-40.099512],[148.323242,-40.144434],[148.313574,-40.173535],[148.105664,-40.262109],[147.890527,-40.014551],[147.905957,-39.971387],[147.87627,-39.905469],[147.812305,-39.910449],[147.767188,-39.870313],[147.933008,-39.725977],[148.000391,-39.757617]]],[[[147.356055,-43.396973],[147.308887,-43.500781],[147.153809,-43.500195],[147.10498,-43.431152],[147.163086,-43.430273],[147.283887,-43.278906],[147.3125,-43.280273],[147.356055,-43.396973]]],[[[148.104297,-42.710449],[148.029688,-42.714844],[148.022754,-42.64043],[148.072559,-42.593164],[148.169531,-42.651758],[148.100586,-42.680566],[148.104297,-42.710449]]],[[[147.43457,-43.240723],[147.348828,-43.232422],[147.337598,-43.183301],[147.296094,-43.161719],[147.352539,-43.080273],[147.397266,-43.118262],[147.43457,-43.240723]]],[[[144.784375,-40.506738],[144.748047,-40.589453],[144.710156,-40.485254],[144.783398,-40.434863],[144.784375,-40.506738]]],[[[148.32627,-40.306934],[148.474219,-40.432422],[148.404004,-40.486523],[148.352734,-40.497266],[148.319434,-40.43457],[148.102539,-40.45166],[148.010449,-40.380566],[148.198145,-40.35791],[148.32627,-40.306934]]],[[[148.236914,-40.515137],[148.187793,-40.592578],[148.117285,-40.521484],[148.236914,-40.515137]]],[[[158.878809,-54.709766],[158.845215,-54.749219],[158.896973,-54.506055],[158.958887,-54.472363],[158.945605,-54.575],[158.878809,-54.709766]]]]}},{"type":"Feature","properties":{"sigla":"TUV","nome":"Tuvalu"},"geometry":{"type":"Polygon","coordinates":[[[179.213672,-8.524219],[179.195703,-8.534766],[179.203027,-8.466309],[179.213672,-8.524219]]]}}]}