{"type":"FeatureCollection","features":[{"type":"Feature","properties":{"sigla":"VUT","nome":"Vanuatu"},"geometry":{"type":"MultiPolygon","coordinates":[[[[166.745801,-14.826855],[166.810156,-15.157422],[167.075586,-14.935645],[167.200781,-15.443066],[167.093945,-15.580859],[166.758301,-15.631152],[166.631055,-15.406055],[166.567383,-14.641797],[166.745801,-14.826855]]],[[[167.4125,-16.095898],[167.836621,-16.449707],[167.449316,-16.55498],[167.349219,-16.154492],[167.151465,-16.080469],[167.253711,-15.876758],[167.4125,-16.095898]]],[[[168.446777,-16.778809],[168.181445,-16.804004],[168.135352,-16.636914],[168.446777,-16.778809]]],[[[168.29668,-16.336523],[167.929004,-16.228711],[168.163867,-16.081641],[168.29668,-16.336523]]],[[[168.445801,-17.542188],[168.524609,-17.798047],[168.158203,-17.710547],[168.445801,-17.542188]]],[[[167.911328,-15.435938],[167.674219,-15.451563],[168.002539,-15.283203],[167.911328,-15.435938]]],[[[168.212891,-15.97041],[168.122852,-15.680859],[168.159961,-15.461816],[168.267773,-15.892285],[168.256348,-15.955176],[168.212891,-15.97041]]],[[[168.18916,-15.328711],[168.171875,-15.390625],[168.130469,-15.318945],[168.114941,-14.988574],[168.136426,-14.986426],[168.186914,-15.196875],[168.18916,-15.328711]]],[[[167.218945,-15.724121],[167.200781,-15.750098],[167.094727,-15.685254],[167.119043,-15.622559],[167.234375,-15.64502],[167.218945,-15.724121]]],[[[167.584863,-14.260938],[167.543262,-14.311621],[167.430273,-14.294922],[167.403516,-14.281543],[167.410742,-14.197461],[167.506445,-14.142188],[167.598926,-14.183789],[167.584863,-14.260938]]],[[[167.488867,-13.907227],[167.451074,-13.909375],[167.391797,-13.788379],[167.406836,-13.748047],[167.481055,-13.709473],[167.553516,-13.813965],[167.542871,-13.873145],[167.488867,-13.907227]]],[[[169.896289,-20.186621],[169.861133,-20.241797],[169.7375,-20.202148],[169.750684,-20.15332],[169.829492,-20.144727],[169.896289,-20.186621]]],[[[169.491309,-19.540137],[169.347266,-19.623535],[169.247461,-19.344727],[169.491309,-19.540137]]],[[[169.334375,-18.940234],[168.986914,-18.871289],[169.01582,-18.64375],[169.334375,-18.940234]]]]}},{"type":"Feature","properties":{"sigla":"FSM","nome":"Micron\u00e9sia"},"geometry":{"type":"MultiPolygon","coordinates":[[[[162.983203,5.325732],[162.993457,5.277246],[162.921094,5.31792],[162.983203,5.325732]]],[[[138.142676,9.500684],[138.06709,9.419043],[138.116895,9.550195],[138.18584,9.593311],[138.213574,9.547217],[138.142676,9.500684]]],[[[151.647754,7.346191],[151.569727,7.345508],[151.629492,7.39043],[151.647754,7.346191]]],[[[151.881445,7.432031],[151.855957,7.431787],[151.865332,7.466162],[151.910547,7.460156],[151.881445,7.432031]]],[[[158.314844,6.813672],[158.183398,6.80127],[158.134766,6.944824],[158.186133,6.977734],[158.294629,6.951074],[158.334961,6.893164],[158.314844,6.813672]]]]}},{"type":"Feature","properties":{"sigla":"MHL","nome":"Ilhas Marshall"},"geometry":{"type":"MultiPolygon","coordinates":[[[[169.635059,5.830078],[169.590527,5.801904],[169.651074,5.945117],[169.73457,6.01416],[169.635059,5.830078]]],[[[168.830273,7.308984],[168.81543,7.293555],[168.675098,7.321924],[168.830273,7.308984]]],[[[171.577344,7.048242],[171.688379,7.028271],[171.756836,6.973145],[171.61416,7.007178],[171.577344,7.048242]]],[[[171.101953,7.138232],[171.226953,7.086963],[171.39375,7.110937],[171.235352,7.06875],[171.035742,7.156104],[171.101953,7.138232]]],[[[166.890332,11.153076],[166.844727,11.153369],[166.888086,11.168652],[166.890332,11.153076]]]]}},{"type":"Feature","properties":{"sigla":"TON","nome":"Tonga"},"geometry":{"type":"MultiPolygon","coordinates":[[[[-175.161914,-21.169336],[-175.078174,-21.129004],[-175.156592,-21.263672],[-175.335449,-21.157715],[-175.362354,-21.106836],[-175.318066,-21.068262],[-175.322607,-21.099316],[-175.158008,-21.146484],[-175.199756,-21.155664],[-175.161914,-21.169336]]],[[[-173.953516,-18.639355],[-173.991309,-18.698633],[-174.069141,-18.640234],[-173.968066,-18.565332],[-173.921875,-18.588574],[-173.953516,-18.639355]]],[[[-174.913135,-21.300488],[-174.918652,-21.450586],[-174.972949,-21.349805],[-174.913135,-21.300488]]]]}},{"type":"Feature","properties":{"sigla":"SLB","nome":"Ilhas Salom\u00e3o"},"geometry":{"type":"MultiPolygon","coordinates":[[[[159.687695,-8.50791],[159.640039,-8.521484],[159.569238,-8.484766],[159.538477,-8.451367],[159.553223,-8.399219],[159.594629,-8.379492],[159.641602,-8.414453],[159.687695,-8.50791]]],[[[166.929199,-11.665137],[166.805957,-11.677344],[166.747461,-11.59082],[166.855469,-11.578809],[166.929199,-11.665137]]],[[[166.133203,-10.757812],[165.791016,-10.784766],[166.023828,-10.661133],[166.133203,-10.757812]]],[[[160.57627,-11.797852],[160.506543,-11.832227],[160.443066,-11.814941],[160.270215,-11.663965],[160.003516,-11.57959],[159.986328,-11.494727],[160,-11.471973],[160.077344,-11.492871],[160.44873,-11.695898],[160.57627,-11.797852]]],[[[161.547852,-9.625684],[161.553809,-9.769727],[161.409766,-9.681641],[161.36416,-9.353418],[161.547852,-9.625684]]],[[[159.188574,-9.123535],[159.036328,-9.075],[159.129785,-8.993066],[159.188574,-9.123535]]],[[[160.168164,-8.995508],[160.40752,-9.140332],[160.105371,-9.080762],[160.168164,-8.995508]]],[[[157.763477,-8.242188],[157.819336,-8.612012],[157.558008,-8.269922],[157.217578,-8.262793],[157.490625,-7.965723],[157.763477,-8.242188]]],[[[158.200781,-8.821973],[158.155371,-8.785938],[158.209961,-8.678125],[158.253418,-8.797363],[158.200781,-8.821973]]],[[[158.10791,-8.68418],[157.937598,-8.736426],[157.909277,-8.565625],[158.105469,-8.536816],[158.10791,-8.68418]]],[[[157.388965,-8.713477],[157.212305,-8.565039],[157.379492,-8.420898],[157.388965,-8.713477]]],[[[156.687891,-7.923047],[156.560938,-7.574023],[156.809082,-7.722852],[156.687891,-7.923047]]],[[[156.603906,-8.171582],[156.591699,-8.196289],[156.539648,-8.072949],[156.570312,-7.958789],[156.612402,-8.096191],[156.603906,-8.171582]]],[[[157.171875,-8.108105],[156.958301,-8.014355],[157.024121,-7.867871],[157.171875,-8.108105]]],[[[155.839844,-7.097168],[155.677539,-7.088965],[155.738965,-6.972949],[155.839844,-7.097168]]],[[[157.64541,-8.758887],[157.643164,-8.794043],[157.58584,-8.783105],[157.453516,-8.705957],[157.579297,-8.703711],[157.64541,-8.758887]]],[[[159.750391,-9.272656],[159.970605,-9.433301],[160.35459,-9.421582],[160.818945,-9.862793],[159.802734,-9.763477],[159.612305,-9.470703],[159.750391,-9.272656]]],[[[159.879102,-8.534277],[158.944043,-8.040723],[158.457422,-7.544727],[159.431445,-8.029004],[159.843066,-8.326953],[159.879102,-8.534277]]],[[[157.486719,-7.330371],[157.101562,-7.323633],[156.452539,-6.638281],[157.030273,-6.891992],[157.486719,-7.330371]]],[[[160.749414,-8.313965],[161.367383,-9.61123],[160.77207,-8.963867],[160.59043,-8.372754],[160.749414,-8.313965]]],[[[161.715332,-10.387305],[162.105371,-10.453809],[162.37334,-10.823242],[161.537891,-10.566406],[161.304785,-10.204395],[161.715332,-10.387305]]]]}},{"type":"Feature","properties":{"sigla":"WSM","nome":"Samoa"},"geometry":{"type":"MultiPolygon","coordinates":[[[[-172.333496,-13.465234],[-172.224951,-13.804297],[-172.535693,-13.791699],[-172.778516,-13.516797],[-172.333496,-13.465234]]],[[[-171.454102,-14.046484],[-172.045898,-13.857129],[-171.603906,-13.879199],[-171.454102,-14.046484]]]]}},{"type":"Feature","properties":{"sigla":"PNG","nome":"Papua-Nova Guin\u00e9"},"geometry":{"type":"MultiPolygon","coordinates":[[[[152.96582,-4.756348],[152.891699,-4.832422],[152.739941,-4.63584],[152.668164,-4.131836],[152.279395,-3.582422],[150.746094,-2.738867],[150.825391,-2.572949],[152.03291,-3.251367],[153.016797,-4.105664],[153.13252,-4.352441],[152.96582,-4.756348]]],[[[151.915625,-4.296777],[152.117188,-4.212207],[152.405664,-4.340723],[152.351172,-4.822168],[151.983691,-5.074414],[152.077051,-5.458301],[151.515137,-5.552344],[151.229297,-5.919922],[150.473535,-6.263379],[149.652539,-6.29043],[148.337207,-5.669434],[148.432031,-5.471777],[149.831445,-5.524121],[150.090039,-5.011816],[150.183105,-5.523633],[150.900293,-5.447168],[151.326563,-4.960352],[151.671191,-4.883301],[151.593066,-4.200781],[151.915625,-4.296777]]],[[[140.976172,-9.11875],[140.975195,-6.905371],[140.862305,-6.740039],[140.975,-6.346094],[140.973438,-2.609766],[141.185645,-2.627832],[143.508984,-3.431152],[144.066406,-3.805176],[144.477734,-3.825293],[145.766992,-4.823047],[145.745215,-5.402441],[147.566699,-6.056934],[147.802051,-6.315234],[147.845508,-6.662402],[146.953613,-6.834082],[147.190039,-7.378125],[148.126758,-8.103613],[148.583105,-9.051758],[149.19834,-9.03125],[149.263184,-9.497852],[150.011035,-9.688184],[149.76123,-9.805859],[149.874414,-10.012988],[150.849512,-10.236035],[150.446094,-10.307324],[150.647168,-10.517969],[150.319922,-10.654883],[149.754102,-10.353027],[147.768652,-10.070117],[147.017188,-9.387891],[146.96377,-9.05957],[146.630859,-8.951172],[146.033203,-8.076367],[144.509863,-7.567383],[144.142871,-7.757227],[143.654883,-7.460352],[143.942285,-7.944238],[143.518164,-8.000684],[143.61377,-8.200391],[142.524121,-8.32168],[142.206836,-8.195801],[143.111816,-8.474512],[143.377246,-8.762207],[143.366211,-8.961035],[142.647168,-9.327832],[142.22959,-9.169922],[140.976172,-9.11875]]],[[[148.025781,-5.826367],[147.794629,-5.492383],[148.054785,-5.611523],[148.025781,-5.826367]]],[[[146.019336,-4.726172],[145.883594,-4.66748],[145.995801,-4.539258],[146.019336,-4.726172]]],[[[152.670605,-3.133398],[152.646191,-3.221191],[152.543262,-3.095605],[152.63877,-3.042773],[152.670605,-3.133398]]],[[[152.099219,-2.947363],[152.088477,-2.997852],[152.057324,-2.994922],[151.95459,-2.870508],[151.974707,-2.845605],[152.099219,-2.947363]]],[[[149.76543,-1.553027],[149.545898,-1.47168],[149.580957,-1.353223],[149.76543,-1.553027]]],[[[151.080957,-10.020117],[151.296484,-9.956738],[151.230859,-10.194727],[150.95918,-10.092578],[150.776074,-9.709082],[151.080957,-10.020117]]],[[[150.34541,-9.493848],[150.109766,-9.361914],[150.208301,-9.206348],[150.34541,-9.493848]]],[[[151.106836,-8.733496],[151.00498,-8.523828],[151.117578,-8.418848],[151.106836,-8.733496]]],[[[154.280762,-11.361426],[154.266016,-11.415918],[154.22959,-11.397461],[154.121191,-11.425684],[154.064063,-11.419336],[154.023438,-11.347949],[154.117676,-11.365527],[154.101758,-11.311426],[154.280762,-11.361426]]],[[[143.586816,-8.481738],[143.366895,-8.416895],[143.321875,-8.367578],[143.581445,-8.390918],[143.586816,-8.481738]]],[[[147.17627,-5.431934],[147.005859,-5.307031],[147.131055,-5.19082],[147.17627,-5.431934]]],[[[147.067578,-1.960156],[147.424414,-1.994531],[147.206348,-2.181934],[146.546484,-2.208594],[146.65625,-1.974023],[147.067578,-1.960156]]],[[[150.436621,-2.661816],[149.961621,-2.473828],[150.227148,-2.38418],[150.429492,-2.47041],[150.436621,-2.661816]]],[[[150.528418,-9.346582],[150.788672,-9.417969],[150.894043,-9.66748],[150.43623,-9.624609],[150.528418,-9.346582]]],[[[152.630957,-8.959375],[152.95293,-9.070117],[152.966895,-9.208984],[152.720117,-9.166504],[152.515137,-9.009863],[152.630957,-8.959375]]],[[[153.536133,-11.476172],[153.759863,-11.586328],[153.379004,-11.55957],[153.203613,-11.324121],[153.536133,-11.476172]]],[[[143.590332,-8.633398],[143.608203,-8.677148],[143.253809,-8.489551],[143.206836,-8.423438],[143.443359,-8.518945],[143.590332,-8.633398]]],[[[147.876953,-2.283105],[147.844531,-2.335742],[147.735547,-2.315527],[147.790234,-2.305566],[147.83584,-2.246777],[147.876953,-2.283105]]],[[[151.957227,-2.830176],[151.933398,-2.830371],[151.946387,-2.708594],[152.001953,-2.737793],[152.011328,-2.80918],[151.957227,-2.830176]]],[[[150.89873,-10.565332],[150.884668,-10.643457],[150.785742,-10.603418],[150.799316,-10.554102],[150.89873,-10.565332]]],[[[153.659277,-4.099316],[153.650098,-4.123047],[153.591504,-4.095996],[153.662988,-4.041211],[153.659277,-4.099316]]],[[[155.957617,-6.686816],[155.719336,-6.862793],[155.344043,-6.72168],[155.202148,-6.307617],[154.759277,-5.931348],[154.729297,-5.444434],[155.093848,-5.620215],[155.957617,-6.686816]]],[[[154.647266,-5.432715],[154.627344,-5.440625],[154.583887,-5.314453],[154.540039,-5.11084],[154.632617,-5.013867],[154.682031,-5.054004],[154.727148,-5.218066],[154.698438,-5.382812],[154.647266,-5.432715]]]]}},{"type":"Feature","properties":{"sigla":"PLW","nome":"Palau"},"geometry":{"type":"MultiPolygon","coordinates":[[[[131.172363,3.026221],[131.136719,3.039453],[131.187891,3.055615],[131.172363,3.026221]]],[[[134.59541,7.382031],[134.515723,7.525781],[134.651172,7.712109],[134.59541,7.382031]]]]}},{"type":"Feature","properties":{"sigla":"NZL","nome":"Nova Zel\u00e2ndia"},"geometry":{"type":"MultiPolygon","coordinates":[[[[173.115332,-41.279297],[173.947168,-40.924121],[173.797852,-41.271973],[173.999414,-40.993262],[174.302539,-41.019531],[174.038574,-41.241895],[174.370117,-41.103711],[174.069336,-41.429492],[174.083691,-41.670801],[174.283105,-41.740625],[173.221191,-42.976562],[172.624023,-43.272461],[172.734766,-43.354785],[172.52666,-43.464746],[173.073242,-43.676172],[173.065625,-43.874609],[172.502734,-43.843652],[172.480371,-43.72666],[172.296582,-43.867871],[172.035547,-43.701758],[172.179785,-43.895996],[171.240723,-44.26416],[171.146289,-44.912305],[170.999023,-44.911426],[171.113281,-45.039258],[170.700586,-45.684277],[170.77627,-45.870898],[170.335449,-45.991797],[169.686621,-46.55166],[169.098633,-46.630664],[168.382129,-46.605371],[168.18916,-46.362207],[167.841992,-46.366211],[167.539453,-46.148535],[166.830762,-46.225488],[166.712109,-46.133691],[166.916699,-45.957227],[166.493164,-45.963867],[166.512891,-45.811719],[167.00332,-45.712109],[166.797656,-45.645605],[166.99082,-45.531738],[166.733984,-45.543555],[166.869238,-45.31123],[167.155664,-45.410938],[167.230078,-45.290332],[167.025879,-45.123633],[167.259473,-45.082227],[167.171875,-44.99707],[167.410742,-44.82793],[167.466211,-44.958301],[167.484961,-44.771387],[167.787012,-44.59502],[167.908984,-44.664746],[167.856543,-44.500684],[168.366602,-44.082031],[169.178906,-43.913086],[169.169531,-43.777051],[169.833887,-43.537012],[170.396094,-43.182227],[170.302832,-43.107617],[170.735254,-43.029785],[170.969922,-42.718359],[171.038379,-42.862109],[171.48623,-41.794727],[171.948047,-41.538672],[172.272754,-40.758691],[172.640625,-40.518262],[172.943652,-40.51875],[172.704395,-40.667773],[172.988672,-40.848242],[173.115332,-41.279297]]],[[[173.914648,-40.863672],[173.780859,-40.921777],[173.812402,-40.793652],[173.964453,-40.712988],[173.914648,-40.863672]]],[[[166.746289,-45.655859],[166.729199,-45.729688],[166.532031,-45.699805],[166.56709,-45.644434],[166.685645,-45.615039],[166.746289,-45.655859]]],[[[166.979492,-45.179688],[167.022656,-45.299805],[166.892676,-45.240527],[166.979492,-45.179688]]],[[[168.144922,-46.862207],[168.043164,-46.932617],[168.240918,-47.07002],[167.521973,-47.258691],[167.800781,-46.906543],[167.783984,-46.699805],[168.144922,-46.862207]]],[[[175.543164,-36.279297],[175.346191,-36.217773],[175.389551,-36.077734],[175.543164,-36.279297]]],[[[173.269434,-34.934766],[173.447852,-34.844336],[174.104004,-35.142871],[174.143164,-35.3],[174.320312,-35.24668],[174.580664,-35.785547],[174.395801,-35.797363],[174.802148,-36.309473],[174.722461,-36.841211],[175.54248,-37.201367],[175.46084,-36.475684],[175.772168,-36.735156],[176.108398,-37.645117],[177.274023,-37.993457],[178.00918,-37.554883],[178.53623,-37.69209],[178.267676,-38.551172],[177.976172,-38.722266],[177.908789,-39.239551],[177.522949,-39.073828],[177.076758,-39.221777],[176.939258,-39.555273],[177.109863,-39.673145],[176.842188,-40.157813],[175.98291,-41.213281],[175.309766,-41.610645],[175.165625,-41.417383],[174.881348,-41.424023],[174.865625,-41.223047],[174.635352,-41.289453],[175.1625,-40.621582],[175.155957,-40.114941],[173.763672,-39.31875],[173.844336,-39.139355],[174.597363,-38.785059],[174.928027,-37.804492],[174.58584,-37.097754],[174.734277,-37.215234],[174.928906,-37.084766],[174.475586,-36.941895],[174.188867,-36.492285],[174.401563,-36.601953],[174.392773,-36.240039],[174.036426,-36.122461],[173.914453,-35.908691],[174.097461,-36.391016],[173.412207,-35.542578],[173.626172,-35.319141],[173.376367,-35.500098],[173.116699,-35.205273],[173.190625,-35.016211],[172.705957,-34.455176],[173.043945,-34.429102],[172.96377,-34.535156],[173.269434,-34.934766]]],[[[169.178223,-52.497266],[169.233496,-52.548242],[169.127539,-52.570312],[169.021777,-52.49541],[169.178223,-52.497266]]],[[[166.221094,-50.761523],[165.88916,-50.807715],[166.101367,-50.538965],[166.26748,-50.558594],[166.221094,-50.761523]]],[[[-176.177637,-43.740332],[-176.516553,-43.784766],[-176.333594,-44.025293],[-176.515527,-44.116602],[-176.629346,-44.036133],[-176.555127,-43.851953],[-176.847656,-43.823926],[-176.177637,-43.740332]]],[[[-176.176465,-44.32168],[-176.220801,-44.330566],[-176.229297,-44.236719],[-176.154687,-44.224512],[-176.122559,-44.268457],[-176.176465,-44.32168]]],[[[-172.47915,-8.580762],[-172.483691,-8.58291],[-172.497021,-8.546484],[-172.47915,-8.580762]]],[[[-171.186426,-9.355469],[-171.204443,-9.333301],[-171.194434,-9.33877],[-171.186426,-9.355469]]]]}},{"type":"Feature","properties":{"sigla":"NRU","nome":"Nauru"},"geometry":{"type":"Polygon","coordinates":[[[166.958398,-0.516602],[166.938965,-0.550781],[166.907031,-0.52373],[166.938965,-0.489355],[166.958398,-0.516602]]]}},{"type":"Feature","properties":{"sigla":"KIR","nome":"Kiribati"},"geometry":{"type":"MultiPolygon","coordinates":[[[[172.969629,3.129199],[172.887109,3.10127],[172.9625,3.148779],[172.969629,3.129199]]],[[[172.844238,3.051221],[172.770313,3.012549],[172.750488,3.033057],[172.887109,3.073975],[172.844238,3.051221]]],[[[173.01875,1.845703],[173.023633,1.822559],[172.934766,1.943701],[173.01875,1.845703]]],[[[173.029395,1.717383],[172.993262,1.713086],[173.027832,1.747314],[173.023633,1.809326],[173.029395,1.717383]]],[[[173.032813,1.013135],[173.086523,0.973437],[172.991113,0.835449],[172.969922,0.842773],[173.065039,0.962695],[172.990039,1.025098],[173.032813,1.013135]]],[[[174.508691,-0.801758],[174.476367,-0.829004],[174.452734,-0.64707],[174.381055,-0.591797],[174.474805,-0.642188],[174.508691,-0.801758]]],[[[174.773242,-1.211914],[174.778906,-1.263379],[174.716797,-1.133691],[174.773242,-1.211914]]],[[[173.038379,1.34209],[173.011328,1.338379],[173.171875,1.375146],[173.038379,1.34209]]],[[[169.551074,-0.87373],[169.525586,-0.852637],[169.555273,-0.856543],[169.551074,-0.87373]]],[[[-172.214551,-4.511133],[-172.180957,-4.514844],[-172.22832,-4.507031],[-172.197852,-4.491699],[-172.214551,-4.511133]]],[[[-171.085156,-3.135449],[-171.096729,-3.136914],[-171.087695,-3.115039],[-171.085156,-3.135449]]],[[[-171.233203,-4.463477],[-171.261963,-4.449219],[-171.239404,-4.444141],[-171.233203,-4.463477]]],[[[-174.512939,-4.675098],[-174.501025,-4.694727],[-174.54082,-4.657324],[-174.512939,-4.675098]]],[[[-154.95625,-4.087988],[-155.015039,-4.048047],[-154.951221,-4.031055],[-154.95625,-4.087988]]],[[[-151.782617,-11.441016],[-151.806689,-11.45127],[-151.813281,-11.391797],[-151.782617,-11.441016]]],[[[-155.863818,-5.62666],[-155.914355,-5.631641],[-155.928613,-5.607617],[-155.863818,-5.62666]]],[[[-157.342139,1.855566],[-157.246143,1.731738],[-157.578955,1.902051],[-157.43584,1.847266],[-157.441895,2.025049],[-157.342139,1.855566]]],[[[-159.339063,3.923535],[-159.259326,3.839209],[-159.274756,3.796582],[-159.35874,3.815332],[-159.30625,3.838379],[-159.354199,3.880518],[-159.377783,3.846631],[-159.409033,3.873242],[-159.339063,3.923535]]],[[[-171.697607,-2.766406],[-171.628418,-2.855859],[-171.696094,-2.825684],[-171.638525,-2.84668],[-171.672656,-2.787988],[-171.724805,-2.781348],[-171.697607,-2.766406]]]]}},{"type":"Feature","properties":{"sigla":"FJI","nome":"Fiji"},"geometry":{"type":"MultiPolygon","coordinates":[[[[179.999219,-16.168555],[179.56416,-16.636914],[179.568164,-16.747461],[179.930371,-16.519434],[179.92793,-16.744434],[179.202344,-16.712695],[178.706641,-16.976172],[178.497461,-16.787891],[178.583594,-16.621875],[179.999219,-16.168555]]],[[[178.280176,-17.371973],[178.591602,-17.651465],[178.667676,-18.080859],[177.955469,-18.264063],[177.321387,-18.077539],[177.263965,-17.863477],[177.504492,-17.539551],[178.280176,-17.371973]]],[[[-179.974902,-16.924805],[-180,-16.962988],[-180,-16.785547],[-179.860986,-16.688281],[-179.822314,-16.765332],[-179.867773,-16.850293],[-179.974902,-16.924805]]],[[[180,-16.963086],[179.896973,-16.964063],[180,-16.785742],[180,-16.963086]]],[[[178.487891,-18.974121],[178.487695,-19.01709],[178.358984,-19.045605],[178.287988,-19.003711],[178.162109,-19.121484],[178.020801,-19.15166],[177.958691,-19.121582],[178.051953,-19.060156],[178.104102,-19.066211],[178.208398,-18.969629],[178.334277,-18.934473],[178.487891,-18.974121]]],[[[-178.988086,-17.97666],[-179.039209,-17.988379],[-179.079004,-17.944141],[-179.047607,-17.92041],[-178.988086,-17.97666]]],[[[-178.761914,-18.233887],[-178.773633,-18.252441],[-178.8479,-18.202051],[-178.763086,-18.191406],[-178.761914,-18.233887]]],[[[-178.251123,-17.952734],[-178.306836,-17.963281],[-178.357227,-17.920898],[-178.325391,-17.875781],[-178.280322,-17.886426],[-178.251123,-17.952734]]],[[[-178.956494,-17.272852],[-178.981836,-17.307031],[-179.003906,-17.294922],[-178.971484,-17.212695],[-179.014941,-17.182422],[-179.005029,-17.14834],[-178.914844,-17.223047],[-178.956494,-17.272852]]],[[[-178.535107,-19.166016],[-178.595947,-19.151367],[-178.589307,-19.118848],[-178.556689,-19.112988],[-178.574072,-19.143164],[-178.535107,-19.166016]]],[[[-179.799854,-18.940332],[-179.797607,-18.969824],[-179.830225,-18.955566],[-179.865039,-18.99873],[-179.856201,-18.943262],[-179.799854,-18.940332]]],[[[177.23418,-17.14707],[177.182813,-17.163867],[177.210156,-17.084277],[177.287402,-17.048633],[177.23418,-17.14707]]],[[[179.422363,-17.366797],[179.388965,-17.393848],[179.373145,-17.256152],[179.432813,-17.271582],[179.422363,-17.366797]]],[[[179.349316,-18.102344],[179.253516,-18.030566],[179.306445,-17.944043],[179.362402,-18.065234],[179.349316,-18.102344]]],[[[178.827539,-17.729004],[178.776074,-17.746777],[178.747656,-17.685742],[178.787109,-17.624414],[178.831055,-17.618848],[178.852539,-17.68125],[178.827539,-17.729004]]],[[[-179.929443,-16.502832],[-179.999951,-16.540039],[-179.999951,-16.488867],[-179.900928,-16.431543],[-179.929443,-16.502832]]],[[[-179.956152,-16.149219],[-180,-16.168262],[-179.969385,-16.126074],[-179.94458,-16.126074],[-179.956152,-16.149219]]],[[[180,-16.540039],[179.984668,-16.522168],[180,-16.488867],[180,-16.540039]]],[[[177.121484,-12.505469],[177.00625,-12.491113],[177.118066,-12.482324],[177.121484,-12.505469]]],[[[174.629688,-21.69502],[174.592969,-21.702344],[174.587207,-21.680078],[174.629688,-21.69502]]],[[[-178.711621,-20.667773],[-178.729102,-20.660156],[-178.727539,-20.645215],[-178.711621,-20.667773]]]]}},{"type":"Feature","properties":{"sigla":"AUS","nome":"Austr\u00e1lia"},"geometry":{"type":"MultiPolygon","coordinates":[[[[143.178906,-11.954492],[143.110254,-12.303516],[143.401563,-12.639941],[143.756348,-14.348828],[143.961816,-14.462891],[144.473047,-14.231836],[145.287695,-14.943164],[145.426074,-16.406152],[145.912109,-16.9125],[146.125879,-17.635254],[146.032227,-18.272852],[146.333203,-18.553711],[146.383398,-18.977051],[147.13877,-19.393164],[147.418555,-19.378125],[147.742383,-19.770117],[148.759375,-20.289551],[148.884766,-20.480859],[148.683691,-20.580176],[149.454102,-21.578711],[149.703906,-22.440527],[149.974414,-22.550684],[150.020605,-22.168359],[150.541309,-22.559082],[150.622852,-22.367285],[150.843164,-23.458008],[151.831641,-24.122949],[152.913477,-25.432129],[152.920508,-25.688574],[153.164941,-25.96416],[153.116797,-27.194434],[153.616895,-28.673047],[153.030566,-30.563379],[152.943945,-31.434863],[152.47041,-32.439063],[151.812891,-32.901074],[151.29209,-33.580957],[151.280273,-33.92666],[150.871289,-34.499121],[150.80459,-35.012891],[150.195312,-35.833594],[149.932715,-37.528516],[149.480859,-37.771191],[147.876758,-37.93418],[146.856836,-38.663477],[146.21748,-38.727441],[146.336621,-38.894238],[146.466602,-38.840332],[146.4,-39.145508],[146.158398,-38.865723],[145.935352,-38.901758],[145.79082,-38.666992],[145.397266,-38.535352],[145.542188,-38.393848],[145.475781,-38.24375],[144.95957,-38.500781],[144.717773,-38.340332],[144.911426,-38.344043],[145.119922,-38.091309],[144.891309,-37.899805],[144.395508,-38.136914],[144.665234,-38.209961],[143.538965,-38.820898],[142.455859,-38.386328],[141.424219,-38.363477],[140.39043,-37.89668],[139.784277,-37.245801],[139.857324,-36.662109],[139.729004,-36.371387],[138.968945,-35.580762],[139.289453,-35.611328],[139.28252,-35.375391],[138.521875,-35.642383],[138.184375,-35.612695],[138.511133,-35.024414],[138.089258,-34.169824],[137.691699,-35.142969],[136.883594,-35.239746],[137.014258,-34.91582],[137.391016,-34.913281],[137.493848,-34.161133],[137.931836,-33.579102],[137.852344,-33.200781],[137.992578,-33.094238],[137.783203,-32.578125],[137.790918,-32.823242],[137.237305,-33.629492],[136.430664,-34.02998],[135.891016,-34.660938],[135.969727,-34.981836],[135.647559,-34.939648],[135.123047,-34.585742],[135.45,-34.581055],[135.218945,-33.959766],[134.719043,-33.255176],[134.30127,-33.165039],[134.100391,-32.748633],[134.23418,-32.548535],[133.665332,-32.207227],[132.757422,-31.95625],[132.214648,-32.007129],[131.143652,-31.495703],[128.946191,-31.702637],[127.319824,-32.264063],[125.917188,-32.296973],[124.24375,-33.015234],[123.506836,-33.916211],[122.150977,-33.991797],[121.405078,-33.826758],[119.854102,-33.974707],[119.450586,-34.368262],[118.895312,-34.479883],[117.863086,-35.05498],[116.517188,-34.987891],[115.008789,-34.255859],[114.993848,-33.515332],[115.358789,-33.639941],[115.683008,-33.192871],[115.698438,-31.694531],[115.07793,-30.560449],[114.856836,-29.142969],[114.165137,-28.080664],[114.028125,-27.347266],[113.184766,-26.182227],[113.323242,-26.243848],[113.356055,-26.080469],[113.581641,-26.558105],[113.836426,-26.500586],[113.451367,-25.599121],[113.713086,-25.830762],[113.72373,-26.129785],[113.853906,-26.014453],[113.991992,-26.321484],[114.215723,-26.289453],[114.214258,-25.851562],[113.417676,-24.435645],[113.489844,-23.869629],[113.757031,-23.418164],[113.682813,-22.637793],[114.022852,-21.881445],[114.142578,-21.909766],[114.141602,-22.483105],[114.709277,-21.823438],[116.706738,-20.653809],[117.40625,-20.721191],[118.751465,-20.261914],[119.104492,-19.995313],[119.585938,-20.038281],[120.997949,-19.604395],[121.337695,-19.319922],[121.833789,-18.477051],[122.34541,-18.111914],[122.147461,-17.549023],[122.260938,-17.135742],[122.970703,-16.436816],[123.563086,-17.520898],[123.593555,-17.030371],[123.831055,-17.120801],[123.874414,-16.918652],[123.49043,-16.490723],[123.607031,-16.224023],[123.85918,-16.382324],[124.044434,-16.264941],[124.771973,-16.402637],[124.404883,-16.298926],[124.648535,-15.870215],[124.504297,-15.972461],[124.381641,-15.758203],[124.439551,-15.493555],[124.692578,-15.273633],[125.062988,-15.442285],[124.839063,-15.160742],[125.038184,-15.004102],[125.355664,-15.119824],[125.178711,-14.714746],[125.579785,-14.483203],[125.627734,-14.256641],[125.661621,-14.529492],[125.819531,-14.469141],[125.890625,-14.617969],[126.020703,-14.494531],[126.053906,-13.977246],[126.258496,-14.163574],[126.403125,-14.018945],[126.569727,-14.160938],[126.903223,-13.744141],[127.457617,-14.031445],[128.199414,-14.751758],[128.069434,-15.329297],[128.254688,-15.298535],[128.175,-15.043164],[128.575781,-14.774512],[129.058203,-14.884375],[129.21582,-15.160254],[129.267578,-14.871484],[129.634766,-15.139746],[129.637109,-14.850977],[129.84873,-14.828906],[129.378711,-14.39248],[129.838867,-13.572949],[130.259766,-13.302246],[130.168164,-12.957422],[130.61748,-12.646875],[130.622656,-12.431055],[130.867383,-12.557813],[130.873828,-12.367188],[131.291602,-12.067871],[131.438281,-12.276953],[132.253223,-12.186035],[132.411035,-12.295117],[132.712793,-12.123438],[132.674219,-11.649023],[131.822461,-11.302441],[131.961523,-11.180859],[132.155469,-11.311133],[132.333984,-11.223535],[132.682813,-11.505566],[132.961035,-11.407324],[133.185254,-11.705664],[134.417383,-12.052734],[134.730273,-11.984375],[135.029688,-12.19375],[135.922461,-11.825781],[135.704395,-12.209863],[136.008496,-12.191406],[136.081836,-12.422461],[136.260645,-12.433789],[136.270117,-12.131641],[136.540234,-11.957617],[136.947461,-12.349902],[136.537012,-12.784277],[136.461035,-13.225195],[136.294141,-13.137988],[135.927344,-13.304297],[135.954492,-13.934863],[135.405176,-14.758203],[135.45332,-14.923145],[136.291406,-15.570117],[136.704883,-15.685254],[136.784668,-15.894238],[137.703711,-16.233008],[138.24502,-16.718359],[139.009863,-16.899316],[139.248438,-17.328613],[140.03584,-17.702637],[140.511133,-17.624512],[140.830469,-17.414453],[141.411914,-16.069531],[141.625488,-15.056641],[141.472559,-13.797559],[141.613574,-12.943457],[141.920313,-12.80293],[141.688574,-12.351074],[141.870508,-11.975586],[141.961133,-12.054297],[142.168359,-10.946582],[142.605078,-10.748242],[142.872559,-11.821387],[143.178906,-11.954492]]],[[[153.077441,-25.750781],[153.038086,-25.193164],[153.256934,-24.728906],[153.350195,-25.063086],[153.077441,-25.750781]]],[[[139.507812,-16.573047],[139.15957,-16.741699],[139.292969,-16.467285],[139.587891,-16.395215],[139.697754,-16.514941],[139.507812,-16.573047]]],[[[136.714648,-13.803906],[136.89082,-13.786621],[136.745313,-14.072656],[136.950781,-14.184277],[136.894336,-14.293066],[136.335449,-14.211816],[136.424707,-13.864844],[136.655664,-13.675879],[136.714648,-13.803906]]],[[[130.459277,-11.679297],[130.60625,-11.816602],[130.043262,-11.787305],[130.294922,-11.336816],[130.459277,-11.679297]]],[[[130.618848,-11.376074],[131.268262,-11.189844],[131.538574,-11.436914],[130.950977,-11.926465],[130.511914,-11.617871],[130.38457,-11.192188],[130.618848,-11.376074]]],[[[113.183008,-26.053125],[113.156445,-26.094531],[112.964258,-25.783105],[112.908203,-25.569824],[112.94707,-25.531543],[112.982422,-25.520215],[113.183008,-26.053125]]],[[[137.596484,-35.738672],[138.123438,-35.852344],[137.448438,-36.074805],[136.540625,-35.890137],[137.334082,-35.59248],[137.596484,-35.738672]]],[[[145.486523,-38.354883],[145.33584,-38.420996],[145.280273,-38.390625],[145.295313,-38.318945],[145.426563,-38.31416],[145.486523,-38.354883]]],[[[145.314453,-38.49082],[145.355078,-38.557031],[145.270898,-38.519727],[145.128418,-38.527637],[145.217773,-38.458594],[145.314453,-38.49082]]],[[[149.04375,-20.291504],[148.938867,-20.283691],[148.981055,-20.153516],[149.04375,-20.291504]]],[[[148.935547,-20.149902],[148.886914,-20.143555],[148.967871,-20.044336],[148.935547,-20.149902]]],[[[151.146582,-23.49082],[151.238281,-23.775781],[151.033301,-23.530176],[151.146582,-23.49082]]],[[[150.516699,-22.322559],[150.462402,-22.307715],[150.488477,-22.210742],[150.548828,-22.306934],[150.516699,-22.322559]]],[[[149.92832,-22.193066],[149.893652,-22.223242],[149.869531,-22.150391],[149.875391,-22.074023],[149.912305,-22.04873],[149.92832,-22.193066]]],[[[153.53877,-27.436426],[153.426563,-27.706445],[153.435449,-27.405371],[153.53877,-27.436426]]],[[[153.44248,-27.316016],[153.420898,-27.330957],[153.376563,-27.235352],[153.365039,-27.138867],[153.379883,-27.049414],[153.432324,-27.029883],[153.466797,-27.038086],[153.426367,-27.201465],[153.44248,-27.316016]]],[[[142.274805,-10.704785],[142.191406,-10.762012],[142.137207,-10.731934],[142.131055,-10.640625],[142.197949,-10.591992],[142.274805,-10.704785]]],[[[142.338965,-10.192188],[142.279395,-10.254199],[142.195117,-10.199316],[142.21875,-10.149414],[142.29873,-10.14043],[142.338965,-10.192188]]],[[[142.167578,-10.154102],[142.141992,-10.18125],[142.097656,-10.121777],[142.148828,-10.051758],[142.191992,-10.085254],[142.167578,-10.154102]]],[[[146.27832,-18.23125],[146.298828,-18.484766],[146.098828,-18.251758],[146.27832,-18.23125]]],[[[136.598535,-11.378906],[136.526563,-11.438867],[136.52168,-11.393848],[136.710547,-11.158398],[136.731738,-11.024609],[136.780273,-11.0125],[136.741406,-11.194629],[136.598535,-11.378906]]],[[[136.338672,-11.602344],[136.180273,-11.676758],[136.267383,-11.576465],[136.479297,-11.465918],[136.470508,-11.509277],[136.338672,-11.602344]]],[[[137.093652,-15.778125],[136.942676,-15.711719],[137.00957,-15.594824],[137.093652,-15.778125]]],[[[136.862695,-15.619922],[136.845605,-15.544043],[136.876855,-15.502539],[136.890234,-15.588867],[136.862695,-15.619922]]],[[[136.591016,-15.628223],[136.514258,-15.627344],[136.522559,-15.543164],[136.612305,-15.544141],[136.591016,-15.628223]]],[[[139.45918,-17.114551],[139.492773,-16.99043],[139.570898,-17.094434],[139.45918,-17.114551]]],[[[136.237402,-13.824512],[136.122656,-13.816602],[136.21543,-13.664746],[136.237402,-13.824512]]],[[[132.593359,-11.302832],[132.573633,-11.318359],[132.49375,-11.163672],[132.516309,-11.116016],[132.483789,-11.037305],[132.537793,-11.028418],[132.578809,-10.968848],[132.629102,-11.169141],[132.593359,-11.302832]]],[[[125.198828,-14.579492],[125.091211,-14.591699],[125.159961,-14.456055],[125.198828,-14.579492]]],[[[124.597266,-15.401953],[124.524219,-15.421484],[124.482813,-15.340332],[124.519336,-15.26748],[124.550879,-15.270313],[124.605078,-15.356543],[124.597266,-15.401953]]],[[[115.446191,-20.787793],[115.318066,-20.850586],[115.43457,-20.667969],[115.446191,-20.787793]]],[[[145.042969,-40.786719],[146.31748,-41.163477],[146.848145,-41.168066],[146.989844,-40.992383],[147.454785,-41.00166],[147.96875,-40.77959],[148.215234,-40.854883],[148.342578,-42.215332],[148.213672,-41.97002],[148.022754,-42.259473],[147.980859,-43.157031],[147.78584,-43.22002],[147.647949,-43.020605],[147.8,-42.928125],[147.573828,-42.845703],[147.452344,-43.033398],[147.297949,-42.790918],[147.24502,-43.215918],[146.996973,-43.156348],[147.077344,-43.275879],[146.873926,-43.6125],[146.043164,-43.547168],[145.994434,-43.376074],[146.208008,-43.316211],[145.873242,-43.292383],[145.487598,-42.92666],[145.198828,-42.230859],[145.468262,-42.492871],[145.516602,-42.354492],[145.234863,-42.196973],[144.766113,-41.390039],[144.718555,-40.672266],[145.042969,-40.786719]]],[[[143.92793,-40.116113],[143.838574,-39.904102],[144.000781,-39.580176],[144.141016,-39.953809],[143.92793,-40.116113]]],[[[148.000391,-39.757617],[148.297363,-39.985742],[148.313574,-40.173535],[148.105664,-40.262109],[147.767188,-39.870313],[148.000391,-39.757617]]],[[[147.356055,-43.396973],[147.10498,-43.431152],[147.283887,-43.278906],[147.356055,-43.396973]]],[[[148.104297,-42.710449],[148.029688,-42.714844],[148.022754,-42.64043],[148.072559,-42.593164],[148.169531,-42.651758],[148.100586,-42.680566],[148.104297,-42.710449]]],[[[147.43457,-43.240723],[147.348828,-43.232422],[147.337598,-43.183301],[147.296094,-43.161719],[147.352539,-43.080273],[147.397266,-43.118262],[147.43457,-43.240723]]],[[[144.784375,-40.506738],[144.748047,-40.589453],[144.710156,-40.485254],[144.783398,-40.434863],[144.784375,-40.506738]]],[[[148.32627,-40.306934],[148.404004,-40.486523],[148.010449,-40.380566],[148.32627,-40.306934]]],[[[148.236914,-40.515137],[148.187793,-40.592578],[148.117285,-40.521484],[148.236914,-40.515137]]],[[[158.878809,-54.709766],[158.845215,-54.749219],[158.896973,-54.506055],[158.958887,-54.472363],[158.945605,-54.575],[158.878809,-54.709766]]]]}},{"type":"Feature","properties":{"sigla":"TUV","nome":"Tuvalu"},"geometry":{"type":"Polygon","coordinates":[[[179.213672,-8.524219],[179.195703,-8.534766],[179.203027,-8.466309],[179.213672,-8.524219]]]}}]}