{"type":"FeatureCollection","features":[{"type":"Feature","properties":{"sigla":"VUT","nome":"Port Vila"},"geometry":{"type":"Point","coordinates":[168.316641,-17.73335]}},{"type":"Feature","properties":{"sigla":"FSM","nome":"Palikir"},"geometry":{"type":"Point","coordinates":[158.149974,6.916644]}},{"type":"Feature","properties":{"sigla":"MHL","nome":"Majuro"},"geometry":{"type":"Point","coordinates":[171.38,7.103004]}},{"type":"Feature","properties":{"sigla":"TON","nome":"Nuku'alofa"},"geometry":{"type":"Point","coordinates":[-175.220564,-21.138512]}},{"type":"Feature","properties":{"sigla":"SLB","nome":"Honiara"},"geometry":{"type":"Point","coordinates":[159.949766,-9.437994]}},{"type":"Feature","properties":{"sigla":"WSM","nome":"Apia"},"geometry":{"type":"Point","coordinates":[-171.768599,-13.835715]}},{"type":"Feature","properties":{"sigla":"PNG","nome":"Port Moresby"},"geometry":{"type":"Point","coordinates":[147.192504,-9.464708]}},{"type":"Feature","properties":{"sigla":"PLW","nome":"Melequeoque"},"geometry":{"type":"Point","coordinates":[134.626549,7.487396]}},{"type":"Feature","properties":{"sigla":"NZL","nome":"Wellington"},"geometry":{"type":"Point","coordinates":[174.777201,-41.292068]}},{"type":"Feature","properties":{"sigla":"KIR","nome":"Tarawa do Sul"},"geometry":{"type":"Point","coordinates":[173.017571,1.338188]}},{"type":"Feature","properties":{"sigla":"FJI","nome":"Suva"},"geometry":{"type":"Point","coordinates":[178.441707,-18.133016]}},{"type":"Feature","properties":{"sigla":"AUS","nome":"Camberra"},"geometry":{"type":"Point","coordinates":[149.129026,-35.283029]}},{"type":"Feature","properties":{"sigla":"TUV","nome":"Funafuti"},"geometry":{"type":"Point","coordinates":[179.216647,-8.516652]}}]}