{"type":"FeatureCollection","features":[{"type":"Feature","properties":{"sigla":"AUS_0","nome":"Sydney"},"geometry":{"type":"Point","coordinates":[151.212548,-33.871373]}},{"type":"Feature","properties":{"sigla":"AUS_1","nome":"Melbourne"},"geometry":{"type":"Point","coordinates":[144.97307,-37.818086]}},{"type":"Feature","properties":{"sigla":"AUS_2","nome":"Brisbane"},"geometry":{"type":"Point","coordinates":[153.033147,-27.453085]}},{"type":"Feature","properties":{"sigla":"AUS_3","nome":"Perth"},"geometry":{"type":"Point","coordinates":[115.838053,-31.953069]}},{"type":"Feature","properties":{"sigla":"NZL_4","nome":"Auckland"},"geometry":{"type":"Point","coordinates":[174.763027,-36.848055]}},{"type":"Feature","properties":{"sigla":"AUS_5","nome":"Adelaide"},"geometry":{"type":"Point","coordinates":[138.598059,-34.933042]}},{"type":"Feature","properties":{"sigla":"AUS_6","nome":"Newcastle"},"geometry":{"type":"Point","coordinates":[151.770249,-32.929508]}},{"type":"Feature","properties":{"sigla":"AUS_7","nome":"Gold Coast"},"geometry":{"type":"Point","coordinates":[153.448246,-28.081504]}},{"type":"Feature","properties":{"sigla":"NZL_8","nome":"Wellington"},"geometry":{"type":"Point","coordinates":[174.777201,-41.292068]}},{"type":"Feature","properties":{"sigla":"NZL_9","nome":"Manukau"},"geometry":{"type":"Point","coordinates":[174.884971,-36.99997]}}]}