{"type":"FeatureCollection","features":[{"type":"Feature","properties":{"sigla":"amazonas","nome":"Amazonas"},"geometry":{"type":"MultiLineString","coordinates":[[[-52.66417,-1.551791],[-52.873615,-1.611116],[-52.999989,-1.668063],[-53.14489,-1.763871],[-53.357849,-1.838389],[-53.638865,-1.891512],[-53.843297,-1.958123],[-53.971067,-2.038273],[-54.04468,-2.141213],[-54.064162,-2.267045],[-54.186687,-2.35753],[-54.467652,-2.440212],[-54.525116,-2.440316],[-54.564132,-2.440523],[-54.639011,-2.419335],[-54.676192,-2.359287],[-54.674564,-2.253351],[-54.693814,-2.184104],[-54.733915,-2.151651],[-54.793523,-2.119819],[-54.872588,-2.088606],[-54.95664,-2.104212],[-55.045627,-2.166741],[-55.149729,-2.18028],[-55.268998,-2.14483],[-55.375167,-2.082715],[-55.458082,-1.986803],[-55.514849,-1.949493],[-55.554821,-1.923965],[-55.605851,-1.918384],[-55.669361,-1.926549],[-55.735714,-1.963549],[-55.839713,-1.989956],[-55.981332,-2.005665],[-56.129462,-2.079511],[-56.284078,-2.211596],[-56.400867,-2.336291],[-56.479725,-2.453597],[-56.548507,-2.526926],[-56.607185,-2.556381],[-56.676251,-2.574675],[-56.755781,-2.582013],[-56.847351,-2.56651],[-56.951014,-2.528166],[-57.049665,-2.523153],[-57.143277,-2.55142],[-57.244381,-2.526409],[-57.353005,-2.448274],[-57.440028,-2.404659],[-57.505502,-2.395667],[-57.605393,-2.481347],[-57.739752,-2.661801],[-57.882844,-2.783964],[-58.034669,-2.847629],[-58.134973,-2.95863],[-58.183652,-3.116864],[-58.234993,-3.199959],[-58.268066,-3.214274],[-58.315918,-3.211845],[-58.380152,-3.202233],[-58.452576,-3.181511],[-58.549315,-3.20523],[-58.642255,-3.303984],[-58.689048,-3.342328],[-58.805113,-3.347082],[-58.88994,-3.322639],[-58.982208,-3.270549],[-59.091349,-3.238923],[-59.217336,-3.227761],[-59.38146,-3.18425],[-59.583644,-3.108595],[-59.735444,-3.0779],[-59.836833,-3.092162],[-59.896829,-3.127612],[-59.90564,-3.171382],[-59.924502,-3.205954],[-59.957498,-3.237373],[-60.105034,-3.305638],[-60.203116,-3.325223],[-60.279028,-3.302072],[-60.410596,-3.29985],[-60.597769,-3.318557],[-60.746984,-3.398087],[-60.858192,-3.538337],[-61.035933,-3.610374],[-61.280156,-3.614094],[-61.467535,-3.676003],[-61.598069,-3.796305],[-61.717028,-3.883018],[-61.824412,-3.936142],[-61.892651,-3.946787],[-62.011222,-3.895731],[-62.277408,-3.761786],[-62.367376,-3.718067],[-62.39337,-3.716362],[-62.423497,-3.730521],[-62.449438,-3.801938],[-62.543128,-3.851082],[-62.704565,-3.878058],[-62.862902,-3.938312],[-63.018138,-4.03195],[-63.096789,-4.078459],[-63.152238,-4.071534],[-63.177275,-4.035154],[-63.216343,-3.974486],[-63.282928,-3.922913],[-63.449584,-3.870926],[-63.57322,-3.853873],[-63.653809,-3.871856],[-63.747447,-3.868394],[-63.854211,-3.843434],[-64.035492,-3.764576],[-64.29129,-3.631871],[-64.458308,-3.523661],[-64.575614,-3.39819],[-64.790277,-3.222387],[-64.905051,-3.128439],[-65.069744,-2.970516],[-65.179504,-2.834504],[-65.287792,-2.746757],[-65.394633,-2.707276],[-65.458686,-2.663455],[-65.479977,-2.615499],[-65.558189,-2.594312],[-65.760968,-2.602993],[-65.900571,-2.493077],[-65.977337,-2.466154],[-66.037747,-2.485481],[-66.096244,-2.47742],[-66.152778,-2.441866],[-66.21032,-2.459953],[-66.268921,-2.53168],[-66.333956,-2.536744],[-66.405399,-2.475146],[-66.471002,-2.439076],[-66.53074,-2.428534],[-66.572546,-2.478143],[-66.596446,-2.587904],[-66.640991,-2.659166],[-66.706181,-2.691825],[-66.800697,-2.714511],[-66.92454,-2.727327],[-67.07696,-2.695442],[-67.257982,-2.618806],[-67.384021,-2.622837],[-67.455128,-2.70738],[-67.572407,-2.779158],[-67.735886,-2.838224],[-67.846318,-2.927831],[-67.932385,-3.108027],[-67.92652,-3.223265],[-67.945692,-3.283107],[-67.98786,-3.325947],[-68.094572,-3.333905],[-68.265828,-3.306878],[-68.595704,-3.345377],[-69.084176,-3.44935],[-69.35186,-3.552703],[-69.398782,-3.655435],[-69.416274,-3.764059],[-69.404389,-3.878523],[-69.424982,-3.973504],[-69.478002,-4.049055],[-69.480947,-4.111428],[-69.433741,-4.160624],[-69.458778,-4.223101],[-69.556033,-4.298807],[-69.685276,-4.334671],[-69.846506,-4.330536],[-69.948102,-4.285164],[-69.965931,-4.235969],[-70.017194,-4.161968],[-70.09476,-4.092153],[-70.16752,-4.050243],[-70.198397,-3.995156],[-70.240281,-3.882708],[-70.298443,-3.844261],[-70.339499,-3.814341],[-70.379187,-3.818733],[-70.421097,-3.849636],[-70.485847,-3.869376],[-70.529669,-3.866379],[-70.557367,-3.870048],[-70.900473,-3.960068],[-71.057931,-3.985389],[-71.13803,-3.963427],[-71.193272,-3.902759],[-71.283318,-3.868962],[-71.408168,-3.862245],[-71.521391,-3.826381],[-71.622987,-3.761476],[-71.688668,-3.649906],[-71.718433,-3.491673],[-71.751971,-3.39478],[-71.789385,-3.359226],[-71.913977,-3.383721],[-72.125773,-3.46847],[-72.292714,-3.503403],[-72.475855,-3.481028],[-72.746794,-3.45674],[-72.890507,-3.467023],[-72.997322,-3.503713],[-73.093698,-3.562263],[-73.17961,-3.642568],[-73.211366,-3.782973],[-73.18899,-3.983581],[-73.192245,-4.099233],[-73.221184,-4.130032],[-73.268468,-4.135923],[-73.333994,-4.116906],[-73.365671,-4.132512],[-73.363501,-4.182638],[-73.385412,-4.230853],[-73.431455,-4.277103],[-73.46303,-4.336324],[-73.488635,-4.444845]]]}},{"type":"Feature","properties":{"sigla":"parana","nome":"Paraná"},"geometry":{"type":"MultiLineString","coordinates":[[[-59.181576,-33.805947],[-59.081789,-33.821708],[-58.933607,-33.88434],[-58.736952,-33.993842],[-58.590708,-34.03818],[-58.429477,-33.990948]],[[-60.389691,-33.173429],[-60.281845,-33.259365],[-59.854455,-33.53387],[-59.547807,-33.68368],[-59.361978,-33.708743],[-59.287409,-33.742385],[-59.240849,-33.778868],[-59.181576,-33.805947]],[[-60.389691,-33.173429],[-60.110977,-33.248771],[-59.947472,-33.267892],[-59.822932,-33.250322],[-59.664311,-33.315279],[-59.471558,-33.462815],[-59.327975,-33.604098],[-59.181576,-33.805947]],[[-60.391037,-33.173065],[-60.389691,-33.173429]],[[-58.604841,-27.314353],[-58.816198,-27.43786],[-58.877563,-27.511964],[-58.850227,-27.610769],[-58.823872,-27.718204],[-58.83059,-27.826363],[-58.861647,-27.971057],[-58.929757,-28.076374],[-59.035022,-28.142313],[-59.087499,-28.288247],[-59.087215,-28.514177],[-59.122148,-28.734938],[-59.191549,-28.948259],[-59.194495,-28.980918],[-59.205244,-29.032181],[-59.227361,-29.058329],[-59.25568,-29.083444],[-59.304462,-29.104115],[-59.440371,-29.170364],[-59.529307,-29.250256],[-59.565118,-29.335315],[-59.605478,-29.495202],[-59.650436,-29.729916],[-59.653563,-29.89771],[-59.614831,-29.998737],[-59.613953,-30.11041],[-59.650953,-30.23278],[-59.655811,-30.336184],[-59.628525,-30.420572],[-59.624753,-30.526405],[-59.636664,-30.603506],[-59.638421,-30.669445],[-59.654286,-30.717246],[-59.675137,-30.760448],[-59.737821,-30.830004],[-60.063512,-31.269616],[-60.301508,-31.554249],[-60.447597,-31.66587],[-60.581129,-31.699357],[-60.66593,-31.767673],[-60.702052,-31.870819],[-60.70554,-31.959134],[-60.676472,-32.032618],[-60.678074,-32.135661],[-60.726495,-32.334563],[-60.756984,-32.517446],[-60.744271,-32.645397],[-60.698486,-32.779549],[-60.630583,-32.91551],[-60.540563,-33.053228],[-60.389693,-33.173427],[-60.389691,-33.173429]],[[-54.610563,-25.432711],[-54.631931,-26.005803],[-54.677716,-26.308833],[-54.755102,-26.532902],[-54.825511,-26.652223],[-54.888918,-26.666796],[-54.934471,-26.702504],[-54.962144,-26.759348],[-55.013613,-26.806684],[-55.088854,-26.844511],[-55.129627,-26.886059],[-55.135931,-26.931121],[-55.207994,-26.960163],[-55.345789,-26.973185],[-55.426663,-27.009255],[-55.450641,-27.068373],[-55.49671,-27.115296],[-55.564897,-27.150022],[-55.597247,-27.20759],[-55.59381,-27.288101],[-55.632929,-27.357141],[-55.71463,-27.414812],[-55.79,-27.416362],[-55.85904,-27.361947],[-55.951489,-27.325722],[-56.067347,-27.307739],[-56.164086,-27.321484],[-56.241729,-27.366805],[-56.310537,-27.43879],[-56.370481,-27.537389],[-56.437144,-27.553822],[-56.510524,-27.487883],[-56.603361,-27.467832],[-56.715706,-27.493774],[-56.805183,-27.484679],[-56.871743,-27.44065],[-56.973959,-27.435793],[-57.111831,-27.470106],[-57.391272,-27.430418],[-57.812228,-27.316627],[-58.168253,-27.273425],[-58.604841,-27.314353]],[[-53.786014,-23.333252],[-53.907531,-23.406943],[-53.995536,-23.570189],[-54.050054,-23.822887],[-54.124727,-23.978433],[-54.266915,-24.065869],[-54.066539,-24.004271],[-53.989851,-23.837563],[-53.915747,-23.5767],[-53.857844,-23.423376],[-53.786014,-23.333252]],[[-52.960793,-22.454753],[-53.116261,-22.640013],[-53.272324,-22.751944],[-53.480787,-22.852403],[-53.620055,-23.001025],[-53.690206,-23.197964],[-53.786014,-23.333252]],[[-51.396754,-20.441439],[-51.534317,-20.55766],[-51.59315,-20.66649],[-51.619143,-20.806843],[-51.691904,-20.943786],[-51.811483,-21.077214],[-51.866389,-21.182634],[-51.856622,-21.260046],[-51.872901,-21.329705],[-51.936385,-21.422775]],[[-50.489729,-19.020441],[-50.531561,-19.087052],[-50.577605,-19.11227],[-50.641813,-19.118471],[-50.713281,-19.160536],[-50.79201,-19.238464],[-50.843842,-19.310811],[-50.868802,-19.377473],[-50.870817,-19.42393],[-50.864254,-19.437728],[-50.880791,-19.459225],[-50.923785,-19.464186],[-50.964222,-19.511315],[-50.997476,-19.667585]],[[-55.075289,-14.319384],[-55.432451,-14.357366],[-55.800335,-14.548827],[-56.006111,-14.63523],[-56.172509,-14.680344],[-56.315911,-14.778064],[-56.436317,-14.928236],[-56.49683,-15.03686],[-56.497347,-15.103936],[-56.443965,-15.17127],[-56.336582,-15.238966],[-56.274622,-15.327591],[-56.258059,-15.437249],[-56.205478,-15.530835],[-56.116853,-15.608504],[-56.088845,-15.680231],[-56.121453,-15.746015],[-56.132511,-15.801051],[-56.122021,-15.845286],[-56.070267,-15.895515],[-55.977224,-15.951791],[-55.916969,-16.009462],[-55.88958,-16.068528],[-55.90498,-16.13023],[-55.963194,-16.194567],[-55.97725,-16.254253],[-55.947148,-16.309237],[-55.96508,-16.362153],[-56.031122,-16.412848],[-56.133752,-16.453156],[-56.273071,-16.483025],[-56.382134,-16.564983],[-56.460967,-16.699084],[-56.528818,-16.784712],[-56.58574,-16.821919],[-56.620389,-16.872303],[-56.632791,-16.935969],[-56.626693,-16.992606],[-56.589744,-17.067175],[-56.789939,-17.386019],[-56.88753,-17.517949],[-56.98016,-17.59474],[-57.079689,-17.734266],[-57.198493,-17.812401],[-57.369852,-17.875653],[-57.432303,-18.045048],[-57.385897,-18.320587],[-57.406981,-18.496648],[-57.495555,-18.573233],[-57.548885,-18.663925],[-57.566972,-18.768828],[-57.60653,-18.838385],[-57.667586,-18.872698],[-57.68823,-18.919052],[-57.66849,-18.977549],[-57.588236,-19.018632],[-57.447522,-19.042197],[-57.365278,-19.070412],[-57.341507,-19.103071],[-57.304016,-19.232573],[-57.300037,-19.297375],[-57.30908,-19.351428],[-57.345099,-19.41406],[-57.408041,-19.485167],[-57.427264,-19.529144],[-57.402873,-19.546042],[-57.413105,-19.586969],[-57.457986,-19.652082],[-57.522401,-19.69673],[-57.606375,-19.720915],[-57.64862,-19.751559],[-57.649189,-19.788714],[-57.711201,-19.861475],[-57.834656,-19.969892],[-57.962167,-20.059292],[-58.093684,-20.129779],[-58.149417,-20.177373],[-58.129289,-20.202022],[-58.128694,-20.226155],[-58.147608,-20.24972],[-58.115336,-20.304342],[-58.031827,-20.390125],[-57.987902,-20.497922],[-57.983535,-20.627733],[-57.965707,-20.686851],[-57.934443,-20.67543],[-57.904341,-20.684784],[-57.875402,-20.715066],[-57.880983,-20.745969],[-57.921084,-20.777594],[-57.920929,-20.803019],[-57.880518,-20.822036],[-57.874162,-20.850045],[-57.901757,-20.887045],[-57.891241,-20.917534],[-57.84264,-20.941512],[-57.822434,-21.008536],[-57.830599,-21.118659],[-57.852277,-21.198964],[-57.887417,-21.249555],[-57.892817,-21.288778],[-57.868426,-21.316683],[-57.879692,-21.374974],[-57.92651,-21.463806],[-57.936536,-21.553258],[-57.909767,-21.643278],[-57.917622,-21.788851],[-57.981339,-22.090383],[-57.969712,-22.215233],[-57.93111,-22.289802],[-57.861553,-22.355689],[-57.813907,-22.455322],[-57.788173,-22.588802],[-57.816543,-22.670709],[-57.89907,-22.701095],[-57.903359,-22.751428],[-57.829462,-22.821707],[-57.791738,-22.897982],[-57.790291,-22.980251],[-57.71319,-23.084327],[-57.560512,-23.210211],[-57.475763,-23.34829],[-57.458942,-23.498617],[-57.406904,-23.613235],[-57.319597,-23.692145],[-57.292931,-23.779478],[-57.326909,-23.87539],[-57.298693,-23.971818],[-57.208337,-24.06897],[-57.17219,-24.13217],[-57.190225,-24.161522],[-57.170252,-24.223482],[-57.112219,-24.317947],[-57.079637,-24.402903],[-57.072506,-24.478351],[-57.084288,-24.546873],[-57.130383,-24.639529],[-57.12444,-24.723917],[-57.154051,-24.786859],[-57.2172,-24.856622],[-57.236527,-24.914655],[-57.211929,-24.96106],[-57.221127,-24.983849],[-57.264044,-24.982919],[-57.319726,-25.01501],[-57.388197,-25.080019],[-57.44778,-25.111697],[-57.498526,-25.110043],[-57.560977,-25.154382],[-57.635159,-25.244815],[-57.643892,-25.328428],[-57.587151,-25.405116],[-57.563122,-25.473742],[-57.5717,-25.534152],[-57.625831,-25.598696],[-57.725463,-25.667219],[-57.754815,-25.697087],[-57.757063,-25.726026],[-57.782488,-25.783697],[-57.865222,-25.906945],[-57.886203,-25.964255],[-57.890647,-26.006578],[-57.943099,-26.052983],[-58.082392,-26.138559],[-58.111124,-26.18021],[-58.118075,-26.224911],[-58.135619,-26.251472],[-58.154714,-26.262583],[-58.181482,-26.307386],[-58.203031,-26.38149],[-58.205201,-26.476575],[-58.187941,-26.592537],[-58.1913,-26.630002],[-58.222048,-26.649949],[-58.23936,-26.676873],[-58.245561,-26.73103],[-58.271683,-26.770717],[-58.317701,-26.795935],[-58.334651,-26.824926],[-58.322559,-26.857637],[-58.356432,-26.889986],[-58.436298,-26.921974],[-58.485236,-26.968431],[-58.503245,-27.029513],[-58.547713,-27.084031],[-58.618613,-27.13209],[-58.641764,-27.196117],[-58.604841,-27.314353]]]}},{"type":"Feature","properties":{"sigla":"orinoco","nome":"Orinoco"},"geometry":{"type":"MultiLineString","coordinates":[[[-63.435942,2.374067],[-63.640529,2.312366],[-63.731996,2.25826],[-63.77853,2.191159],[-63.849069,2.15638],[-63.990843,2.152711],[-64.278526,2.265366],[-64.407975,2.292289],[-64.475,2.27105],[-64.67969,2.32575],[-65.021995,2.456388],[-65.196144,2.587284],[-65.202242,2.718336],[-65.246038,2.817787],[-65.327583,2.885638],[-65.392928,2.965892],[-65.442124,3.058547],[-65.490028,3.117381],[-65.53664,3.142392],[-65.613018,3.151617],[-65.772233,3.14185],[-65.942145,3.16234],[-66.011133,3.130223],[-66.035835,3.052372],[-66.128697,3.024105],[-66.289669,3.045499],[-66.413408,3.091259],[-66.499889,3.161409],[-66.555751,3.236909],[-66.581073,3.317731],[-66.64541,3.420205],[-66.800594,3.606266],[-66.946167,3.70595],[-67.001615,3.7915],[-67.015387,3.896197],[-67.115536,3.94777],[-67.302062,3.946168],[-67.479571,3.980688],[-67.732346,4.086521],[-67.783221,4.19822],[-67.798621,4.283873],[-67.795417,4.380715],[-67.814305,4.455077],[-67.855258,4.506883],[-67.855258,4.665478],[-67.814305,4.93081],[-67.804202,5.132504],[-67.824924,5.27048],[-67.788415,5.375486],[-67.694648,5.447523],[-67.6423,5.558782],[-67.631344,5.709368],[-67.575224,5.833081],[-67.473886,5.929974],[-67.439366,6.025524],[-67.471613,6.119782],[-67.422546,6.202309],[-67.400299,6.239826],[-67.225374,6.385657],[-67.118947,6.556784],[-67.061999,6.851417],[-67.071224,7.033189],[-66.959396,7.151063],[-66.729565,7.265603],[-66.563451,7.395828],[-66.461028,7.541659],[-66.297317,7.628811],[-66.072318,7.657233],[-65.912018,7.713845],[-65.768616,7.840995],[-65.640613,7.89249],[-65.518011,7.90081],[-65.358124,7.883059],[-65.220613,7.857195],[-65.105478,7.823192],[-65.004218,7.771128],[-64.92846,7.710305],[-64.903707,7.681237],[-64.887171,7.668008],[-64.873192,7.666018],[-64.854098,7.668008],[-64.837561,7.670488],[-64.787125,7.685371],[-64.74165,7.709452],[-64.58998,7.759553],[-64.509855,7.824355],[-64.538381,7.89156],[-64.545435,7.942926],[-64.530965,7.978454],[-64.480942,7.999383],[-64.395315,8.005713],[-64.330822,8.027727],[-64.287517,8.065399],[-64.22163,8.056873],[-64.154606,8.005351],[-64.114091,7.980547],[-64.089002,7.974837],[-64.049599,7.971452],[-63.993091,7.973881],[-63.92387,8.012896],[-63.849353,8.091548],[-63.7275,8.135731],[-63.558311,8.145343],[-63.398941,8.190973],[-63.249493,8.27257],[-63.100872,8.30355],[-62.953103,8.283887],[-62.791097,8.333859],[-62.614803,8.453541],[-62.429336,8.553277],[-62.234723,8.633065],[-62.152015,8.642031]],[[-62.152015,8.642031],[-62.092303,8.648465],[-62.002076,8.599527],[-61.880326,8.582112],[-61.650392,8.603299],[-61.618688,8.597486],[-61.394903,8.774219],[-61.098849,8.941315]],[[-62.063312,9.036322],[-62.077316,8.975292],[-62.064707,8.928448],[-62.025485,8.895788],[-62.038766,8.827834],[-62.13739,8.672959],[-62.152015,8.642031]],[[-61.735968,9.631195],[-61.742712,9.603213],[-61.848545,9.288555],[-61.923941,9.151535],[-62.044373,9.055158],[-62.063312,9.036322]],[[-62.299783,9.788188],[-62.309395,9.747726],[-62.325699,9.720518],[-62.414221,9.562052],[-62.388202,9.421079],[-62.277098,9.244759],[-62.180256,9.134171],[-62.097625,9.089265],[-62.063312,9.036322]]]}},{"type":"Feature","properties":{"sigla":"uruguai","nome":"Uruguai"},"geometry":{"type":"MultiLineString","coordinates":[[[-49.736726,-28.511386],[-49.839149,-28.465291],[-49.938471,-28.448082],[-50.068799,-28.444362],[-50.140965,-28.452888],[-50.154918,-28.473714],[-50.233026,-28.468598],[-50.446476,-28.422037],[-50.577527,-28.386174],[-50.736071,-28.235951],[-50.965798,-27.959378],[-51.117236,-27.807811],[-51.19041,-27.781146],[-51.286812,-27.716292],[-51.406495,-27.613198],[-51.487575,-27.564054],[-51.530131,-27.568911],[-51.582479,-27.547517],[-51.644672,-27.499872],[-51.701671,-27.488038],[-51.753502,-27.511964],[-51.799908,-27.511964],[-51.873366,-27.50938],[-51.912976,-27.472535],[-51.984134,-27.376623],[-52.059608,-27.313526],[-52.139318,-27.283296],[-52.192364,-27.280867],[-52.228564,-27.292649],[-52.264789,-27.277146],[-52.304295,-27.283141],[-52.348065,-27.276319],[-52.414702,-27.236218],[-52.51082,-27.230534],[-52.636497,-27.259473],[-52.741659,-27.245727],[-52.826382,-27.189503],[-52.900125,-27.176584],[-52.952886,-27.178806],[-52.994279,-27.163303],[-53.030504,-27.137413],[-53.07076,-27.141857],[-53.103652,-27.154415],[-53.13409,-27.140462],[-53.184397,-27.149505],[-53.227107,-27.173638],[-53.263332,-27.163303],[-53.284933,-27.129041],[-53.304777,-27.097622],[-53.347591,-27.080569],[-53.398182,-27.082429],[-53.456525,-27.103255],[-53.489804,-27.133176],[-53.498021,-27.172243],[-53.540008,-27.197874],[-53.615714,-27.209967],[-53.659562,-27.200458],[-53.671525,-27.169452],[-53.718447,-27.157515],[-53.800406,-27.164646],[-53.851772,-27.15612],[-53.935333,-27.161184],[-54.040133,-27.243763],[-54.113823,-27.274666],[-54.156456,-27.253788],[-54.205239,-27.2896],[-54.260145,-27.382049],[-54.327014,-27.423494],[-54.448118,-27.446438],[-54.484343,-27.45729],[-54.554933,-27.454138],[-54.61542,-27.477186],[-54.665857,-27.526537],[-54.719729,-27.544933],[-54.77709,-27.532531],[-54.829077,-27.550618],[-54.875741,-27.599245],[-54.902767,-27.651904],[-54.910209,-27.708541],[-54.955891,-27.747143],[-55.039917,-27.767814],[-55.06901,-27.796288],[-55.063869,-27.835923],[-55.101515,-27.866774],[-55.243728,-27.898865],[-55.346513,-27.955916],[-55.409816,-28.037823],[-55.476686,-28.089345],[-55.58239,-28.120971],[-55.725508,-28.204118],[-55.745997,-28.255484],[-55.691531,-28.30282],[-55.671971,-28.344885],[-55.687267,-28.381678],[-55.731967,-28.386639],[-55.806045,-28.359767],[-55.858885,-28.354186],[-55.890511,-28.369999],[-55.905419,-28.399662],[-55.903662,-28.443276],[-55.930146,-28.472887],[-55.984923,-28.488597],[-56.019624,-28.524615],[-56.034223,-28.580839],[-56.102875,-28.651739],[-56.225555,-28.737212],[-56.322345,-28.85245],[-56.393245,-28.997248],[-56.476005,-29.092487],[-56.570676,-29.138066],[-56.63584,-29.203023],[-56.671522,-29.287359],[-56.772446,-29.417894],[-56.938612,-29.594834],[-57.089352,-29.71617],[-57.224641,-29.782109],[-57.300709,-29.856524],[-57.317504,-29.939413],[-57.405224,-30.033929],[-57.563871,-30.139969],[-57.645752,-30.226992],[-57.650894,-30.294998],[-57.712725,-30.38445],[-57.831219,-30.495244],[-57.872509,-30.591052],[-57.818558,-30.711975],[-57.8106,-30.858633],[-57.834087,-30.917441],[-57.886306,-30.937388],[-57.898295,-30.975215],[-57.87008,-31.031025],[-57.868426,-31.104406],[-57.893334,-31.195357],[-57.94837,-31.299433],[-58.033429,-31.416583],[-58.053841,-31.494873],[-58.009658,-31.534354],[-57.987979,-31.576212],[-57.988884,-31.620602],[-58.006996,-31.684939],[-58.042343,-31.769275],[-58.095854,-31.831803],[-58.167503,-31.87268],[-58.189027,-31.924253],[-58.160398,-31.986574],[-58.156367,-32.051532],[-58.176986,-32.119021],[-58.16479,-32.184857],[-58.119754,-32.248936],[-58.123036,-32.321903],[-58.201145,-32.471661]]]}},{"type":"Feature","properties":{"sigla":"magdalena","nome":"Magdalena"},"geometry":{"type":"MultiLineString","coordinates":[[[-76.50734,1.942672],[-76.281256,1.896086],[-76.178781,1.897507],[-76.097468,1.948331],[-75.791027,2.117907],[-75.690077,2.198316],[-75.692454,2.246116],[-75.661939,2.297224],[-75.598584,2.351691],[-75.57241,2.401094],[-75.583469,2.445536],[-75.518098,2.569973],[-75.376298,2.774456],[-75.292375,2.981265],[-75.266227,3.1904],[-75.159154,3.461107],[-74.971155,3.793386],[-74.858087,4.03779],[-74.820053,4.194266],[-74.823593,4.274261],[-74.868706,4.277775],[-74.861084,4.421694],[-74.770521,4.848051],[-74.755612,5.188702],[-74.72316,5.367399],[-74.668279,5.497701],[-74.646265,5.61511],[-74.657169,5.719625],[-74.640555,5.829309],[-74.596423,5.944134],[-74.575753,6.055135],[-74.578543,6.162312],[-74.530975,6.264734],[-74.432996,6.362506],[-74.384653,6.46511],[-74.385919,6.572519],[-74.317086,6.667242],[-74.17818,6.749252],[-74.053485,6.847644],[-73.943104,6.962392],[-73.900238,7.078276],[-73.924914,7.195323],[-73.906827,7.385234],[-73.846055,7.648061],[-73.829829,7.845826],[-73.858174,7.978531],[-73.851688,8.071187],[-73.789651,8.150175]],[[-73.796472,8.150175],[-73.765234,8.329053],[-73.784147,8.534828],[-73.842852,8.82711],[-73.942484,8.992165],[-74.083095,9.029992],[-74.222725,9.103553],[-74.361476,9.212797],[-74.456302,9.261295],[-74.507307,9.249022],[-74.558725,9.277703],[-74.610608,9.347285],[-74.663034,9.391107],[-74.742409,9.418237],[-74.785533,9.440974],[-74.7953,9.494227],[-74.786101,9.585591],[-74.805635,9.690933],[-74.854004,9.810203],[-74.85974,9.908698],[-74.822895,9.986419],[-74.84031,10.060342],[-74.912037,10.130493],[-74.8924,10.275445],[-74.781451,10.495174],[-74.726674,10.683534],[-74.728069,10.840579],[-74.761348,10.972302],[-74.844573,11.10971]]]}},{"type":"Feature","properties":{"sigla":"madeira","nome":"Madeira"},"geometry":{"type":"MultiLineString","coordinates":[[[-65.39546,-10.392285],[-65.313062,-10.253069],[-65.298593,-10.146771],[-65.32456,-10.026985],[-65.328126,-9.935569],[-65.309316,-9.872627],[-65.337893,-9.790255],[-65.413934,-9.688556],[-65.42166,-9.610524],[-65.361095,-9.556264],[-65.233041,-9.546342],[-65.037601,-9.580655],[-64.91412,-9.583291],[-64.862599,-9.554249],[-64.833427,-9.498541],[-64.826606,-9.416169],[-64.801775,-9.372348],[-64.758962,-9.367025],[-64.700516,-9.319844],[-64.626515,-9.230754],[-64.534014,-9.184504],[-64.423065,-9.181145],[-64.340899,-9.138305],[-64.287492,-9.055933],[-64.216282,-9.001983],[-64.127217,-8.976248],[-64.080037,-8.93687],[-64.074766,-8.883643],[-64.034561,-8.83238],[-63.959501,-8.782978],[-63.918909,-8.729441],[-63.912812,-8.671667],[-63.849301,-8.61906],[-63.728404,-8.571518],[-63.635671,-8.55555],[-63.571075,-8.571104],[-63.546684,-8.554878],[-63.562497,-8.506767],[-63.545186,-8.465891],[-63.494749,-8.432198],[-63.437957,-8.358094],[-63.343208,-8.186425],[-63.245049,-8.214847],[-63.131154,-8.17671],[-62.887603,-8.033876],[-62.866881,-7.945303],[-62.900057,-7.802883],[-62.980259,-7.577263],[-62.979535,-7.350662],[-62.897887,-7.123182],[-62.82386,-7.00443],[-62.757404,-6.994353],[-62.687822,-6.933892],[-62.615139,-6.822891],[-62.528943,-6.762326],[-62.429233,-6.752146],[-62.36748,-6.723104],[-62.343657,-6.675303],[-62.343528,-6.633652],[-62.367092,-6.598202],[-62.348463,-6.538154],[-62.287665,-6.453508],[-62.249502,-6.366795],[-62.233999,-6.278066],[-62.184183,-6.230265],[-62.125582,-6.22179],[-62.091683,-6.218483],[-62.058015,-6.219982],[-61.90451,-6.236312],[-61.844462,-6.210163],[-61.826712,-6.147066],[-61.780384,-6.085778],[-61.705505,-6.026247],[-61.667936,-5.973382],[-61.667729,-5.927183],[-61.647989,-5.901448],[-61.608715,-5.896126],[-61.599361,-5.881036],[-61.619825,-5.856025],[-61.548512,-5.838248],[-61.385421,-5.827499],[-61.288527,-5.78099],[-61.25778,-5.698722],[-61.1166,-5.614799],[-60.864884,-5.529171],[-60.734453,-5.447678],[-60.725203,-5.37037],[-60.646809,-5.292752],[-60.528625,-5.230326],[-60.458707,-5.199011],[-60.425428,-5.175859],[-60.388427,-5.146921],[-60.361969,-5.103099],[-60.259856,-4.976698],[-60.17149,-4.912723],[-60.10524,-4.917477],[-60.036769,-4.897117],[-59.966179,-4.851435],[-59.930884,-4.790508],[-59.930988,-4.714337],[-59.913598,-4.671342],[-59.882722,-4.594758],[-59.786138,-4.431771],[-59.699115,-4.366607],[-59.647775,-4.364178],[-59.602532,-4.370276],[-59.573593,-4.365521],[-59.547523,-4.35684],[-59.520625,-4.342164],[-59.488844,-4.317721],[-59.427297,-4.249508],[-59.361565,-4.155663],[-59.327665,-4.045386],[-59.252993,-3.951955],[-59.137625,-3.875474],[-59.083313,-3.798062],[-59.090109,-3.719721],[-58.996884,-3.595904],[-58.689048,-3.342328]]]}},{"type":"Feature","properties":{"sigla":"tocantins","nome":"Tocantins"},"geometry":{"type":"MultiLineString","coordinates":[[[-49.178724,-15.926004],[-49.257556,-15.768029],[-49.349644,-15.725086],[-49.436848,-15.633516],[-49.54989,-15.479107],[-49.592239,-15.348469],[-49.56392,-15.241653],[-49.51444,-15.164707],[-49.443747,-15.117578],[-49.356387,-15.010918],[-49.252311,-14.844727],[-49.154694,-14.746231],[-49.063537,-14.715277],[-49.009277,-14.628616],[-48.991914,-14.486196],[-48.993619,-14.386667],[-49.014393,-14.330236],[-49.007572,-14.28228],[-48.973155,-14.242851],[-48.796241,-14.125391],[-48.713171,-14.111076],[-48.653433,-14.147508],[-48.597803,-14.153606],[-48.546256,-14.129215],[-48.38425,-13.995631],[-48.342031,-13.921682],[-48.348439,-13.85471],[-48.325339,-13.827528],[-48.272733,-13.840137],[-48.215889,-13.820086],[-48.154755,-13.767376],[-48.116101,-13.690999],[-48.099978,-13.591056],[-48.122794,-13.516384],[-48.184573,-13.467136],[-48.198215,-13.32916],[-48.163773,-13.102559],[-48.180981,-12.896732],[-48.284334,-12.619281],[-48.238239,-12.511639],[-48.234802,-12.465544],[-48.258728,-12.445183],[-48.265705,-12.413454],[-48.255731,-12.370459],[-48.307149,-12.309326],[-48.419907,-12.230054],[-48.52419,-12.028878],[-48.646095,-11.636499],[-48.648084,-11.535781],[-48.597777,-11.466742],[-48.515534,-11.384111],[-48.488585,-11.257245],[-48.540778,-11.110278],[-48.525585,-10.978813],[-48.442903,-10.862747],[-48.41691,-10.731954],[-48.447502,-10.58633],[-48.454117,-10.429544],[-48.436805,-10.261647],[-48.404508,-10.139949],[-48.357327,-10.064502],[-48.344718,-10.001405],[-48.36668,-9.950762],[-48.36482,-9.90818],[-48.339085,-9.873661],[-48.346475,-9.79935],[-48.386989,-9.685248],[-48.397712,-9.552905],[-48.378695,-9.402372],[-48.306917,-9.190291],[-48.182376,-8.91682],[-48.127109,-8.722413],[-48.141087,-8.607071],[-48.134033,-8.521908],[-48.105973,-8.467028],[-48.112562,-8.369463],[-48.153825,-8.229161],[-48.16199,-8.141983],[-48.137005,-8.107877],[-48.086698,-8.084571],[-48.010992,-8.072013],[-47.962597,-8.00287],[-47.941435,-7.877038],[-47.861957,-7.779163],[-47.724084,-7.709245],[-47.646905,-7.626976],[-47.630446,-7.532408],[-47.58895,-7.459234],[-47.522391,-7.407351],[-47.495054,-7.356243],[-47.506888,-7.305807],[-47.5458,-7.287565],[-47.611817,-7.30157],[-47.668919,-7.279762],[-47.717159,-7.222195],[-47.715971,-7.184677],[-47.665328,-7.167211],[-47.605745,-7.114708],[-47.53717,-7.027219],[-47.470456,-6.796019],[-47.405576,-6.421106],[-47.39705,-6.072446],[-47.444825,-5.749985],[-47.485804,-5.561262],[-47.519936,-5.506382],[-47.612437,-5.455016],[-47.763255,-5.407163],[-47.853999,-5.350733],[-47.884591,-5.28562],[-47.953088,-5.256371],[-48.059438,-5.262986],[-48.168966,-5.240662],[-48.281621,-5.189399],[-48.378049,-5.169503],[-48.458148,-5.180872],[-48.52357,-5.220405],[-48.574316,-5.288152],[-48.63054,-5.330372],[-48.723144,-5.355383]],[[-49.687246,-3.834753],[-49.648979,-3.360983],[-49.660245,-3.091129],[-49.708304,-2.867422],[-49.716831,-2.735802],[-49.670425,-2.676477],[-49.634768,-2.652396]]]}}]}