{"type":"FeatureCollection","features":[{"type":"Feature","properties":{"sigla":"VEN","nome":"Caracas"},"geometry":{"type":"Point","coordinates":[-66.918983,10.502944]}},{"type":"Feature","properties":{"sigla":"URY","nome":"Montevidéu"},"geometry":{"type":"Point","coordinates":[-56.186823,-34.905376]}},{"type":"Feature","properties":{"sigla":"SUR","nome":"Paramaribo"},"geometry":{"type":"Point","coordinates":[-55.167031,5.83503]}},{"type":"Feature","properties":{"sigla":"PER","nome":"Lima"},"geometry":{"type":"Point","coordinates":[-77.052008,-12.046067]}},{"type":"Feature","properties":{"sigla":"PRY","nome":"Assunção"},"geometry":{"type":"Point","coordinates":[-57.625834,-25.290671]}},{"type":"Feature","properties":{"sigla":"GUY","nome":"Georgetown"},"geometry":{"type":"Point","coordinates":[-58.167029,6.801974]}},{"type":"Feature","properties":{"sigla":"ECU","nome":"Quito"},"geometry":{"type":"Point","coordinates":[-78.501997,-0.213042]}},{"type":"Feature","properties":{"sigla":"COL","nome":"Bogotá"},"geometry":{"type":"Point","coordinates":[-74.08529,4.598369]}},{"type":"Feature","properties":{"sigla":"CHL","nome":"Santiago"},"geometry":{"type":"Point","coordinates":[-70.650504,-33.440205]}},{"type":"Feature","properties":{"sigla":"BRA","nome":"Brasília"},"geometry":{"type":"Point","coordinates":[-47.917998,-15.781394]}},{"type":"Feature","properties":{"sigla":"BOL","nome":"La Paz"},"geometry":{"type":"Point","coordinates":[-68.151931,-16.496028]}},{"type":"Feature","properties":{"sigla":"ARG","nome":"Buenos Aires"},"geometry":{"type":"Point","coordinates":[-58.432513,-34.610715]}}]}