{"type":"FeatureCollection","features":[{"type":"Feature","properties":{"sigla":"BRA_0","nome":"São Paulo"},"geometry":{"type":"Point","coordinates":[-46.626966,-23.556734]}},{"type":"Feature","properties":{"sigla":"ARG_1","nome":"Buenos Aires"},"geometry":{"type":"Point","coordinates":[-58.432513,-34.610715]}},{"type":"Feature","properties":{"sigla":"BRA_2","nome":"Rio de Janeiro"},"geometry":{"type":"Point","coordinates":[-43.212117,-22.907308]}},{"type":"Feature","properties":{"sigla":"PER_3","nome":"Lima"},"geometry":{"type":"Point","coordinates":[-77.052008,-12.046067]}},{"type":"Feature","properties":{"sigla":"COL_4","nome":"Bogotá"},"geometry":{"type":"Point","coordinates":[-74.08529,4.598369]}},{"type":"Feature","properties":{"sigla":"CHL_5","nome":"Santiago"},"geometry":{"type":"Point","coordinates":[-70.650504,-33.440205]}},{"type":"Feature","properties":{"sigla":"BRA_6","nome":"Belo Horizonte"},"geometry":{"type":"Point","coordinates":[-43.91695,-19.91308]}},{"type":"Feature","properties":{"sigla":"BRA_7","nome":"Porto Alegre"},"geometry":{"type":"Point","coordinates":[-51.201958,-30.048069]}},{"type":"Feature","properties":{"sigla":"BRA_8","nome":"Brasília"},"geometry":{"type":"Point","coordinates":[-47.917998,-15.781394]}},{"type":"Feature","properties":{"sigla":"BRA_9","nome":"Recife"},"geometry":{"type":"Point","coordinates":[-34.908766,-8.060532]}},{"type":"Feature","properties":{"sigla":"BRA_10","nome":"Fortaleza"},"geometry":{"type":"Point","coordinates":[-38.581927,-3.748072]}},{"type":"Feature","properties":{"sigla":"BRA_11","nome":"Salvador"},"geometry":{"type":"Point","coordinates":[-38.481933,-12.968026]}}]}