{"type":"FeatureCollection","features":[{"type":"Feature","properties":{"sigla":"VEN","nome":"Venezuela"},"geometry":{"type":"MultiPolygon","coordinates":[[[[-60.821191,9.138379],[-60.941406,9.105566],[-60.907275,9.178711],[-60.781592,9.218359],[-60.73584,9.20332],[-60.821191,9.138379]]],[[[-63.849365,11.131006],[-63.917627,10.887549],[-64.402344,10.981592],[-63.849365,11.131006]]],[[[-65.2125,10.906445],[-65.266406,10.883984],[-65.414648,10.937891],[-65.383203,10.973828],[-65.302344,10.973828],[-65.2125,10.906445]]],[[[-60.9979,8.867334],[-61.059961,8.847021],[-61.069189,8.947314],[-60.91582,9.070312],[-60.84917,8.995703],[-60.861426,8.949609],[-60.9979,8.867334]]],[[[-60.017529,8.549316],[-59.849072,8.248682],[-60.718652,7.535937],[-60.633301,7.211084],[-60.345068,7.15],[-60.3521,7.002881],[-61.145605,6.694531],[-61.128711,6.214307],[-61.39082,5.93877],[-60.671973,5.164355],[-60.627588,4.892529],[-61.554248,4.287793],[-62.712109,4.01792],[-62.856982,3.593457],[-63.338672,3.943896],[-64.021484,3.929102],[-64.19248,4.126855],[-64.788672,4.276025],[-64.221094,3.587402],[-64.046582,2.502393],[-63.389258,2.411914],[-63.393945,2.22251],[-64.008496,1.931592],[-64.205029,1.529492],[-65.026562,1.158447],[-65.556055,0.687988],[-65.644678,0.970361],[-66.30166,0.751953],[-66.876025,1.223047],[-67.21084,2.390137],[-67.618701,2.793604],[-67.859082,2.793604],[-67.311133,3.415869],[-67.661621,3.864258],[-67.855273,4.506885],[-67.824902,5.270459],[-67.481982,6.180273],[-67.85918,6.289893],[-69.427148,6.123975],[-70.129199,6.953613],[-70.737158,7.090039],[-72.006641,7.032617],[-72.471973,7.524268],[-72.390332,8.287061],[-72.796387,9.108984],[-73.058398,9.25957],[-73.366211,9.194141],[-73.006543,9.78916],[-72.690088,10.83584],[-71.958105,11.666406],[-71.319727,11.861914],[-71.956934,11.569922],[-71.594336,10.657373],[-72.112842,9.815576],[-71.686719,9.07251],[-71.241406,9.160449],[-71.052686,9.705811],[-71.494238,10.533203],[-71.469531,10.96416],[-70.097119,11.519775],[-69.804785,11.474219],[-69.817334,11.67207],[-70.192578,11.624609],[-70.286523,11.886035],[-70.003955,12.177881],[-69.631592,11.479932],[-68.827979,11.431738],[-68.398633,11.160986],[-68.139941,10.492725],[-66.247217,10.632227],[-65.851758,10.257764],[-65.129102,10.070068],[-63.731885,10.503418],[-64.298193,10.635156],[-61.879492,10.741016],[-62.913574,10.531494],[-62.68584,10.289795],[-62.740576,10.056152],[-62.550342,10.200439],[-62.32041,9.783057],[-62.0771,9.975049],[-61.735937,9.631201],[-61.765918,9.813818],[-61.588867,9.894531],[-60.79248,9.360742],[-61.247266,8.600342],[-61.618701,8.597461],[-61.304004,8.4104],[-60.800977,8.592139],[-60.017529,8.549316]]]]}},{"type":"Feature","properties":{"sigla":"URY","nome":"Uruguai"},"geometry":{"type":"Polygon","coordinates":[[[-53.370605,-33.742188],[-53.785303,-34.380371],[-54.902295,-34.932813],[-55.673145,-34.775684],[-56.249951,-34.90127],[-57.170703,-34.452344],[-57.873242,-34.447656],[-58.438135,-33.719141],[-58.363525,-33.182324],[-58.092676,-32.967383],[-58.189014,-31.924219],[-57.988867,-31.620605],[-57.87251,-30.591016],[-57.645752,-30.226953],[-57.214453,-30.283398],[-56.832715,-30.107227],[-56.044824,-30.777637],[-56.004687,-31.079199],[-55.603027,-30.850781],[-55.173535,-31.27959],[-54.587646,-31.485156],[-53.761719,-32.056836],[-53.601709,-32.403027],[-53.125586,-32.736719],[-53.531348,-33.170898],[-53.531348,-33.655469],[-53.370605,-33.742188]]]}},{"type":"Feature","properties":{"sigla":"SUR","nome":"Suriname"},"geometry":{"type":"Polygon","coordinates":[[[-54.155957,5.358984],[-54.452197,5.013477],[-54.449609,4.48501],[-54.350732,4.054102],[-53.990479,3.589551],[-54.402002,2.461523],[-54.661865,2.327539],[-54.978662,2.597656],[-55.730566,2.406152],[-55.957471,2.520459],[-56.137695,2.259033],[-55.915332,2.039551],[-55.96333,1.85708],[-56.704346,2.036475],[-57.197363,2.853271],[-57.303662,3.3771],[-57.646729,3.394531],[-58.032227,4.001953],[-57.881104,4.880615],[-57.305762,5.049561],[-57.207324,5.214209],[-57.318555,5.335352],[-56.969824,5.992871],[-55.897607,5.699316],[-55.828174,5.96167],[-54.356152,5.909863],[-54.054199,5.80791],[-54.155957,5.358984]]]}},{"type":"Feature","properties":{"sigla":"PER","nome":"Peru"},"geometry":{"type":"Polygon","coordinates":[[[-69.965918,-4.235938],[-70.05332,-4.333105],[-70.404639,-4.150098],[-70.799512,-4.17334],[-70.973682,-4.350488],[-71.844727,-4.504395],[-72.887061,-5.122754],[-73.235547,-6.098438],[-73.137354,-6.46582],[-73.758105,-6.905762],[-73.72041,-7.309277],[-73.964307,-7.378906],[-74.002051,-7.556055],[-72.974023,-8.993164],[-73.209424,-9.411426],[-72.379053,-9.510156],[-72.181592,-10.003711],[-71.237939,-9.966016],[-70.541113,-9.4375],[-70.642334,-11.010254],[-69.578613,-10.951758],[-68.685254,-12.501953],[-68.978613,-12.880078],[-69.074121,-13.682813],[-68.870898,-14.169727],[-69.359473,-14.795313],[-69.172461,-15.236621],[-69.420898,-15.640625],[-69.217578,-16.149121],[-68.842773,-16.337891],[-69.624854,-17.200195],[-69.510937,-17.506055],[-69.8521,-17.703809],[-69.926367,-18.206055],[-70.418262,-18.345605],[-71.336963,-17.68252],[-71.532227,-17.294336],[-75.104248,-15.411914],[-75.933887,-14.633594],[-76.376465,-13.863086],[-76.223633,-13.371191],[-77.152734,-12.060352],[-77.220312,-11.663379],[-77.633203,-11.287793],[-78.762256,-8.616992],[-79.994971,-6.768945],[-81.142041,-6.056738],[-81.164307,-5.875293],[-80.930664,-5.84082],[-80.881934,-5.635059],[-81.336621,-4.669531],[-81.232031,-4.234277],[-80.324658,-3.387891],[-80.179248,-3.877734],[-80.490137,-4.010059],[-80.352881,-4.208496],[-80.478564,-4.430078],[-80.139551,-4.296094],[-79.638525,-4.454883],[-79.330957,-4.927832],[-79.033301,-4.969141],[-78.686035,-4.562402],[-78.345361,-3.397363],[-78.158496,-3.465137],[-77.860596,-2.981641],[-76.679102,-2.562598],[-75.570557,-1.53125],[-75.408057,-0.924316],[-75.249609,-0.951855],[-75.259375,-0.590137],[-75.62627,-0.122852],[-75.224609,-0.041748],[-74.616357,-0.37002],[-74.246387,-0.970605],[-73.664307,-1.248828],[-73.496289,-1.693066],[-73.196973,-1.830273],[-73.154492,-2.278223],[-72.941113,-2.394043],[-72.218457,-2.400488],[-71.752539,-2.152734],[-71.396973,-2.334082],[-70.968555,-2.206836],[-70.09585,-2.658203],[-70.735107,-3.781543],[-70.339502,-3.814355],[-69.965918,-4.235938]]]}},{"type":"Feature","properties":{"sigla":"PRY","nome":"Paraguai"},"geometry":{"type":"Polygon","coordinates":[[[-58.159766,-20.164648],[-57.830225,-20.997949],[-57.955908,-22.10918],[-56.937256,-22.271289],[-56.447803,-22.076172],[-56.246045,-22.264648],[-55.84917,-22.307617],[-55.617676,-22.671484],[-55.415918,-23.951367],[-55.194336,-24.01748],[-54.625488,-23.8125],[-54.241797,-24.047266],[-54.755078,-26.53291],[-55.135937,-26.931152],[-55.42666,-27.009277],[-55.714648,-27.414844],[-56.164062,-27.321484],[-56.437158,-27.553809],[-58.604834,-27.314355],[-58.618604,-27.132129],[-58.191309,-26.62998],[-58.111133,-26.180176],[-57.57168,-25.53418],[-57.643896,-25.328418],[-59.89248,-24.093555],[-61.03291,-23.755664],[-61.798535,-23.182031],[-62.650977,-22.233691],[-62.27666,-21.066016],[-62.276318,-20.5625],[-61.756836,-19.645313],[-60.007373,-19.297559],[-59.090527,-19.28623],[-58.180176,-19.817871],[-58.159766,-20.164648]]]}},{"type":"Feature","properties":{"sigla":"GUY","nome":"Guiana"},"geometry":{"type":"Polygon","coordinates":[[[-60.742139,5.202051],[-61.39082,5.93877],[-61.128711,6.214307],[-61.145605,6.694531],[-60.3521,7.002881],[-60.345068,7.15],[-60.633301,7.211084],[-60.718652,7.535937],[-59.849072,8.248682],[-60.017529,8.549316],[-59.200244,8.074609],[-58.477295,7.325781],[-58.672949,6.390771],[-58.298437,6.879297],[-57.982568,6.785889],[-57.190234,6.097314],[-57.318555,5.335352],[-57.209814,5.19541],[-57.331006,5.020166],[-57.881104,4.880615],[-58.054297,4.10166],[-57.646729,3.394531],[-57.303662,3.3771],[-57.197363,2.853271],[-56.704346,2.036475],[-56.482812,1.942139],[-57.31748,1.963477],[-58.034668,1.520264],[-58.340674,1.587549],[-58.511865,1.284668],[-58.821777,1.201221],[-59.231201,1.376025],[-59.666602,1.746289],[-59.994336,2.68999],[-59.854395,3.5875],[-59.551123,3.933545],[-59.703271,4.381104],[-60.148633,4.533252],[-59.990674,5.082861],[-60.142041,5.238818],[-60.742139,5.202051]]]}},{"type":"Feature","properties":{"sigla":"ECU","nome":"Equador"},"geometry":{"type":"MultiPolygon","coordinates":[[[[-75.284473,-0.106543],[-75.62627,-0.122852],[-75.259375,-0.590137],[-75.249609,-0.951855],[-75.408057,-0.924316],[-75.570557,-1.53125],[-76.679102,-2.562598],[-77.860596,-2.981641],[-78.158496,-3.465137],[-78.345361,-3.397363],[-78.686035,-4.562402],[-79.033301,-4.969141],[-79.330957,-4.927832],[-79.638525,-4.454883],[-80.139551,-4.296094],[-80.478564,-4.430078],[-80.352881,-4.208496],[-80.490137,-4.010059],[-80.179248,-3.877734],[-80.324658,-3.387891],[-79.96333,-3.157715],[-79.729883,-2.579102],[-79.842139,-2.067383],[-79.925586,-2.548535],[-80.006641,-2.353809],[-80.284717,-2.706738],[-80.932178,-2.269141],[-80.760596,-1.93457],[-80.902393,-1.078906],[-80.553906,-0.847949],[-80.455469,-0.585449],[-80.282373,-0.620508],[-80.482275,-0.368262],[-80.046143,0.155371],[-80.035937,0.83457],[-78.899658,1.20625],[-78.859668,1.455371],[-78.180664,0.968555],[-77.702881,0.837842],[-77.396338,0.393896],[-76.494629,0.235449],[-76.270605,0.439404],[-75.284473,-0.106543]]],[[[-80.131592,-2.973145],[-80.272949,-2.995898],[-80.223682,-2.753125],[-79.909033,-2.725586],[-80.131592,-2.973145]]],[[[-78.909229,1.252783],[-78.965625,1.245361],[-78.991699,1.293213],[-78.899805,1.359766],[-78.909229,1.252783]]],[[[-90.334863,-0.771582],[-90.531689,-0.581445],[-90.269385,-0.484668],[-90.192725,-0.658789],[-90.334863,-0.771582]]],[[[-89.418896,-0.911035],[-89.608594,-0.888574],[-89.287842,-0.689844],[-89.418896,-0.911035]]],[[[-91.425977,-0.46084],[-91.610742,-0.443945],[-91.64668,-0.284473],[-91.460156,-0.255664],[-91.425977,-0.46084]]],[[[-90.423926,-1.339941],[-90.519531,-1.299121],[-90.477197,-1.220996],[-90.37915,-1.292285],[-90.423926,-1.339941]]],[[[-91.272168,0.025146],[-90.799658,-0.752051],[-91.131055,-1.019629],[-91.49541,-0.860938],[-91.120947,-0.559082],[-91.428857,-0.023389],[-91.596826,0.0021],[-91.361377,0.12583],[-91.272168,0.025146]]],[[[-90.573926,-0.333984],[-90.867773,-0.271387],[-90.780371,-0.160449],[-90.573926,-0.333984]]]]}},{"type":"Feature","properties":{"sigla":"COL","nome":"Col\u00f4mbia"},"geometry":{"type":"MultiPolygon","coordinates":[[[[-71.319727,11.861914],[-71.958105,11.666406],[-72.690088,10.83584],[-73.006543,9.78916],[-73.366211,9.194141],[-73.058398,9.25957],[-72.796387,9.108984],[-72.390332,8.287061],[-72.471973,7.524268],[-72.006641,7.032617],[-70.737158,7.090039],[-70.129199,6.953613],[-69.427148,6.123975],[-67.85918,6.289893],[-67.481982,6.180273],[-67.824902,5.270459],[-67.855273,4.506885],[-67.661621,3.864258],[-67.311133,3.415869],[-67.859082,2.793604],[-67.618701,2.793604],[-67.21084,2.390137],[-66.884473,1.358252],[-66.876025,1.223047],[-67.082275,1.1854],[-67.119238,1.703613],[-67.400439,2.116699],[-67.93623,1.748486],[-68.193799,1.987012],[-68.176562,1.719824],[-69.848584,1.70874],[-69.852148,1.059521],[-69.311816,1.050488],[-69.15332,0.658789],[-70.053906,0.578613],[-70.070508,-0.138867],[-69.633984,-0.509277],[-69.400244,-1.194922],[-69.965918,-4.235938],[-70.339502,-3.814355],[-70.735107,-3.781543],[-70.09585,-2.658203],[-70.968555,-2.206836],[-71.396973,-2.334082],[-71.752539,-2.152734],[-72.218457,-2.400488],[-72.941113,-2.394043],[-73.154492,-2.278223],[-73.196973,-1.830273],[-73.496289,-1.693066],[-73.664307,-1.248828],[-74.246387,-0.970605],[-74.801758,-0.200098],[-75.77666,0.089258],[-76.270605,0.439404],[-76.494629,0.235449],[-77.396338,0.393896],[-77.702881,0.837842],[-78.312109,1.046094],[-79.025439,1.623682],[-78.792969,1.84873],[-78.576904,1.773779],[-78.591699,2.356641],[-77.813574,2.716357],[-77.076807,3.913281],[-77.263525,3.893213],[-77.278027,4.058496],[-77.358203,3.944727],[-77.40874,4.247754],[-77.520703,4.212793],[-77.286328,4.721729],[-77.534424,5.537109],[-77.249268,5.780176],[-77.469434,6.176758],[-77.368799,6.575586],[-77.901172,7.229346],[-77.761914,7.698828],[-77.538281,7.56626],[-77.195996,7.972461],[-77.478516,8.498437],[-77.393066,8.644678],[-76.786572,7.931592],[-76.920459,8.57373],[-76.276855,8.989111],[-76.027246,9.365771],[-75.639355,9.450439],[-75.538574,10.205176],[-75.70835,10.143408],[-75.445996,10.610889],[-74.84458,11.109717],[-74.330225,10.99668],[-74.51626,10.8625],[-74.400879,10.765234],[-74.14292,11.32085],[-73.313379,11.295752],[-72.275,11.889258],[-72.135742,12.188574],[-71.714551,12.419971],[-71.262109,12.335303],[-71.137305,12.046338],[-71.319727,11.861914]]],[[[-78.113721,2.541748],[-78.14082,2.519678],[-78.19248,2.559277],[-78.210107,2.60918],[-78.178418,2.646338],[-78.137646,2.63418],[-78.113721,2.541748]]]]}},{"type":"Feature","properties":{"sigla":"CHL","nome":"Chile"},"geometry":{"type":"MultiPolygon","coordinates":[[[[-109.27998,-27.14043],[-109.434131,-27.171289],[-109.390479,-27.068359],[-109.222852,-27.101074],[-109.27998,-27.14043]]],[[[-78.80415,-33.646484],[-78.989453,-33.661719],[-78.877441,-33.575195],[-78.768945,-33.627344],[-78.80415,-33.646484]]],[[[-70.418262,-18.345605],[-69.926367,-18.206055],[-69.8521,-17.703809],[-69.510937,-17.506055],[-69.313379,-17.943164],[-69.093945,-18.050488],[-68.968311,-18.967969],[-68.462891,-19.432813],[-68.698291,-19.721094],[-68.560693,-19.96709],[-68.755811,-20.09082],[-68.760547,-20.416211],[-68.484326,-20.628418],[-68.558252,-20.901953],[-68.197021,-21.300293],[-67.879443,-22.822949],[-67.194873,-22.82168],[-67.008789,-23.001367],[-67.356201,-24.033789],[-68.250293,-24.391992],[-68.562012,-24.747363],[-68.384229,-25.091895],[-68.59209,-25.42002],[-68.414502,-26.153711],[-68.591602,-26.47041],[-68.318652,-26.973242],[-68.846338,-27.153711],[-69.174414,-27.924707],[-69.656934,-28.413574],[-69.827881,-29.103223],[-70.026807,-29.324023],[-69.844287,-30.175],[-70.153223,-30.360938],[-70.309082,-31.022656],[-70.51958,-31.148438],[-70.585205,-31.569434],[-70.254395,-31.957715],[-70.36377,-32.083496],[-70.021973,-32.88457],[-70.084863,-33.201758],[-69.819629,-33.283789],[-69.852441,-34.224316],[-70.052051,-34.300781],[-70.555176,-35.246875],[-70.404785,-36.061719],[-71.055518,-36.52373],[-71.192187,-36.843652],[-71.167578,-37.762305],[-70.847656,-38.541602],[-70.951611,-38.738477],[-71.401562,-38.935059],[-71.539453,-39.602441],[-71.719922,-39.635254],[-71.659766,-40.020801],[-71.818311,-40.17666],[-71.695312,-40.335254],[-71.941357,-40.78916],[-71.75,-42.046777],[-72.108203,-42.251855],[-72.143701,-42.577148],[-72.102393,-43.065625],[-71.750635,-43.237305],[-71.90498,-43.347559],[-71.680078,-43.92959],[-71.82002,-44.383105],[-71.212598,-44.441211],[-71.159717,-44.560254],[-71.261133,-44.763086],[-72.063721,-44.771875],[-71.35376,-45.230469],[-71.508105,-45.512695],[-71.746191,-45.578906],[-71.631543,-45.953711],[-71.875684,-46.160547],[-71.699658,-46.651367],[-71.940234,-46.83125],[-71.90498,-47.20166],[-72.345947,-47.492676],[-72.51792,-47.876367],[-72.293018,-48.229102],[-72.608398,-48.519336],[-72.614404,-48.792871],[-73.033643,-49.014355],[-73.135254,-49.300684],[-73.461572,-49.313867],[-73.57627,-49.58291],[-73.50127,-50.125293],[-73.15293,-50.738281],[-72.340234,-50.681836],[-72.407666,-51.54082],[-71.971094,-51.96416],[-69.960254,-52.008203],[-68.460986,-52.29043],[-69.241016,-52.205469],[-69.620312,-52.464746],[-70.795117,-52.76875],[-70.99585,-53.779297],[-71.297754,-53.883398],[-72.174414,-53.632324],[-72.412891,-53.350195],[-71.941699,-53.234082],[-71.891699,-53.523535],[-71.791455,-53.48457],[-71.740527,-53.232617],[-71.288965,-53.033691],[-71.227148,-52.810645],[-72.278027,-53.132324],[-72.548926,-53.460742],[-73.052734,-53.243457],[-72.727686,-52.762305],[-71.511279,-52.605371],[-72.712109,-52.535547],[-73.122461,-53.073926],[-73.645215,-52.837012],[-73.24082,-52.707129],[-73.123926,-52.487988],[-73.585693,-52.685742],[-74.014453,-52.639355],[-74.295654,-52.117871],[-73.834473,-52.233984],[-73.684326,-52.077734],[-73.260449,-52.157813],[-72.79502,-51.949512],[-72.57085,-52.200098],[-72.714014,-52.356738],[-72.52334,-52.255469],[-72.542529,-51.706152],[-73.16875,-51.453906],[-72.600049,-51.799121],[-73.518164,-52.041016],[-73.752637,-51.795508],[-74.19668,-51.680566],[-73.929785,-51.617871],[-73.939502,-51.266309],[-74.814746,-51.062891],[-75.094678,-50.68125],[-74.685742,-50.662012],[-74.775879,-50.469922],[-74.644482,-50.360938],[-73.806543,-50.938379],[-73.654443,-50.492676],[-73.978027,-50.827051],[-74.197217,-50.609766],[-74.185596,-50.485352],[-73.950342,-50.510547],[-74.62959,-50.194043],[-74.33374,-49.974609],[-73.958594,-49.994727],[-74.323926,-49.783398],[-74.29082,-49.604102],[-73.836377,-49.609375],[-74.094434,-49.429688],[-73.934961,-49.020898],[-74.221289,-49.500586],[-74.366553,-49.400488],[-74.341016,-48.595703],[-74.009082,-48.475],[-74.474414,-48.463965],[-74.584668,-47.999023],[-73.391064,-48.145898],[-73.715869,-47.655469],[-73.940869,-47.929395],[-74.227051,-47.968945],[-74.654932,-47.702246],[-74.533789,-47.567676],[-74.134082,-47.59082],[-74.482666,-47.430469],[-74.158398,-47.18252],[-74.313574,-46.788184],[-74.512256,-46.885156],[-75.005957,-46.741113],[-74.98418,-46.512109],[-75.540332,-46.69873],[-75.430371,-46.93457],[-75.706396,-46.705273],[-74.924463,-46.159668],[-75.066699,-45.874902],[-74.157861,-45.767188],[-74.122705,-45.496191],[-73.957178,-45.404395],[-73.825,-45.446875],[-74.019922,-46.055859],[-74.392969,-46.217383],[-73.967578,-46.154102],[-73.735254,-45.811719],[-73.948633,-46.533105],[-73.845361,-46.566016],[-73.591846,-45.899121],[-73.730762,-45.47998],[-73.266211,-45.346191],[-72.933838,-45.452344],[-73.444971,-45.238184],[-73.404883,-45.102344],[-72.680078,-44.593945],[-72.663867,-44.436426],[-73.265088,-44.168652],[-72.996582,-43.631543],[-73.075977,-43.323633],[-72.758008,-43.039453],[-72.848047,-42.669141],[-72.631836,-42.509668],[-72.773242,-42.257715],[-72.631055,-42.199805],[-72.412354,-42.388184],[-72.499414,-41.980859],[-72.824072,-41.908789],[-72.318262,-41.499023],[-72.542383,-41.690625],[-72.952832,-41.514746],[-73.241797,-41.780859],[-73.735156,-41.74248],[-73.623926,-41.581348],[-73.855029,-41.446387],[-73.983594,-40.974316],[-73.670996,-39.963184],[-73.4104,-39.78916],[-73.226465,-39.224414],[-73.520215,-38.509375],[-73.464795,-38.040332],[-73.662402,-37.341016],[-73.60166,-37.188477],[-73.215967,-37.166895],[-72.623926,-35.585742],[-72.223779,-35.096191],[-72.002832,-34.165332],[-71.664355,-33.652637],[-71.742969,-33.095117],[-71.452246,-32.65957],[-71.708936,-30.628027],[-71.669482,-30.330371],[-71.400391,-30.142969],[-71.315723,-29.649707],[-71.519238,-28.926465],[-71.186426,-28.377832],[-70.646582,-26.329395],[-70.713721,-25.78418],[-70.452197,-25.251855],[-70.574121,-24.644336],[-70.392334,-23.565918],[-70.593359,-23.255469],[-70.331689,-22.848633],[-70.087549,-21.493066],[-70.157422,-19.705859],[-70.418262,-18.345605]]],[[[-68.629932,-52.652637],[-68.653223,-54.853613],[-71.901562,-54.601562],[-71.800146,-54.433984],[-70.797266,-54.327246],[-70.701123,-54.485449],[-70.310986,-54.528516],[-70.863086,-54.110449],[-70.867725,-53.88418],[-70.531299,-53.627344],[-70.379736,-53.986719],[-70.629834,-54.005566],[-70.535303,-54.136133],[-70.168994,-54.379297],[-69.741846,-54.305859],[-69.253174,-54.557422],[-69.044336,-54.406738],[-69.988135,-54.109082],[-70.151123,-53.888086],[-70.091113,-53.721777],[-69.355957,-53.416309],[-70.329297,-53.377637],[-70.443359,-53.085547],[-70.130615,-52.942773],[-70.380127,-52.751953],[-69.935449,-52.821094],[-69.414062,-52.48623],[-69.167041,-52.667578],[-68.629932,-52.652637]]],[[[-67.079932,-55.153809],[-67.339697,-55.292578],[-68.07002,-55.221094],[-68.301367,-54.980664],[-67.245264,-54.977637],[-67.079932,-55.153809]]],[[[-73.773389,-43.345898],[-74.387354,-43.231641],[-74.03667,-41.795508],[-73.527832,-41.896289],[-73.4229,-42.192871],[-73.470801,-42.466309],[-73.789258,-42.585742],[-73.436328,-42.936523],[-73.749658,-43.159082],[-73.773389,-43.345898]]],[[[-74.476172,-49.147852],[-74.594727,-50.006641],[-74.762988,-50.011426],[-74.88042,-49.725879],[-74.723828,-49.423828],[-74.960107,-49.533008],[-75.066016,-49.852344],[-75.549805,-49.791309],[-75.305859,-49.494043],[-75.46748,-49.358887],[-75.086035,-49.270215],[-75.210156,-49.148047],[-74.89624,-48.733203],[-74.546094,-48.766895],[-74.476172,-49.147852]]],[[[-75.510254,-48.763477],[-75.650928,-48.586328],[-75.560693,-48.070898],[-75.391406,-48.019727],[-75.158496,-48.622656],[-75.510254,-48.763477]]],[[[-74.385742,-52.922363],[-73.135205,-53.353906],[-74.270215,-53.081543],[-74.712012,-52.74873],[-74.385742,-52.922363]]],[[[-74.567285,-48.591992],[-74.923047,-48.626465],[-75.247266,-48.026758],[-74.827441,-47.850391],[-74.567285,-48.591992]]],[[[-72.923242,-53.481641],[-72.20542,-53.807422],[-72.870996,-54.126563],[-72.958594,-54.065918],[-72.76377,-53.864844],[-73.039453,-53.832813],[-73.210645,-53.98584],[-73.314355,-53.729199],[-73.845459,-53.545801],[-73.44707,-53.410059],[-72.923242,-53.481641]]],[[[-74.822949,-51.630176],[-74.536816,-51.965137],[-74.694482,-52.279199],[-74.851807,-52.270703],[-75.105371,-51.788867],[-74.822949,-51.630176]]],[[[-69.702979,-54.919043],[-68.458008,-54.959668],[-68.613281,-55.155566],[-68.282666,-55.255176],[-68.04834,-55.643164],[-68.867041,-55.450195],[-68.890088,-55.241211],[-69.192627,-55.171875],[-69.359229,-55.300684],[-69.180859,-55.474805],[-69.411816,-55.444238],[-69.979785,-55.147461],[-69.884424,-54.882031],[-69.702979,-54.919043]]],[[[-71.390479,-54.032813],[-71.021924,-54.111816],[-71.143262,-54.374023],[-71.473291,-54.231152],[-71.948535,-54.300879],[-72.210449,-54.047754],[-71.996484,-53.884863],[-71.390479,-54.032813]]],[[[-73.735352,-44.394531],[-74.002051,-44.590918],[-73.7521,-45.266797],[-74.099072,-45.325391],[-74.617773,-44.647949],[-74.501807,-44.473535],[-74.097217,-44.389355],[-73.994922,-44.140234],[-73.703223,-44.274121],[-73.735352,-44.394531]]],[[[-72.986133,-44.780078],[-73.39707,-44.774316],[-73.26001,-44.350293],[-72.776367,-44.508594],[-72.986133,-44.780078]]],[[[-75.04248,-44.890137],[-75.09873,-44.901758],[-75.142139,-44.815625],[-75.079492,-44.795117],[-75.04248,-44.890137]]],[[[-75.302002,-50.67998],[-75.438525,-50.741113],[-75.427637,-50.480566],[-75.115332,-50.510449],[-75.302002,-50.67998]]],[[[-75.106689,-48.836523],[-75.389941,-49.15918],[-75.641162,-49.19541],[-75.487646,-49.082422],[-75.583105,-48.858887],[-75.106689,-48.836523]]],[[[-75.112207,-47.837695],[-75.261035,-47.763867],[-74.926465,-47.723145],[-75.112207,-47.837695]]],[[[-74.66875,-43.607812],[-74.810449,-43.625391],[-74.841992,-43.570312],[-74.74502,-43.535938],[-74.697461,-43.553027],[-74.66875,-43.607812]]],[[[-73.632178,-44.821484],[-73.69458,-44.831152],[-73.818457,-44.652148],[-73.779492,-44.55918],[-73.686475,-44.546289],[-73.641211,-44.61084],[-73.632178,-44.821484]]],[[[-74.558643,-51.277051],[-74.620361,-51.395703],[-75.047363,-51.39834],[-75.289111,-51.625391],[-75.153662,-51.278809],[-74.558643,-51.277051]]],[[[-75.054785,-50.296094],[-75.449121,-50.343359],[-75.32666,-50.011816],[-74.875977,-50.109961],[-75.054785,-50.296094]]],[[[-73.810645,-43.827246],[-73.789648,-43.876465],[-73.90415,-43.875391],[-73.955664,-43.921973],[-74.142969,-43.872168],[-74.139941,-43.820996],[-73.856934,-43.783789],[-73.810645,-43.827246]]],[[[-74.142187,-51.931055],[-74.338672,-51.897949],[-74.423633,-51.845117],[-74.475391,-51.725684],[-74.362109,-51.750684],[-74.133398,-51.870898],[-74.11543,-51.888477],[-74.142187,-51.931055]]],[[[-74.312891,-45.691504],[-74.689844,-45.662598],[-74.310547,-45.172656],[-74.312891,-45.691504]]],[[[-67.575195,-55.889648],[-67.849707,-55.842578],[-67.762061,-55.816113],[-67.517285,-55.832813],[-67.575195,-55.889648]]],[[[-66.472119,-55.229102],[-66.551709,-55.272852],[-66.611133,-55.269922],[-66.636621,-55.234375],[-66.523145,-55.165527],[-66.435791,-55.189746],[-66.472119,-55.229102]]],[[[-70.991602,-54.867969],[-70.417529,-54.908887],[-70.297852,-55.11377],[-71.388574,-54.934277],[-70.991602,-54.867969]]],[[[-67.288867,-55.776855],[-67.563477,-55.707813],[-67.374072,-55.589355],[-67.288867,-55.776855]]]]}},{"type":"Feature","properties":{"sigla":"BRA","nome":"Brasil"},"geometry":{"type":"MultiPolygon","coordinates":[[[[-66.876025,1.223047],[-66.347119,0.767187],[-65.681445,0.983447],[-65.473389,0.69126],[-65.10376,1.108105],[-64.205029,1.529492],[-64.008496,1.931592],[-63.43252,2.155566],[-63.389258,2.411914],[-64.046582,2.502393],[-64.221094,3.587402],[-64.788672,4.276025],[-64.19248,4.126855],[-64.021484,3.929102],[-63.338672,3.943896],[-62.856982,3.593457],[-62.712109,4.01792],[-61.002832,4.535254],[-60.627588,4.892529],[-60.651367,5.221143],[-60.142041,5.238818],[-59.990674,5.082861],[-60.148633,4.533252],[-59.703271,4.381104],[-59.551123,3.933545],[-59.854395,3.5875],[-59.994336,2.68999],[-59.666602,1.746289],[-58.8625,1.203613],[-58.511865,1.284668],[-58.340674,1.587549],[-58.034668,1.520264],[-57.118896,2.013965],[-55.96333,1.85708],[-55.915332,2.039551],[-56.137695,2.259033],[-55.957471,2.520459],[-55.730566,2.406152],[-54.978662,2.597656],[-54.130078,2.121045],[-53.767773,2.354834],[-52.964844,2.183545],[-52.653174,2.425732],[-52.327881,3.181738],[-51.461523,4.31377],[-51.219922,4.093604],[-50.714404,2.134033],[-50.458887,1.82959],[-49.957129,1.659863],[-49.898877,1.162988],[-50.755078,0.222559],[-51.28291,-0.085205],[-51.980811,-1.367969],[-52.66416,-1.551758],[-51.947559,-1.586719],[-50.894922,-0.937598],[-50.690039,-1.761719],[-50.403223,-2.015527],[-49.313672,-1.731738],[-49.636523,-2.656934],[-49.211035,-1.916504],[-48.71001,-1.487695],[-48.462939,-1.613965],[-48.349805,-1.482129],[-48.449805,-1.145508],[-48.115088,-0.7375],[-47.418652,-0.765918],[-47.439063,-0.647656],[-47.268604,-0.64541],[-45.458594,-1.35625],[-45.32915,-1.717285],[-45.076367,-1.466406],[-44.778516,-1.798828],[-44.65127,-1.745801],[-44.537793,-2.052734],[-44.756348,-2.265527],[-44.662402,-2.373242],[-44.435449,-2.168066],[-44.381836,-2.365527],[-44.589014,-2.573438],[-44.723047,-3.204785],[-44.228613,-2.471289],[-44.105566,-2.493457],[-44.192676,-2.80957],[-43.380078,-2.376074],[-41.479932,-2.916504],[-39.964697,-2.861523],[-38.475781,-3.71748],[-37.174658,-4.912402],[-36.590723,-5.097559],[-35.549414,-5.129395],[-35.235449,-5.566699],[-34.805469,-7.288379],[-34.96665,-8.407617],[-35.59707,-9.540625],[-35.89082,-9.687012],[-36.39834,-10.484082],[-36.937793,-10.82041],[-37.356006,-11.403906],[-37.359229,-11.252539],[-37.688721,-12.1],[-38.239746,-12.844238],[-38.498926,-12.956641],[-38.690967,-12.623926],[-38.851758,-12.790137],[-38.763721,-12.907227],[-39.089355,-13.588184],[-39.048145,-14.043945],[-38.942334,-14.030664],[-39.05957,-14.654785],[-38.880615,-15.864258],[-39.202881,-17.178125],[-39.154004,-17.703906],[-39.650781,-18.252344],[-39.783301,-19.571777],[-40.954541,-21.237891],[-41.000293,-21.999023],[-41.705518,-22.309668],[-41.98042,-22.580664],[-42.042383,-22.94707],[-42.958301,-22.96709],[-43.154297,-22.725195],[-43.22417,-22.991211],[-43.898828,-23.101465],[-43.675977,-23.009473],[-43.866162,-22.910547],[-44.637256,-23.055469],[-44.569678,-23.274023],[-45.325391,-23.599707],[-45.464307,-23.802539],[-45.97207,-23.795508],[-46.867285,-24.236328],[-47.98916,-25.035742],[-47.929395,-25.168262],[-48.202734,-25.416504],[-48.40249,-25.27207],[-48.476123,-25.442969],[-48.731738,-25.36875],[-48.401172,-25.597363],[-48.665771,-25.844336],[-48.619434,-26.179395],[-48.748291,-26.268652],[-48.55415,-27.195996],[-48.799658,-28.575293],[-49.745996,-29.363184],[-50.921387,-31.258398],[-52.039209,-32.114844],[-52.063232,-31.830371],[-51.680664,-31.774609],[-51.272168,-31.476953],[-51.161426,-31.118848],[-50.980078,-31.094238],[-50.689307,-30.704199],[-50.716309,-30.425977],[-50.581934,-30.438867],[-50.563525,-30.253613],[-51.024951,-30.368652],[-51.298047,-30.034863],[-51.157275,-30.364258],[-51.283057,-30.751563],[-51.359082,-30.674512],[-51.506299,-31.104492],[-51.972461,-31.383789],[-52.193555,-31.885547],[-52.127393,-32.167773],[-52.652246,-33.137793],[-53.370605,-33.742188],[-53.531348,-33.655469],[-53.531348,-33.170898],[-53.125586,-32.736719],[-53.601709,-32.403027],[-53.761719,-32.056836],[-54.587646,-31.485156],[-55.173535,-31.27959],[-55.603027,-30.850781],[-56.004687,-31.079199],[-56.044824,-30.777637],[-56.832715,-30.107227],[-57.214453,-30.283398],[-57.608887,-30.187793],[-55.890527,-28.37002],[-55.687256,-28.381641],[-55.725488,-28.204102],[-54.829102,-27.550586],[-53.838184,-27.121094],[-53.671289,-26.225098],[-54.012305,-25.57793],[-54.615869,-25.576074],[-54.241797,-24.047266],[-54.625488,-23.8125],[-55.194336,-24.01748],[-55.415918,-23.951367],[-55.617676,-22.671484],[-55.799561,-22.353906],[-56.447803,-22.076172],[-56.937256,-22.271289],[-57.985693,-22.046387],[-57.830225,-20.997949],[-58.159766,-20.164648],[-57.860742,-19.97959],[-58.131494,-19.744531],[-57.716797,-19.044043],[-57.495654,-18.214648],[-57.832471,-17.512109],[-58.395996,-17.234277],[-58.478125,-16.700684],[-58.345605,-16.284375],[-60.175586,-16.269336],[-60.242334,-15.47959],[-60.583203,-15.09834],[-60.27334,-15.08877],[-60.506592,-13.789844],[-61.077002,-13.489746],[-61.789941,-13.525586],[-62.118018,-13.159766],[-62.765479,-12.997266],[-63.06748,-12.669141],[-64.420508,-12.439746],[-64.992529,-11.975195],[-65.389893,-11.246289],[-65.396143,-9.712402],[-66.575342,-9.899902],[-68.622656,-11.10918],[-69.228516,-10.955664],[-70.642334,-11.010254],[-70.541113,-9.4375],[-71.237939,-9.966016],[-72.181592,-10.003711],[-72.379053,-9.510156],[-73.209424,-9.411426],[-72.974023,-8.993164],[-74.002051,-7.556055],[-73.964307,-7.378906],[-73.72041,-7.309277],[-73.758105,-6.905762],[-73.137354,-6.46582],[-73.235547,-6.098438],[-72.887061,-5.122754],[-71.844727,-4.504395],[-70.973682,-4.350488],[-70.799512,-4.17334],[-69.972021,-4.301172],[-69.400244,-1.194922],[-69.633984,-0.509277],[-70.070508,-0.138867],[-70.053906,0.578613],[-69.15332,0.658789],[-69.311816,1.050488],[-69.852148,1.059521],[-69.848584,1.70874],[-68.176562,1.719824],[-68.193799,1.987012],[-67.93623,1.748486],[-67.400439,2.116699],[-67.119238,1.703613],[-67.082275,1.1854],[-66.876025,1.223047]]],[[[-49.628662,-0.229199],[-48.392676,-0.297363],[-48.833594,-1.390039],[-49.038477,-1.514063],[-49.172705,-1.412598],[-49.233984,-1.599512],[-49.506641,-1.511621],[-49.805127,-1.790234],[-50.507617,-1.787988],[-50.759766,-1.240234],[-50.576953,-1.103125],[-50.796094,-0.90625],[-50.645508,-0.272852],[-50.248242,-0.116406],[-49.628662,-0.229199]]],[[[-44.129297,-23.141895],[-44.098047,-23.169336],[-44.320068,-23.212305],[-44.360156,-23.17207],[-44.242871,-23.074121],[-44.129297,-23.141895]]],[[[-48.584424,-26.401563],[-48.665771,-26.289648],[-48.539746,-26.170313],[-48.584424,-26.401563]]],[[[-45.260254,-23.88916],[-45.451416,-23.895605],[-45.302344,-23.727539],[-45.260254,-23.88916]]],[[[-44.499316,-2.939648],[-44.597754,-3.037598],[-44.569092,-2.784961],[-44.481445,-2.717578],[-44.499316,-2.939648]]],[[[-38.743848,-13.09707],[-38.668115,-12.880176],[-38.601172,-12.992578],[-38.743848,-13.09707]]],[[[-38.903564,-13.473438],[-38.937891,-13.532324],[-38.977588,-13.523535],[-39.022168,-13.445605],[-38.980127,-13.398438],[-38.907129,-13.401074],[-38.903564,-13.473438]]],[[[-44.883105,-1.317871],[-44.967871,-1.39082],[-45.02085,-1.372363],[-44.978662,-1.267285],[-44.888281,-1.276855],[-44.883105,-1.317871]]],[[[-49.738232,0.268164],[-49.91709,-0.023193],[-50.339453,0.043359],[-50.272656,0.231738],[-49.738232,0.268164]]],[[[-50.298975,1.938525],[-50.456104,1.910498],[-50.491016,2.128613],[-50.341992,2.141748],[-50.298975,1.938525]]],[[[-50.652881,-0.131641],[-50.926367,-0.327344],[-51.038086,-0.225879],[-50.842187,-0.050195],[-50.652881,-0.131641]]],[[[-49.443896,-0.112402],[-49.830078,-0.093896],[-49.503467,0.083691],[-49.372314,0.001074],[-49.443896,-0.112402]]],[[[-50.426123,0.139258],[-50.443945,-0.007666],[-50.623926,0.054395],[-50.610449,0.204785],[-50.372754,0.590869],[-50.426123,0.139258]]],[[[-50.15293,0.393018],[-50.281689,0.516504],[-50.058838,0.638037],[-50.15293,0.393018]]],[[[-51.83252,-1.433789],[-51.546045,-0.649609],[-51.254004,-0.541406],[-51.276318,-1.021777],[-51.83252,-1.433789]]],[[[-48.485889,-27.766992],[-48.55459,-27.812207],[-48.542187,-27.574805],[-48.414893,-27.399609],[-48.37793,-27.451465],[-48.496777,-27.707031],[-48.485889,-27.766992]]]]}},{"type":"Feature","properties":{"sigla":"BOL","nome":"Bol\u00edvia"},"geometry":{"type":"Polygon","coordinates":[[[-69.510937,-17.506055],[-69.624854,-17.200195],[-68.842773,-16.337891],[-69.217578,-16.149121],[-69.420898,-15.640625],[-69.172461,-15.236621],[-69.359473,-14.795313],[-68.870898,-14.169727],[-69.074121,-13.682813],[-68.978613,-12.880078],[-68.685254,-12.501953],[-69.578613,-10.951758],[-68.622656,-11.10918],[-66.575342,-9.899902],[-65.396143,-9.712402],[-65.389893,-11.246289],[-64.992529,-11.975195],[-64.420508,-12.439746],[-63.06748,-12.669141],[-62.765479,-12.997266],[-62.118018,-13.159766],[-61.789941,-13.525586],[-61.077002,-13.489746],[-60.506592,-13.789844],[-60.27334,-15.08877],[-60.583203,-15.09834],[-60.242334,-15.47959],[-60.175586,-16.269336],[-58.345605,-16.284375],[-58.478125,-16.700684],[-58.395996,-17.234277],[-57.832471,-17.512109],[-57.495654,-18.214648],[-57.716797,-19.044043],[-58.131494,-19.744531],[-57.860742,-19.97959],[-58.09375,-20.151074],[-58.180176,-19.817871],[-59.090527,-19.28623],[-60.007373,-19.297559],[-61.756836,-19.645313],[-62.276318,-20.5625],[-62.27666,-21.066016],[-62.650977,-22.233691],[-62.843359,-21.997266],[-63.92168,-22.028613],[-64.325293,-22.827637],[-64.605518,-22.228809],[-65.771045,-22.099609],[-66.220166,-21.802539],[-66.365186,-22.11377],[-66.711719,-22.216309],[-67.194873,-22.82168],[-67.707324,-22.88916],[-67.879443,-22.822949],[-68.197021,-21.300293],[-68.558252,-20.901953],[-68.484326,-20.628418],[-68.760547,-20.416211],[-68.755811,-20.09082],[-68.560693,-19.96709],[-68.698291,-19.721094],[-68.470166,-19.409961],[-68.968311,-18.967969],[-69.093945,-18.050488],[-69.313379,-17.943164],[-69.510937,-17.506055]]]}},{"type":"Feature","properties":{"sigla":"ARG","nome":"Argentina"},"geometry":{"type":"MultiPolygon","coordinates":[[[[-57.608887,-30.187793],[-57.87251,-30.591016],[-57.988867,-31.620605],[-58.189014,-31.924219],[-58.170996,-32.959277],[-58.424463,-33.111523],[-58.547217,-33.663477],[-58.39248,-34.192969],[-58.525488,-34.296191],[-58.28335,-34.683496],[-57.170654,-35.3625],[-57.375488,-35.900293],[-57.076172,-36.296777],[-56.717383,-36.389063],[-56.727148,-36.957715],[-57.546973,-38.085645],[-58.179199,-38.43584],[-61.112207,-38.992969],[-62.334766,-38.800098],[-62.295068,-39.243262],[-62.053662,-39.373828],[-62.179346,-39.380469],[-62.131543,-39.825391],[-62.401855,-40.196582],[-62.246338,-40.674609],[-62.39502,-40.89082],[-63.621777,-41.159766],[-64.869482,-40.73584],[-65.069434,-40.805273],[-65.15498,-41.105664],[-64.986377,-42.102051],[-64.42041,-42.433789],[-64.100879,-42.395117],[-64.061182,-42.266113],[-64.228516,-42.218262],[-63.795557,-42.113867],[-63.629883,-42.282715],[-63.617334,-42.695801],[-64.034766,-42.88125],[-64.487842,-42.513477],[-64.970703,-42.666309],[-65.026904,-42.758887],[-64.319141,-42.968945],[-65.252344,-43.571875],[-65.265527,-44.279687],[-65.647607,-44.661426],[-65.63877,-45.007812],[-66.190137,-44.964746],[-66.941406,-45.257324],[-67.599561,-46.052539],[-67.506445,-46.442773],[-66.776855,-47.005859],[-65.853662,-47.156738],[-65.775391,-47.568359],[-66.225244,-47.826758],[-65.810059,-47.941113],[-67.466309,-48.951758],[-67.913965,-49.984473],[-68.257227,-50.10459],[-68.667578,-49.752539],[-68.661621,-49.935742],[-68.97959,-50.003027],[-68.421875,-50.15791],[-68.939453,-50.382324],[-69.358594,-51.028125],[-69.201025,-50.993652],[-69.058301,-51.547168],[-69.46543,-51.584473],[-68.965332,-51.677148],[-68.39375,-52.307031],[-69.960254,-52.008203],[-71.971094,-51.96416],[-72.407666,-51.54082],[-72.340234,-50.681836],[-73.15293,-50.738281],[-73.50127,-50.125293],[-73.57627,-49.58291],[-73.461572,-49.313867],[-73.135254,-49.300684],[-73.033643,-49.014355],[-72.614404,-48.792871],[-72.608398,-48.519336],[-72.293018,-48.229102],[-72.51792,-47.876367],[-72.345947,-47.492676],[-71.90498,-47.20166],[-71.940234,-46.83125],[-71.699658,-46.651367],[-71.875684,-46.160547],[-71.631543,-45.953711],[-71.746191,-45.578906],[-71.508105,-45.512695],[-71.35376,-45.230469],[-72.063721,-44.771875],[-71.261133,-44.763086],[-71.159717,-44.560254],[-71.212598,-44.441211],[-71.82002,-44.383105],[-71.680078,-43.92959],[-71.90498,-43.347559],[-71.750635,-43.237305],[-72.146436,-42.990039],[-72.108203,-42.251855],[-71.75,-42.046777],[-71.911279,-41.650391],[-71.932129,-40.691699],[-71.708984,-40.381738],[-71.818311,-40.17666],[-71.659766,-40.020801],[-71.719922,-39.635254],[-71.539453,-39.602441],[-71.401562,-38.935059],[-70.858643,-38.604492],[-71.167578,-37.762305],[-71.192187,-36.843652],[-71.055518,-36.52373],[-70.404785,-36.061719],[-70.555176,-35.246875],[-70.052051,-34.300781],[-69.852441,-34.224316],[-69.819629,-33.283789],[-70.084863,-33.201758],[-70.021973,-32.88457],[-70.344629,-32.176465],[-70.254395,-31.957715],[-70.585205,-31.569434],[-70.554688,-31.317383],[-70.309082,-31.022656],[-70.169629,-30.385547],[-69.844287,-30.175],[-70.026807,-29.324023],[-69.827881,-29.103223],[-69.656934,-28.413574],[-69.174414,-27.924707],[-68.846338,-27.153711],[-68.318652,-26.973242],[-68.591602,-26.47041],[-68.414502,-26.153711],[-68.600293,-25.485645],[-68.384229,-25.091895],[-68.562012,-24.837695],[-68.507275,-24.629785],[-67.356201,-24.033789],[-67.008789,-23.001367],[-67.194873,-22.82168],[-66.711719,-22.216309],[-66.365186,-22.11377],[-66.220166,-21.802539],[-65.771045,-22.099609],[-64.605518,-22.228809],[-64.325293,-22.827637],[-63.92168,-22.028613],[-62.843359,-21.997266],[-61.928027,-23.059277],[-61.03291,-23.755664],[-59.89248,-24.093555],[-57.643896,-25.328418],[-57.57168,-25.53418],[-58.111133,-26.180176],[-58.191309,-26.62998],[-58.618604,-27.132129],[-58.604834,-27.314355],[-56.437158,-27.553809],[-56.164062,-27.321484],[-55.714648,-27.414844],[-55.42666,-27.009277],[-54.825488,-26.652246],[-54.615869,-25.576074],[-54.012305,-25.57793],[-53.671289,-26.225098],[-53.838184,-27.121094],[-54.829102,-27.550586],[-55.725488,-28.204102],[-55.687256,-28.381641],[-55.890527,-28.37002],[-57.608887,-30.187793]]],[[[-68.653223,-54.853613],[-68.629932,-52.652637],[-68.240137,-53.081836],[-68.431152,-53.055273],[-68.488525,-53.260938],[-68.161133,-53.306445],[-67.294238,-54.049805],[-66.235645,-54.533496],[-65.179004,-54.678125],[-65.471143,-54.914648],[-66.511133,-55.032129],[-68.653223,-54.853613]]],[[[-64.54917,-54.716211],[-63.81543,-54.725098],[-64.637354,-54.902539],[-64.757324,-54.826562],[-64.54917,-54.716211]]],[[[-61.875781,-39.171875],[-61.865967,-39.234863],[-61.918018,-39.227441],[-62.041602,-39.166895],[-62.093018,-39.08623],[-61.907129,-39.135645],[-61.875781,-39.171875]]]]}}]}