{"type":"FeatureCollection","features":[{"type":"Feature","properties":{"sigla":"JPN_0","nome":"Tóquio"},"geometry":{"type":"Point","coordinates":[139.749462,35.686963]}},{"type":"Feature","properties":{"sigla":"USA_1","nome":"Nova York"},"geometry":{"type":"Point","coordinates":[-73.995718,40.721562]}},{"type":"Feature","properties":{"sigla":"MEX_2","nome":"Cidade do México"},"geometry":{"type":"Point","coordinates":[-99.132934,19.444388]}},{"type":"Feature","properties":{"sigla":"IND_3","nome":"Bombaim"},"geometry":{"type":"Point","coordinates":[72.875839,19.068408]}},{"type":"Feature","properties":{"sigla":"BRA_4","nome":"São Paulo"},"geometry":{"type":"Point","coordinates":[-46.626966,-23.556734]}},{"type":"Feature","properties":{"sigla":"IND_5","nome":"Deli"},"geometry":{"type":"Point","coordinates":[77.228058,28.671939]}},{"type":"Feature","properties":{"sigla":"CHN_6","nome":"Xangai"},"geometry":{"type":"Point","coordinates":[121.434559,31.218398]}},{"type":"Feature","properties":{"sigla":"IND_7","nome":"Calcutá"},"geometry":{"type":"Point","coordinates":[88.369126,22.569579]}},{"type":"Feature","properties":{"sigla":"BGD_8","nome":"Daca"},"geometry":{"type":"Point","coordinates":[90.406634,23.725006]}},{"type":"Feature","properties":{"sigla":"ARG_9","nome":"Buenos Aires"},"geometry":{"type":"Point","coordinates":[-58.432513,-34.610715]}},{"type":"Feature","properties":{"sigla":"USA_10","nome":"Los Angeles"},"geometry":{"type":"Point","coordinates":[-118.231986,34.049219]}},{"type":"Feature","properties":{"sigla":"PAK_11","nome":"Carachi"},"geometry":{"type":"Point","coordinates":[66.988063,24.871938]}},{"type":"Feature","properties":{"sigla":"EGY_12","nome":"Cairo"},"geometry":{"type":"Point","coordinates":[31.248022,30.051906]}},{"type":"Feature","properties":{"sigla":"BRA_13","nome":"Rio de Janeiro"},"geometry":{"type":"Point","coordinates":[-43.212117,-22.907308]}},{"type":"Feature","properties":{"sigla":"JPN_14","nome":"Osaka"},"geometry":{"type":"Point","coordinates":[135.503754,34.691095]}},{"type":"Feature","properties":{"sigla":"CHN_15","nome":"Pequim"},"geometry":{"type":"Point","coordinates":[116.394201,39.90172]}},{"type":"Feature","properties":{"sigla":"PHL_16","nome":"Manila"},"geometry":{"type":"Point","coordinates":[120.980271,14.606105]}},{"type":"Feature","properties":{"sigla":"RUS_17","nome":"Moscou"},"geometry":{"type":"Point","coordinates":[37.613577,55.75411]}},{"type":"Feature","properties":{"sigla":"TUR_18","nome":"Istambul"},"geometry":{"type":"Point","coordinates":[28.974277,41.017602]}},{"type":"Feature","properties":{"sigla":"FRA_19","nome":"Paris"},"geometry":{"type":"Point","coordinates":[2.352992,48.858092]}},{"type":"Feature","properties":{"sigla":"KOR_20","nome":"Seul"},"geometry":{"type":"Point","coordinates":[126.997785,37.568295]}},{"type":"Feature","properties":{"sigla":"NGA_21","nome":"Lagos"},"geometry":{"type":"Point","coordinates":[3.389585,6.445208]}},{"type":"Feature","properties":{"sigla":"IDN_22","nome":"Jacarta"},"geometry":{"type":"Point","coordinates":[106.827492,-6.172472]}},{"type":"Feature","properties":{"sigla":"USA_23","nome":"Chicago"},"geometry":{"type":"Point","coordinates":[-87.635237,41.847961]}},{"type":"Feature","properties":{"sigla":"CHN_24","nome":"Cantão"},"geometry":{"type":"Point","coordinates":[113.261785,23.124723]}},{"type":"Feature","properties":{"sigla":"GBR_25","nome":"Londres"},"geometry":{"type":"Point","coordinates":[-0.118668,51.501941]}},{"type":"Feature","properties":{"sigla":"PER_26","nome":"Lima"},"geometry":{"type":"Point","coordinates":[-77.052008,-12.046067]}},{"type":"Feature","properties":{"sigla":"IRN_27","nome":"Teerão"},"geometry":{"type":"Point","coordinates":[51.422398,35.673889]}},{"type":"Feature","properties":{"sigla":"COD_28","nome":"Kinshasa"},"geometry":{"type":"Point","coordinates":[15.313026,-4.327778]}},{"type":"Feature","properties":{"sigla":"COL_29","nome":"Bogotá"},"geometry":{"type":"Point","coordinates":[-74.08529,4.598369]}}]}