{"type":"FeatureCollection","features":[
{"type":"Feature","properties":{"sigla":"florestas_tropicais","nome":"Florestas Tropicais"},"geometry":{"type":"MultiPolygon","coordinates":[
[[[-70,-5],[-60,2],[-50,0],[-48,-8],[-58,-12],[-68,-8],[-70,-5]]],
[[[10,4],[25,4],[28,-4],[15,-6],[8,-2],[10,4]]],
[[[95,5],[110,3],[118,-6],[135,-5],[140,-3],[128,4],[110,8],[98,10],[95,5]]]
]}},
{"type":"Feature","properties":{"sigla":"savanas","nome":"Savanas"},"geometry":{"type":"MultiPolygon","coordinates":[
[[[-68,-20],[-55,-22],[-46,-14],[-46,-4],[-58,-4],[-68,-10],[-68,-20]]],
[[[-17,15],[10,17],[30,12],[38,4],[30,-8],[15,-14],[0,-8],[-12,2],[-17,15]]],
[[[120,-19],[135,-19],[142,-13],[132,-10],[122,-13],[120,-19]]]
]}},
{"type":"Feature","properties":{"sigla":"desertos","nome":"Desertos"},"geometry":{"type":"MultiPolygon","coordinates":[
[[[-15,20],[10,32],[33,31],[36,20],[20,15],[0,15],[-15,20]]],
[[[36,30],[55,28],[54,15],[42,14],[36,22],[36,30]]],
[[[-118,33],[-105,33],[-102,25],[-112,23],[-118,26],[-118,33]]],
[[[-71,-19],[-68,-19],[-68,-27],[-71,-27],[-71,-19]]],
[[[120,-22],[140,-23],[138,-30],[122,-30],[120,-22]]],
[[[15,-20],[25,-19],[26,-27],[16,-28],[15,-20]]],
[[[90,42],[108,42],[110,47],[92,47],[90,42]]]
]}},
{"type":"Feature","properties":{"sigla":"desertos_absolutos","nome":"Desertos Absolutos"},"geometry":{"type":"MultiPolygon","coordinates":[
[[[-60,-75],[-20,-75],[-20,-85],[-60,-85],[-60,-75]]],
[[[0,20],[15,22],[15,26],[0,24],[0,20]]],
[[[-46,72],[-36,72],[-33,78],[-45,78],[-46,72]]]
]}},
{"type":"Feature","properties":{"sigla":"chaparral","nome":"Chaparral"},"geometry":{"type":"MultiPolygon","coordinates":[
[[[-5,36],[10,38],[24,40],[24,36],[10,34],[-5,36]]],
[[[-122,34],[-117,34],[-117,39],[-122,38],[-122,34]]],
[[[-73,-36],[-70,-36],[-70,-32],[-73,-32],[-73,-36]]],
[[[18,-34],[22,-34],[22,-32],[18,-32],[18,-34]]],
[[[114,-35],[119,-35],[119,-31],[114,-31],[114,-35]]]
]}},
{"type":"Feature","properties":{"sigla":"campos_temperados","nome":"Campos de Regiões Temperadas"},"geometry":{"type":"MultiPolygon","coordinates":[
[[[-105,35],[-95,35],[-97,48],[-107,48],[-105,35]]],
[[[-65,-38],[-57,-38],[-57,-30],[-65,-32],[-65,-38]]],
[[[40,45],[70,48],[90,52],[80,56],[50,54],[40,45]]]
]}},
{"type":"Feature","properties":{"sigla":"florestas_temperadas","nome":"Florestas Temperadas"},"geometry":{"type":"MultiPolygon","coordinates":[
[[[-90,32],[-70,33],[-68,45],[-88,45],[-90,32]]],
[[[-5,43],[15,44],[30,50],[20,55],[0,54],[-8,48],[-5,43]]],
[[[105,25],[125,28],[143,38],[140,45],[122,42],[108,32],[105,25]]],
[[[-74,-42],[-71,-42],[-71,-38],[-74,-38],[-74,-42]]]
]}},
{"type":"Feature","properties":{"sigla":"taigas","nome":"Taigas"},"geometry":{"type":"MultiPolygon","coordinates":[
[[[60,55],[100,58],[140,62],[160,66],[130,68],[90,66],[60,60],[60,55]]],
[[[-160,58],[-140,60],[-100,58],[-65,52],[-70,62],[-110,65],[-155,66],[-160,58]]]
]}},
{"type":"Feature","properties":{"sigla":"tundra","nome":"Tundra Ártica e Alpina"},"geometry":{"type":"MultiPolygon","coordinates":[
[[[-160,68],[-110,68],[-70,60],[-65,70],[-100,72],[-155,72],[-160,68]]],
[[[40,68],[90,66],[140,70],[170,68],[170,73],[100,75],[45,72],[40,68]]],
[[[-52,66],[-20,68],[-18,80],[-50,80],[-52,66]]]
]}}
]}
