{"type":"FeatureCollection","features":[{"type":"Feature","properties":{"sigla":"ZWE","nome":"Harare"},"geometry":{"type":"Point","coordinates":[31.042764,-17.815844]}},{"type":"Feature","properties":{"sigla":"ZMB","nome":"Lusaca"},"geometry":{"type":"Point","coordinates":[28.281382,-15.414698]}},{"type":"Feature","properties":{"sigla":"YEM","nome":"Sana"},"geometry":{"type":"Point","coordinates":[44.204648,15.356679]}},{"type":"Feature","properties":{"sigla":"VNM","nome":"Hanói"},"geometry":{"type":"Point","coordinates":[105.848068,21.035273]}},{"type":"Feature","properties":{"sigla":"VEN","nome":"Caracas"},"geometry":{"type":"Point","coordinates":[-66.918983,10.502944]}},{"type":"Feature","properties":{"sigla":"VAT","nome":"Vaticano"},"geometry":{"type":"Point","coordinates":[12.453387,41.903282]}},{"type":"Feature","properties":{"sigla":"VUT","nome":"Port Vila"},"geometry":{"type":"Point","coordinates":[168.316641,-17.73335]}},{"type":"Feature","properties":{"sigla":"UZB","nome":"Tasquente"},"geometry":{"type":"Point","coordinates":[69.268823,41.303828]}},{"type":"Feature","properties":{"sigla":"URY","nome":"Montevidéu"},"geometry":{"type":"Point","coordinates":[-56.186823,-34.905376]}},{"type":"Feature","properties":{"sigla":"FSM","nome":"Palikir"},"geometry":{"type":"Point","coordinates":[158.149974,6.916644]}},{"type":"Feature","properties":{"sigla":"MHL","nome":"Majuro"},"geometry":{"type":"Point","coordinates":[171.38,7.103004]}},{"type":"Feature","properties":{"sigla":"USA","nome":"Washington"},"geometry":{"type":"Point","coordinates":[-77.011364,38.901495]}},{"type":"Feature","properties":{"sigla":"GBR","nome":"Londres"},"geometry":{"type":"Point","coordinates":[-0.118668,51.501941]}},{"type":"Feature","properties":{"sigla":"ARE","nome":"Abu Dhabi"},"geometry":{"type":"Point","coordinates":[54.366593,24.466684]}},{"type":"Feature","properties":{"sigla":"UKR","nome":"Kiev"},"geometry":{"type":"Point","coordinates":[30.514682,50.435313]}},{"type":"Feature","properties":{"sigla":"UGA","nome":"Kampala"},"geometry":{"type":"Point","coordinates":[32.581378,0.318605]}},{"type":"Feature","properties":{"sigla":"TKM","nome":"Asgabate"},"geometry":{"type":"Point","coordinates":[58.383299,37.949995]}},{"type":"Feature","properties":{"sigla":"TUR","nome":"Ancara"},"geometry":{"type":"Point","coordinates":[32.862446,39.929184]}},{"type":"Feature","properties":{"sigla":"TUN","nome":"Tunes"},"geometry":{"type":"Point","coordinates":[10.179678,36.802778]}},{"type":"Feature","properties":{"sigla":"TTO","nome":"Port of Spain"},"geometry":{"type":"Point","coordinates":[-61.517031,10.651997]}},{"type":"Feature","properties":{"sigla":"TON","nome":"Nuku'alofa"},"geometry":{"type":"Point","coordinates":[-175.220564,-21.138512]}},{"type":"Feature","properties":{"sigla":"TGO","nome":"Lomé"},"geometry":{"type":"Point","coordinates":[1.220811,6.133883]}},{"type":"Feature","properties":{"sigla":"TLS","nome":"Díli"},"geometry":{"type":"Point","coordinates":[125.579456,-8.559388]}},{"type":"Feature","properties":{"sigla":"THA","nome":"Banguecoque"},"geometry":{"type":"Point","coordinates":[100.514699,13.751945]}},{"type":"Feature","properties":{"sigla":"TZA","nome":"Dar es Salaam"},"geometry":{"type":"Point","coordinates":[39.266396,-6.798067]}},{"type":"Feature","properties":{"sigla":"TJK","nome":"Duchambe"},"geometry":{"type":"Point","coordinates":[68.773879,38.560035]}},{"type":"Feature","properties":{"sigla":"TWN","nome":"Taipé"},"geometry":{"type":"Point","coordinates":[121.568333,25.035833]}},{"type":"Feature","properties":{"sigla":"SYR","nome":"Damasco"},"geometry":{"type":"Point","coordinates":[36.29805,33.50198]}},{"type":"Feature","properties":{"sigla":"CHE","nome":"Berna"},"geometry":{"type":"Point","coordinates":[7.466976,46.916683]}},{"type":"Feature","properties":{"sigla":"SWE","nome":"Estocolmo"},"geometry":{"type":"Point","coordinates":[18.0663,59.324127]}},{"type":"Feature","properties":{"sigla":"SWZ","nome":"Mebabane"},"geometry":{"type":"Point","coordinates":[31.133335,-26.316651]}},{"type":"Feature","properties":{"sigla":"SUR","nome":"Paramaribo"},"geometry":{"type":"Point","coordinates":[-55.167031,5.83503]}},{"type":"Feature","properties":{"sigla":"SDN","nome":"Cartum"},"geometry":{"type":"Point","coordinates":[32.532233,15.590024]}},{"type":"Feature","properties":{"sigla":"LKA","nome":"Colombo"},"geometry":{"type":"Point","coordinates":[79.857751,6.931966]}},{"type":"Feature","properties":{"sigla":"ESP","nome":"Madrid"},"geometry":{"type":"Point","coordinates":[-3.685297,40.401972]}},{"type":"Feature","properties":{"sigla":"KOR","nome":"Seul"},"geometry":{"type":"Point","coordinates":[126.997785,37.568295]}},{"type":"Feature","properties":{"sigla":"ZAF","nome":"Cidade do Cabo"},"geometry":{"type":"Point","coordinates":[18.433042,-33.918065]}},{"type":"Feature","properties":{"sigla":"SOM","nome":"Mogadíscio"},"geometry":{"type":"Point","coordinates":[45.364732,2.068627]}},{"type":"Feature","properties":{"sigla":"SLB","nome":"Honiara"},"geometry":{"type":"Point","coordinates":[159.949766,-9.437994]}},{"type":"Feature","properties":{"sigla":"SVK","nome":"Bratislava"},"geometry":{"type":"Point","coordinates":[17.116981,48.150018]}},{"type":"Feature","properties":{"sigla":"SVN","nome":"Liubliana"},"geometry":{"type":"Point","coordinates":[14.514969,46.055288]}},{"type":"Feature","properties":{"sigla":"SGP","nome":"Singapura"},"geometry":{"type":"Point","coordinates":[103.853875,1.294979]}},{"type":"Feature","properties":{"sigla":"SLE","nome":"Freetown"},"geometry":{"type":"Point","coordinates":[-13.236162,8.471957]}},{"type":"Feature","properties":{"sigla":"SRB","nome":"Belgrado"},"geometry":{"type":"Point","coordinates":[20.466045,44.820591]}},{"type":"Feature","properties":{"sigla":"SEN","nome":"Dakar"},"geometry":{"type":"Point","coordinates":[-17.475076,14.717778]}},{"type":"Feature","properties":{"sigla":"SAU","nome":"Riade"},"geometry":{"type":"Point","coordinates":[46.720487,24.634497]}},{"type":"Feature","properties":{"sigla":"STP","nome":"São Tomé"},"geometry":{"type":"Point","coordinates":[6.72965,0.337466]}},{"type":"Feature","properties":{"sigla":"SMR","nome":"San Marino"},"geometry":{"type":"Point","coordinates":[12.44177,43.936096]}},{"type":"Feature","properties":{"sigla":"WSM","nome":"Apia"},"geometry":{"type":"Point","coordinates":[-171.768599,-13.835715]}},{"type":"Feature","properties":{"sigla":"VCT","nome":"Kingstown"},"geometry":{"type":"Point","coordinates":[-61.220236,13.155756]}},{"type":"Feature","properties":{"sigla":"LCA","nome":"Castries"},"geometry":{"type":"Point","coordinates":[-60.992875,14.007875]}},{"type":"Feature","properties":{"sigla":"KNA","nome":"Basseterre"},"geometry":{"type":"Point","coordinates":[-62.717009,17.302031]}},{"type":"Feature","properties":{"sigla":"RWA","nome":"Kigali"},"geometry":{"type":"Point","coordinates":[30.058586,-1.951644]}},{"type":"Feature","properties":{"sigla":"RUS","nome":"Moscovo"},"geometry":{"type":"Point","coordinates":[37.613577,55.75411]}},{"type":"Feature","properties":{"sigla":"ROU","nome":"Bucareste"},"geometry":{"type":"Point","coordinates":[26.098001,44.435318]}},{"type":"Feature","properties":{"sigla":"QAT","nome":"Doha"},"geometry":{"type":"Point","coordinates":[51.532968,25.286556]}},{"type":"Feature","properties":{"sigla":"PRT","nome":"Lisboa"},"geometry":{"type":"Point","coordinates":[-9.146812,38.724669]}},{"type":"Feature","properties":{"sigla":"POL","nome":"Varsóvia"},"geometry":{"type":"Point","coordinates":[21.005347,52.230872]}},{"type":"Feature","properties":{"sigla":"PHL","nome":"Manila"},"geometry":{"type":"Point","coordinates":[120.980271,14.606105]}},{"type":"Feature","properties":{"sigla":"PER","nome":"Lima"},"geometry":{"type":"Point","coordinates":[-77.052008,-12.046067]}},{"type":"Feature","properties":{"sigla":"PRY","nome":"Assunção"},"geometry":{"type":"Point","coordinates":[-57.625834,-25.290671]}},{"type":"Feature","properties":{"sigla":"PNG","nome":"Port Moresby"},"geometry":{"type":"Point","coordinates":[147.192504,-9.464708]}},{"type":"Feature","properties":{"sigla":"PAN","nome":"Cidade do Panamá"},"geometry":{"type":"Point","coordinates":[-79.534983,8.969963]}},{"type":"Feature","properties":{"sigla":"PLW","nome":"Melequeoque"},"geometry":{"type":"Point","coordinates":[134.626549,7.487396]}},{"type":"Feature","properties":{"sigla":"PAK","nome":"Islamabad"},"geometry":{"type":"Point","coordinates":[73.08063,33.689368]}},{"type":"Feature","properties":{"sigla":"OMN","nome":"Mascate"},"geometry":{"type":"Point","coordinates":[58.378311,23.585179]}},{"type":"Feature","properties":{"sigla":"NOR","nome":"Oslo"},"geometry":{"type":"Point","coordinates":[10.748033,59.918636]}},{"type":"Feature","properties":{"sigla":"PRK","nome":"Pyongyang"},"geometry":{"type":"Point","coordinates":[125.752745,39.021385]}},{"type":"Feature","properties":{"sigla":"NGA","nome":"Abuja"},"geometry":{"type":"Point","coordinates":[7.489505,9.05462]}},{"type":"Feature","properties":{"sigla":"NER","nome":"Niamey"},"geometry":{"type":"Point","coordinates":[2.11471,13.518652]}},{"type":"Feature","properties":{"sigla":"NIC","nome":"Manágua"},"geometry":{"type":"Point","coordinates":[-86.270437,12.154962]}},{"type":"Feature","properties":{"sigla":"NZL","nome":"Wellington"},"geometry":{"type":"Point","coordinates":[174.777201,-41.292068]}},{"type":"Feature","properties":{"sigla":"NLD","nome":"Amesterdão"},"geometry":{"type":"Point","coordinates":[4.914694,52.351914]}},{"type":"Feature","properties":{"sigla":"NPL","nome":"Catmandu"},"geometry":{"type":"Point","coordinates":[85.314696,27.718638]}},{"type":"Feature","properties":{"sigla":"NAM","nome":"Windhoek"},"geometry":{"type":"Point","coordinates":[17.083546,-22.570006]}},{"type":"Feature","properties":{"sigla":"MOZ","nome":"Maputo"},"geometry":{"type":"Point","coordinates":[32.587217,-25.953332]}},{"type":"Feature","properties":{"sigla":"MAR","nome":"Rabat"},"geometry":{"type":"Point","coordinates":[-6.836408,34.025307]}},{"type":"Feature","properties":{"sigla":"MNE","nome":"Podgorica"},"geometry":{"type":"Point","coordinates":[19.266307,42.465972]}},{"type":"Feature","properties":{"sigla":"MNG","nome":"Ulan Bator"},"geometry":{"type":"Point","coordinates":[106.91467,47.918619]}},{"type":"Feature","properties":{"sigla":"MDA","nome":"Chișinău"},"geometry":{"type":"Point","coordinates":[28.857711,47.005024]}},{"type":"Feature","properties":{"sigla":"MCO","nome":"Mónaco"},"geometry":{"type":"Point","coordinates":[7.406913,43.739646]}},{"type":"Feature","properties":{"sigla":"MEX","nome":"Cidade do México"},"geometry":{"type":"Point","coordinates":[-99.132934,19.444388]}},{"type":"Feature","properties":{"sigla":"MRT","nome":"Nouakchott"},"geometry":{"type":"Point","coordinates":[-15.97534,18.086427]}},{"type":"Feature","properties":{"sigla":"MLT","nome":"Valeta"},"geometry":{"type":"Point","coordinates":[14.514711,35.899732]}},{"type":"Feature","properties":{"sigla":"MLI","nome":"Bamako"},"geometry":{"type":"Point","coordinates":[-8.001985,12.65196]}},{"type":"Feature","properties":{"sigla":"MYS","nome":"Kuala Lumpur"},"geometry":{"type":"Point","coordinates":[101.688699,3.139797]}},{"type":"Feature","properties":{"sigla":"MWI","nome":"Lilongwe"},"geometry":{"type":"Point","coordinates":[33.783302,-13.983295]}},{"type":"Feature","properties":{"sigla":"MDG","nome":"Antananarivo"},"geometry":{"type":"Point","coordinates":[47.514678,-18.914691]}},{"type":"Feature","properties":{"sigla":"MKD","nome":"Skopje"},"geometry":{"type":"Point","coordinates":[21.433461,42.000006]}},{"type":"Feature","properties":{"sigla":"LUX","nome":"Luxemburgo"},"geometry":{"type":"Point","coordinates":[6.130003,49.61166]}},{"type":"Feature","properties":{"sigla":"LTU","nome":"Vilnius"},"geometry":{"type":"Point","coordinates":[25.316635,54.683366]}},{"type":"Feature","properties":{"sigla":"LIE","nome":"Vaduz"},"geometry":{"type":"Point","coordinates":[9.51667,47.133724]}},{"type":"Feature","properties":{"sigla":"LBY","nome":"Trípoli"},"geometry":{"type":"Point","coordinates":[13.180012,32.8925]}},{"type":"Feature","properties":{"sigla":"LBR","nome":"Monróvia"},"geometry":{"type":"Point","coordinates":[-10.79966,6.314582]}},{"type":"Feature","properties":{"sigla":"LSO","nome":"Maseru"},"geometry":{"type":"Point","coordinates":[27.483273,-29.316674]}},{"type":"Feature","properties":{"sigla":"LBN","nome":"Beirute"},"geometry":{"type":"Point","coordinates":[35.507762,33.873921]}},{"type":"Feature","properties":{"sigla":"LVA","nome":"Riga"},"geometry":{"type":"Point","coordinates":[24.099965,56.950024]}},{"type":"Feature","properties":{"sigla":"LAO","nome":"Vienciana"},"geometry":{"type":"Point","coordinates":[102.59998,17.966693]}},{"type":"Feature","properties":{"sigla":"KGZ","nome":"Bisqueque"},"geometry":{"type":"Point","coordinates":[74.583258,42.875025]}},{"type":"Feature","properties":{"sigla":"KWT","nome":"Kuwait"},"geometry":{"type":"Point","coordinates":[47.976355,29.371664]}},{"type":"Feature","properties":{"sigla":"KOS","nome":"Pristina"},"geometry":{"type":"Point","coordinates":[21.165984,42.66671]}},{"type":"Feature","properties":{"sigla":"KIR","nome":"Tarawa do Sul"},"geometry":{"type":"Point","coordinates":[173.017571,1.338188]}},{"type":"Feature","properties":{"sigla":"KEN","nome":"Nairóbi"},"geometry":{"type":"Point","coordinates":[36.814711,-1.281401]}},{"type":"Feature","properties":{"sigla":"KAZ","nome":"Nur-Sultã"},"geometry":{"type":"Point","coordinates":[71.427774,51.181125]}},{"type":"Feature","properties":{"sigla":"JOR","nome":"Amã"},"geometry":{"type":"Point","coordinates":[35.931354,31.951971]}},{"type":"Feature","properties":{"sigla":"JPN","nome":"Tóquio"},"geometry":{"type":"Point","coordinates":[139.749462,35.686963]}},{"type":"Feature","properties":{"sigla":"JAM","nome":"Kingston"},"geometry":{"type":"Point","coordinates":[-76.767434,17.977077]}},{"type":"Feature","properties":{"sigla":"ITA","nome":"Roma"},"geometry":{"type":"Point","coordinates":[12.481313,41.897902]}},{"type":"Feature","properties":{"sigla":"ISR","nome":"Jerusalém"},"geometry":{"type":"Point","coordinates":[35.206626,31.778408]}},{"type":"Feature","properties":{"sigla":"IRL","nome":"Dublin"},"geometry":{"type":"Point","coordinates":[-6.25698,53.346731]}},{"type":"Feature","properties":{"sigla":"IRQ","nome":"Bagdade"},"geometry":{"type":"Point","coordinates":[44.391923,33.340594]}},{"type":"Feature","properties":{"sigla":"IRN","nome":"Teerão"},"geometry":{"type":"Point","coordinates":[51.422398,35.673889]}},{"type":"Feature","properties":{"sigla":"IDN","nome":"Jacarta"},"geometry":{"type":"Point","coordinates":[106.827492,-6.172472]}},{"type":"Feature","properties":{"sigla":"IND","nome":"Nova Deli"},"geometry":{"type":"Point","coordinates":[77.19998,28.600023]}},{"type":"Feature","properties":{"sigla":"ISL","nome":"Reykjavík"},"geometry":{"type":"Point","coordinates":[-21.936546,64.143459]}},{"type":"Feature","properties":{"sigla":"HUN","nome":"Budapeste"},"geometry":{"type":"Point","coordinates":[19.081375,47.501952]}},{"type":"Feature","properties":{"sigla":"HND","nome":"Tegucigalpa"},"geometry":{"type":"Point","coordinates":[-87.219475,14.103991]}},{"type":"Feature","properties":{"sigla":"HTI","nome":"Porto Príncipe"},"geometry":{"type":"Point","coordinates":[-72.33798,18.54297]}},{"type":"Feature","properties":{"sigla":"GUY","nome":"Georgetown"},"geometry":{"type":"Point","coordinates":[-58.167029,6.801974]}},{"type":"Feature","properties":{"sigla":"GNB","nome":"Bissau"},"geometry":{"type":"Point","coordinates":[-15.598361,11.865024]}},{"type":"Feature","properties":{"sigla":"GIN","nome":"Conacri"},"geometry":{"type":"Point","coordinates":[-13.682181,9.533469]}},{"type":"Feature","properties":{"sigla":"GTM","nome":"Cidade da Guatemala"},"geometry":{"type":"Point","coordinates":[-90.528911,14.623081]}},{"type":"Feature","properties":{"sigla":"GRD","nome":"Saint George's"},"geometry":{"type":"Point","coordinates":[-61.741643,12.052633]}},{"type":"Feature","properties":{"sigla":"GRC","nome":"Atenas"},"geometry":{"type":"Point","coordinates":[23.731375,37.985272]}},{"type":"Feature","properties":{"sigla":"GHA","nome":"Acra"},"geometry":{"type":"Point","coordinates":[-0.218662,5.55198]}},{"type":"Feature","properties":{"sigla":"DEU","nome":"Berlim"},"geometry":{"type":"Point","coordinates":[13.399603,52.523764]}},{"type":"Feature","properties":{"sigla":"GEO","nome":"Tiblíssi"},"geometry":{"type":"Point","coordinates":[44.78885,41.726956]}},{"type":"Feature","properties":{"sigla":"GMB","nome":"Banjul"},"geometry":{"type":"Point","coordinates":[-16.591701,13.453876]}},{"type":"Feature","properties":{"sigla":"GAB","nome":"Libreville"},"geometry":{"type":"Point","coordinates":[9.457965,0.385389]}},{"type":"Feature","properties":{"sigla":"FRA","nome":"Paris"},"geometry":{"type":"Point","coordinates":[2.352992,48.858092]}},{"type":"Feature","properties":{"sigla":"FIN","nome":"Helsínquia"},"geometry":{"type":"Point","coordinates":[24.932457,60.163804]}},{"type":"Feature","properties":{"sigla":"FJI","nome":"Suva"},"geometry":{"type":"Point","coordinates":[178.441707,-18.133016]}},{"type":"Feature","properties":{"sigla":"ETH","nome":"Adis Abeba"},"geometry":{"type":"Point","coordinates":[38.698059,9.035256]}},{"type":"Feature","properties":{"sigla":"EST","nome":"Tallinn"},"geometry":{"type":"Point","coordinates":[24.728041,59.433877]}},{"type":"Feature","properties":{"sigla":"ERI","nome":"Asmara"},"geometry":{"type":"Point","coordinates":[38.933324,15.333339]}},{"type":"Feature","properties":{"sigla":"GNQ","nome":"Malabo"},"geometry":{"type":"Point","coordinates":[8.783278,3.750015]}},{"type":"Feature","properties":{"sigla":"SLV","nome":"San Salvador"},"geometry":{"type":"Point","coordinates":[-89.215576,13.70328]}},{"type":"Feature","properties":{"sigla":"EGY","nome":"Cairo"},"geometry":{"type":"Point","coordinates":[31.248022,30.051906]}},{"type":"Feature","properties":{"sigla":"ECU","nome":"Quito"},"geometry":{"type":"Point","coordinates":[-78.501997,-0.213042]}},{"type":"Feature","properties":{"sigla":"DOM","nome":"Santo Domingo"},"geometry":{"type":"Point","coordinates":[-69.929742,18.470745]}},{"type":"Feature","properties":{"sigla":"DMA","nome":"Roseau"},"geometry":{"type":"Point","coordinates":[-61.387013,15.301016]}},{"type":"Feature","properties":{"sigla":"DJI","nome":"Djibouti"},"geometry":{"type":"Point","coordinates":[43.148002,11.595014]}},{"type":"Feature","properties":{"sigla":"DNK","nome":"Copenhaga"},"geometry":{"type":"Point","coordinates":[12.56154,55.68051]}},{"type":"Feature","properties":{"sigla":"CZE","nome":"Praga"},"geometry":{"type":"Point","coordinates":[14.422939,50.086967]}},{"type":"Feature","properties":{"sigla":"CYP","nome":"Nicósia"},"geometry":{"type":"Point","coordinates":[33.366635,35.166677]}},{"type":"Feature","properties":{"sigla":"CUB","nome":"Havana"},"geometry":{"type":"Point","coordinates":[-82.366128,23.133905]}},{"type":"Feature","properties":{"sigla":"HRV","nome":"Zagreb"},"geometry":{"type":"Point","coordinates":[15.999995,45.800007]}},{"type":"Feature","properties":{"sigla":"CIV","nome":"Abidjan"},"geometry":{"type":"Point","coordinates":[-4.020207,5.323126]}},{"type":"Feature","properties":{"sigla":"CRI","nome":"San José"},"geometry":{"type":"Point","coordinates":[-84.078814,9.930371]}},{"type":"Feature","properties":{"sigla":"COD","nome":"Kinshasa"},"geometry":{"type":"Point","coordinates":[15.313026,-4.327778]}},{"type":"Feature","properties":{"sigla":"COG","nome":"Brazavile"},"geometry":{"type":"Point","coordinates":[15.282744,-4.25724]}},{"type":"Feature","properties":{"sigla":"COM","nome":"Moroni"},"geometry":{"type":"Point","coordinates":[43.240244,-11.704158]}},{"type":"Feature","properties":{"sigla":"COL","nome":"Bogotá"},"geometry":{"type":"Point","coordinates":[-74.08529,4.598369]}},{"type":"Feature","properties":{"sigla":"CHN","nome":"Pequim"},"geometry":{"type":"Point","coordinates":[116.394201,39.90172]}},{"type":"Feature","properties":{"sigla":"CHL","nome":"Santiago"},"geometry":{"type":"Point","coordinates":[-70.650504,-33.440205]}},{"type":"Feature","properties":{"sigla":"TCD","nome":"Jamena"},"geometry":{"type":"Point","coordinates":[15.047202,12.115042]}},{"type":"Feature","properties":{"sigla":"CAF","nome":"Bangui"},"geometry":{"type":"Point","coordinates":[18.558288,4.366644]}},{"type":"Feature","properties":{"sigla":"CPV","nome":"Praia"},"geometry":{"type":"Point","coordinates":[-23.516689,14.916698]}},{"type":"Feature","properties":{"sigla":"CAN","nome":"Ottawa"},"geometry":{"type":"Point","coordinates":[-75.701961,45.418643]}},{"type":"Feature","properties":{"sigla":"CMR","nome":"Yaoundé"},"geometry":{"type":"Point","coordinates":[11.514705,3.868647]}},{"type":"Feature","properties":{"sigla":"KHM","nome":"Phnom Penh"},"geometry":{"type":"Point","coordinates":[104.914689,11.551976]}},{"type":"Feature","properties":{"sigla":"MMR","nome":"Naypyidaw"},"geometry":{"type":"Point","coordinates":[96.116673,19.768503]}},{"type":"Feature","properties":{"sigla":"BDI","nome":"Bujumbura"},"geometry":{"type":"Point","coordinates":[29.360006,-3.376087]}},{"type":"Feature","properties":{"sigla":"BFA","nome":"Ouagadougou"},"geometry":{"type":"Point","coordinates":[-1.52667,12.372262]}},{"type":"Feature","properties":{"sigla":"BGR","nome":"Sófia"},"geometry":{"type":"Point","coordinates":[23.314708,42.685295]}},{"type":"Feature","properties":{"sigla":"BRN","nome":"Bandar Seri Begawan"},"geometry":{"type":"Point","coordinates":[114.933284,4.883331]}},{"type":"Feature","properties":{"sigla":"BRA","nome":"Brasília"},"geometry":{"type":"Point","coordinates":[-47.917998,-15.781394]}},{"type":"Feature","properties":{"sigla":"BWA","nome":"Gaborone"},"geometry":{"type":"Point","coordinates":[25.911948,-24.646314]}},{"type":"Feature","properties":{"sigla":"BIH","nome":"Sarajevo"},"geometry":{"type":"Point","coordinates":[18.383002,43.850022]}},{"type":"Feature","properties":{"sigla":"BOL","nome":"La Paz"},"geometry":{"type":"Point","coordinates":[-68.151931,-16.496028]}},{"type":"Feature","properties":{"sigla":"BTN","nome":"Thimbu"},"geometry":{"type":"Point","coordinates":[89.639014,27.472986]}},{"type":"Feature","properties":{"sigla":"BEN","nome":"Cotonou"},"geometry":{"type":"Point","coordinates":[2.404355,6.36298]}},{"type":"Feature","properties":{"sigla":"BLZ","nome":"Belmopan"},"geometry":{"type":"Point","coordinates":[-88.767073,17.252033]}},{"type":"Feature","properties":{"sigla":"BEL","nome":"Bruxelas"},"geometry":{"type":"Point","coordinates":[4.331371,50.835263]}},{"type":"Feature","properties":{"sigla":"BLR","nome":"Minsk"},"geometry":{"type":"Point","coordinates":[27.564681,53.901923]}},{"type":"Feature","properties":{"sigla":"BRB","nome":"Bridgetown"},"geometry":{"type":"Point","coordinates":[-59.616527,13.102003]}},{"type":"Feature","properties":{"sigla":"BGD","nome":"Daca"},"geometry":{"type":"Point","coordinates":[90.406634,23.725006]}},{"type":"Feature","properties":{"sigla":"BHR","nome":"Manama"},"geometry":{"type":"Point","coordinates":[50.583052,26.236136]}},{"type":"Feature","properties":{"sigla":"BHS","nome":"Nassau"},"geometry":{"type":"Point","coordinates":[-77.350044,25.08339]}},{"type":"Feature","properties":{"sigla":"AZE","nome":"Baku"},"geometry":{"type":"Point","coordinates":[49.860271,40.397218]}},{"type":"Feature","properties":{"sigla":"AUT","nome":"Viena"},"geometry":{"type":"Point","coordinates":[16.364693,48.201961]}},{"type":"Feature","properties":{"sigla":"AUS","nome":"Camberra"},"geometry":{"type":"Point","coordinates":[149.129026,-35.283029]}},{"type":"Feature","properties":{"sigla":"ARM","nome":"Erevan"},"geometry":{"type":"Point","coordinates":[44.511606,40.183097]}},{"type":"Feature","properties":{"sigla":"ARG","nome":"Buenos Aires"},"geometry":{"type":"Point","coordinates":[-58.432513,-34.610715]}},{"type":"Feature","properties":{"sigla":"ATG","nome":"Saint John's"},"geometry":{"type":"Point","coordinates":[-61.850034,17.118036]}},{"type":"Feature","properties":{"sigla":"AGO","nome":"Luanda"},"geometry":{"type":"Point","coordinates":[13.232481,-8.83634]}},{"type":"Feature","properties":{"sigla":"AND","nome":"Andorra-a-Velha"},"geometry":{"type":"Point","coordinates":[1.526594,42.510753]}},{"type":"Feature","properties":{"sigla":"DZA","nome":"Argel"},"geometry":{"type":"Point","coordinates":[3.048607,36.765011]}},{"type":"Feature","properties":{"sigla":"ALB","nome":"Tirana"},"geometry":{"type":"Point","coordinates":[19.818883,41.327541]}},{"type":"Feature","properties":{"sigla":"AFG","nome":"Cabul"},"geometry":{"type":"Point","coordinates":[69.181314,34.518636]}},{"type":"Feature","properties":{"sigla":"TUV","nome":"Funafuti"},"geometry":{"type":"Point","coordinates":[179.216647,-8.516652]}}]}