{"type":"FeatureCollection","features":[{"type":"Feature","properties":{"sigla":"nilo_w","nome":"Nilo"},"geometry":{"type":"MultiLineString","coordinates":[[[32.490141,15.63455],[32.53541,16.040417],[32.628531,16.256476],[32.784594,16.41812],[32.928667,16.507959],[33.060649,16.525994],[33.164674,16.566173],[33.240638,16.628443],[33.358667,16.685881],[33.518761,16.738436],[33.634567,16.824503],[33.705984,16.944082],[33.731771,17.028883],[33.711824,17.078906],[33.714563,17.151331],[33.740091,17.246131],[33.810216,17.378888],[33.925041,17.549575],[33.951861,17.698507],[33.968811,17.792351],[33.941629,18.107267],[33.900391,18.278058],[33.845097,18.304723],[33.784429,18.363789],[33.71818,18.45523],[33.681903,18.554578],[33.675392,18.661859],[33.644954,18.723922],[33.590488,18.740769],[33.566768,18.847274],[33.573693,19.043386],[33.539069,19.173352],[33.462898,19.237198],[33.413496,19.307607],[33.379699,19.42313],[33.138267,19.502686],[33.017964,19.510773],[32.938486,19.473902],[32.838234,19.3829],[32.717207,19.237689],[32.619746,19.160691],[32.545642,19.151906],[32.46761,19.08297],[32.385445,18.953882],[32.306328,18.889933],[32.230157,18.891147],[32.153211,18.864999],[32.075593,18.811539],[32.039213,18.743404],[32.04407,18.660618],[32.004641,18.606255],[31.920822,18.58021],[31.799951,18.45244],[31.642028,18.222919],[31.474131,18.077243],[31.296261,18.015335],[31.145882,18.001744],[31.022996,18.03647],[30.910599,18.087113],[30.808693,18.153569],[30.743995,18.256974],[30.716503,18.397327],[30.673818,18.499026],[30.615837,18.561968],[30.561525,18.660205],[30.510779,18.793737],[30.486233,18.987989],[30.487886,19.243063],[30.457914,19.471112],[30.396419,19.672185],[30.349962,19.786389],[30.34774,19.821762],[30.369806,19.856928],[30.499772,19.914134],[30.575013,19.967283],[30.59434,20.015833],[30.599662,20.098128],[30.591084,20.214193],[30.570879,20.29101],[30.539149,20.328527],[30.48954,20.350954],[30.42205,20.358241],[30.365981,20.416945],[30.32123,20.527016],[30.31663,20.615796],[30.352287,20.683389],[30.362674,20.734755],[30.369754,20.774262],[30.397142,20.805009],[30.510417,20.840227],[30.576253,20.900275],[30.594753,20.985154],[30.631547,21.043832],[30.68684,21.076233],[30.709165,21.120623],[30.698623,21.176951],[30.763115,21.249065],[30.902745,21.336992],[30.969872,21.399133],[30.964601,21.435514],[30.994109,21.49259],[31.09064,21.609198]],[[32.879471,23.987683],[32.913061,24.328438],[32.912648,24.453986],[32.889393,24.477912],[32.891874,24.539562],[32.919882,24.638936],[32.920968,24.77022],[32.895026,24.933414],[32.870583,25.037464],[32.847639,25.082423],[32.767024,25.149473],[32.628737,25.238589],[32.540371,25.349822],[32.502027,25.483148],[32.492932,25.565365],[32.523214,25.612003],[32.704133,25.754268],[32.764026,25.87917],[32.763199,26.034173],[32.734364,26.128845],[32.677623,26.163261],[32.553393,26.142797],[32.361674,26.067427],[32.228658,26.076884],[32.154244,26.171168],[32.093938,26.189384],[32.04128,26.190004],[32.015235,26.200107],[31.996941,26.246719],[31.965522,26.297413],[31.871368,26.37467],[31.82026,26.445311],[31.812301,26.509287],[31.782174,26.541894],[31.729981,26.543083],[31.706468,26.564167],[31.711739,26.605095],[31.694686,26.631656],[31.655308,26.643749],[31.552627,26.761984],[31.369176,27.009902],[31.340651,27.057108],[31.303547,27.098553],[31.278432,27.122686],[31.244946,27.143641],[30.969304,27.35554],[30.868276,27.500311],[30.88905,27.618547],[30.883934,27.767659],[30.877475,27.901708],[30.863005,27.985217],[30.837426,28.037669],[30.80735,28.085418],[30.773967,28.119938],[30.744253,28.165465],[30.740015,28.229905],[30.762185,28.308557],[30.810864,28.401367],[30.83572,28.492499],[30.836857,28.581977],[30.857889,28.681609],[30.898714,28.791473],[30.994625,28.94304],[31.14552,29.136413],[31.219108,29.281986],[31.215387,29.379757],[31.236058,29.488691],[31.281016,29.608787],[31.286907,29.782601],[31.255385,29.998996],[31.253834,30.080154],[31.237608,30.120694]]]}},{"type":"Feature","properties":{"sigla":"amazonas_w","nome":"Amazonas"},"geometry":{"type":"MultiLineString","coordinates":[[[-52.66417,-1.551791],[-52.873615,-1.611116],[-52.999989,-1.668063],[-53.14489,-1.763871],[-53.357849,-1.838389],[-53.638865,-1.891512],[-53.843297,-1.958123],[-53.971067,-2.038273],[-54.04468,-2.141213],[-54.064162,-2.267045],[-54.186687,-2.35753],[-54.467652,-2.440212],[-54.525116,-2.440316],[-54.564132,-2.440523],[-54.639011,-2.419335],[-54.676192,-2.359287],[-54.674564,-2.253351],[-54.693814,-2.184104],[-54.733915,-2.151651],[-54.793523,-2.119819],[-54.872588,-2.088606],[-54.95664,-2.104212],[-55.045627,-2.166741],[-55.149729,-2.18028],[-55.268998,-2.14483],[-55.375167,-2.082715],[-55.458082,-1.986803],[-55.514849,-1.949493],[-55.554821,-1.923965],[-55.605851,-1.918384],[-55.669361,-1.926549],[-55.735714,-1.963549],[-55.839713,-1.989956],[-55.981332,-2.005665],[-56.129462,-2.079511],[-56.284078,-2.211596],[-56.400867,-2.336291],[-56.479725,-2.453597],[-56.548507,-2.526926],[-56.607185,-2.556381],[-56.676251,-2.574675],[-56.755781,-2.582013],[-56.847351,-2.56651],[-56.951014,-2.528166],[-57.049665,-2.523153],[-57.143277,-2.55142],[-57.244381,-2.526409],[-57.353005,-2.448274],[-57.440028,-2.404659],[-57.505502,-2.395667],[-57.605393,-2.481347],[-57.739752,-2.661801],[-57.882844,-2.783964],[-58.034669,-2.847629],[-58.134973,-2.95863],[-58.183652,-3.116864],[-58.234993,-3.199959],[-58.268066,-3.214274],[-58.315918,-3.211845],[-58.380152,-3.202233],[-58.452576,-3.181511],[-58.549315,-3.20523],[-58.642255,-3.303984],[-58.689048,-3.342328],[-58.805113,-3.347082],[-58.88994,-3.322639],[-58.982208,-3.270549],[-59.091349,-3.238923],[-59.217336,-3.227761],[-59.38146,-3.18425],[-59.583644,-3.108595],[-59.735444,-3.0779],[-59.836833,-3.092162],[-59.896829,-3.127612],[-59.90564,-3.171382],[-59.924502,-3.205954],[-59.957498,-3.237373],[-60.105034,-3.305638],[-60.203116,-3.325223],[-60.279028,-3.302072],[-60.410596,-3.29985],[-60.597769,-3.318557],[-60.746984,-3.398087],[-60.858192,-3.538337],[-61.035933,-3.610374],[-61.280156,-3.614094],[-61.467535,-3.676003],[-61.598069,-3.796305],[-61.717028,-3.883018],[-61.824412,-3.936142],[-61.892651,-3.946787],[-62.011222,-3.895731],[-62.277408,-3.761786],[-62.367376,-3.718067],[-62.39337,-3.716362],[-62.423497,-3.730521],[-62.449438,-3.801938],[-62.543128,-3.851082],[-62.704565,-3.878058],[-62.862902,-3.938312],[-63.018138,-4.03195],[-63.096789,-4.078459],[-63.152238,-4.071534],[-63.177275,-4.035154],[-63.216343,-3.974486],[-63.282928,-3.922913],[-63.449584,-3.870926],[-63.57322,-3.853873],[-63.653809,-3.871856],[-63.747447,-3.868394],[-63.854211,-3.843434],[-64.035492,-3.764576],[-64.29129,-3.631871],[-64.458308,-3.523661],[-64.575614,-3.39819],[-64.790277,-3.222387],[-64.905051,-3.128439],[-65.069744,-2.970516],[-65.179504,-2.834504],[-65.287792,-2.746757],[-65.394633,-2.707276],[-65.458686,-2.663455],[-65.479977,-2.615499],[-65.558189,-2.594312],[-65.760968,-2.602993],[-65.900571,-2.493077],[-65.977337,-2.466154],[-66.037747,-2.485481],[-66.096244,-2.47742],[-66.152778,-2.441866],[-66.21032,-2.459953],[-66.268921,-2.53168],[-66.333956,-2.536744],[-66.405399,-2.475146],[-66.471002,-2.439076],[-66.53074,-2.428534],[-66.572546,-2.478143],[-66.596446,-2.587904],[-66.640991,-2.659166],[-66.706181,-2.691825],[-66.800697,-2.714511],[-66.92454,-2.727327],[-67.07696,-2.695442],[-67.257982,-2.618806],[-67.384021,-2.622837],[-67.455128,-2.70738],[-67.572407,-2.779158],[-67.735886,-2.838224],[-67.846318,-2.927831],[-67.932385,-3.108027],[-67.92652,-3.223265],[-67.945692,-3.283107],[-67.98786,-3.325947],[-68.094572,-3.333905],[-68.265828,-3.306878],[-68.595704,-3.345377],[-69.084176,-3.44935],[-69.35186,-3.552703],[-69.398782,-3.655435],[-69.416274,-3.764059],[-69.404389,-3.878523],[-69.424982,-3.973504],[-69.478002,-4.049055],[-69.480947,-4.111428],[-69.433741,-4.160624],[-69.458778,-4.223101],[-69.556033,-4.298807],[-69.685276,-4.334671],[-69.846506,-4.330536],[-69.948102,-4.285164],[-69.965931,-4.235969],[-70.017194,-4.161968],[-70.09476,-4.092153],[-70.16752,-4.050243],[-70.198397,-3.995156],[-70.240281,-3.882708],[-70.298443,-3.844261],[-70.339499,-3.814341],[-70.379187,-3.818733],[-70.421097,-3.849636],[-70.485847,-3.869376],[-70.529669,-3.866379],[-70.557367,-3.870048],[-70.900473,-3.960068],[-71.057931,-3.985389],[-71.13803,-3.963427],[-71.193272,-3.902759],[-71.283318,-3.868962],[-71.408168,-3.862245],[-71.521391,-3.826381],[-71.622987,-3.761476],[-71.688668,-3.649906],[-71.718433,-3.491673],[-71.751971,-3.39478],[-71.789385,-3.359226],[-71.913977,-3.383721],[-72.125773,-3.46847],[-72.292714,-3.503403],[-72.475855,-3.481028],[-72.746794,-3.45674],[-72.890507,-3.467023],[-72.997322,-3.503713],[-73.093698,-3.562263],[-73.17961,-3.642568],[-73.211366,-3.782973],[-73.18899,-3.983581],[-73.192245,-4.099233],[-73.221184,-4.130032],[-73.268468,-4.135923],[-73.333994,-4.116906],[-73.365671,-4.132512],[-73.363501,-4.182638],[-73.385412,-4.230853],[-73.431455,-4.277103],[-73.46303,-4.336324],[-73.488635,-4.444845]]]}},{"type":"Feature","properties":{"sigla":"mississippi_w","nome":"Mississippi"},"geometry":{"type":"MultiLineString","coordinates":[[[-89.376141,28.981332],[-89.25713,29.154913],[-89.01575,29.202869]],[[-89.260954,29.155146],[-89.288601,29.177522]],[[-89.288601,29.177522],[-89.180778,29.335703]],[[-89.288601,29.177522],[-89.433063,29.294388],[-89.519052,29.347305],[-89.615584,29.386992],[-89.665968,29.415595],[-89.669689,29.4435],[-89.71364,29.485642],[-89.758004,29.505538],[-89.869315,29.608193],[-89.972875,29.688808],[-90.006981,29.753895],[-90.01158,29.810894],[-89.986724,29.85978],[-89.958095,29.875644],[-89.931947,29.87766],[-89.922697,29.888279],[-89.922542,29.90293],[-89.932515,29.913859],[-90.041449,29.932023],[-90.249602,29.942772],[-90.39042,29.976],[-90.463956,30.031656],[-90.58183,30.04752],[-90.744094,30.023491],[-90.849229,30.040337],[-90.878246,30.075219],[-90.897211,30.09806],[-90.944159,30.126714],[-90.990048,30.126378],[-91.021131,30.147101],[-91.037719,30.181285],[-91.074461,30.203583],[-91.109885,30.208828],[-91.133476,30.227199],[-91.129522,30.24818],[-91.147893,30.267817],[-91.17939,30.284896],[-91.191198,30.307194],[-91.187245,30.328175],[-91.195126,30.351791],[-91.225615,30.368431],[-91.235278,30.402486],[-91.217915,30.479458],[-91.226442,30.504857],[-91.258068,30.53408],[-91.257034,30.565215],[-91.276025,30.614566],[-91.338321,30.706188],[-91.387672,30.743808],[-91.422657,30.753343],[-91.529085,30.755978],[-91.557067,30.780034],[-91.546603,30.814734],[-91.523271,30.853776],[-91.526372,30.871036],[-91.545595,30.908346],[-91.618356,30.938112],[-91.646287,30.952426],[-91.659697,30.972012],[-91.657216,30.995989],[-91.652617,31.029553],[-91.611043,31.0649],[-91.596367,31.10991],[-91.63081,31.217604],[-91.618252,31.276954],[-91.558695,31.28791],[-91.528955,31.345193],[-91.529007,31.448753],[-91.505727,31.518697],[-91.459089,31.554973],[-91.414699,31.639981],[-91.372531,31.77372],[-91.28649,31.883971],[-91.156523,31.970685],[-91.092548,32.045848],[-91.088698,32.104139],[-91.07459,32.131321],[-91.048158,32.145919],[-91.004595,32.185581],[-90.947725,32.240074],[-90.937648,32.277332],[-90.940438,32.303093],[-90.944702,32.330714],[-90.990022,32.381047],[-91.059268,32.423758],[-91.103813,32.490498],[-91.100816,32.541373],[-91.116112,32.586228],[-91.14965,32.625012],[-91.142416,32.66103],[-91.094357,32.694258],[-91.092083,32.725858],[-91.135594,32.755779],[-91.13606,32.80885],[-91.093375,32.885021],[-91.096088,32.93768],[-91.144173,32.966877],[-91.152854,33.040568],[-91.106785,33.217921],[-91.117301,33.240814],[-91.163345,33.294454],[-91.168461,33.359463],[-91.14102,33.438502],[-91.154327,33.500204],[-91.192955,33.522528],[-91.202722,33.546971],[-91.214582,33.583403],[-91.172724,33.616682],[-91.170373,33.647456],[-91.207476,33.675671],[-91.184119,33.715668],[-91.100299,33.767448],[-91.077148,33.796697],[-91.052705,33.8276],[-91.038184,33.901394],[-91.05007,33.945163],[-91.070172,33.974206],[-91.060354,33.989295],[-91.043145,34.00286],[-90.9431,34.02968],[-90.914729,34.04862],[-90.908787,34.071564],[-90.940258,34.128563],[-90.909717,34.188766],[-90.817216,34.252225],[-90.768123,34.308113],[-90.762336,34.35643],[-90.718101,34.3917],[-90.635418,34.413869],[-90.584,34.503708],[-90.563846,34.661166],[-90.539248,34.728165],[-90.49721,34.738087],[-90.474756,34.760049],[-90.467573,34.805266],[-90.415948,34.85162],[-90.319934,34.899162],[-90.282106,34.945309],[-90.293424,34.970062],[-90.29376,35.004479],[-90.255958,35.046388],[-90.14227,35.114291],[-90.092919,35.203588],[-90.107879,35.314201],[-90.066021,35.414118],[-89.967345,35.503311],[-89.926521,35.591652],[-89.943497,35.67914],[-89.894559,35.750505],[-89.779657,35.805748],[-89.763585,35.828046],[-89.768107,35.845254],[-89.769941,35.864297],[-89.768934,35.8721],[-89.763585,35.888766],[-89.738212,35.898739],[-89.70377,35.906904],[-89.688913,35.92096],[-89.689171,35.943594],[-89.709325,35.983049],[-89.697698,36.030308],[-89.641887,36.104515],[-89.634136,36.167922],[-89.674547,36.22058],[-89.654083,36.247969],[-89.627986,36.255255],[-89.594629,36.259441],[-89.583544,36.272231],[-89.583544,36.287656],[-89.611708,36.321969],[-89.604086,36.351916],[-89.555277,36.372922],[-89.540601,36.426666],[-89.560032,36.513095],[-89.555484,36.540767],[-89.549645,36.553066],[-89.535589,36.555288],[-89.519517,36.554823],[-89.496831,36.52883],[-89.485385,36.498134],[-89.471484,36.488884],[-89.451821,36.497514],[-89.397458,36.587793],[-89.351311,36.611202],[-89.330537,36.615905],[-89.280126,36.60004],[-89.256123,36.594407],[-89.203051,36.625517],[-89.156335,36.715718],[-89.129515,36.811061],[-89.122487,36.911597],[-89.15432,36.992109],[-89.22491,37.052674],[-89.272401,37.079985],[-89.28147,37.077789],[-89.291676,37.070657],[-89.29581,37.051641],[-89.293252,37.038179],[-89.285888,37.022702],[-89.290022,37.01278],[-89.300823,37.012056],[-89.351879,37.035517],[-89.413942,37.102413],[-89.48691,37.212742],[-89.502929,37.300514],[-89.461976,37.365678],[-89.461976,37.434124],[-89.502929,37.505799],[-89.523419,37.57595],[-89.523419,37.644524],[-89.623284,37.747257],[-89.822961,37.884096],[-89.969826,37.968535],[-90.063877,38.000523],[-90.173586,38.069046],[-90.299005,38.174001],[-90.365771,38.254254],[-90.373987,38.309755],[-90.316601,38.457808],[-90.150745,38.780527],[-90.132193,38.818639],[-90.126767,38.832617],[-90.134209,38.846673],[-90.149918,38.859902],[-90.220069,38.897678],[-90.35435,38.930208],[-90.47796,38.948114],[-90.577076,38.909615],[-90.66353,38.987491],[-90.737221,39.181795],[-90.91938,39.386899],[-91.209905,39.602803],[-91.378732,39.749409],[-91.425861,39.82682],[-91.466815,39.942859],[-91.501644,40.097527],[-91.499784,40.22602],[-91.441958,40.379448],[-91.390773,40.397121],[-91.380541,40.447557],[-91.394183,40.536647],[-91.339045,40.603982],[-91.215124,40.64956],[-91.102134,40.749787],[-91.000125,40.904687],[-90.954003,41.015585],[-90.963822,41.082531],[-91.001339,41.145964],[-91.066503,41.205909],[-91.082109,41.280323],[-91.048106,41.369103],[-90.938759,41.425585],[-90.754067,41.449822],[-90.586739,41.494729],[-90.436671,41.560358],[-90.347529,41.632033],[-90.319236,41.709651],[-90.276009,41.770009],[-90.217769,41.813107],[-90.176609,41.883645],[-90.15245,41.98152],[-90.149427,42.053712],[-90.167514,42.100299],[-90.233221,42.154016],[-90.346573,42.21484],[-90.410497,42.272071],[-90.425044,42.32566],[-90.48473,42.383253],[-90.589633,42.4448],[-90.657329,42.520506],[-90.68787,42.610319],[-90.788742,42.67693],[-90.959946,42.720338],[-91.069578,42.788551],[-91.117585,42.881646],[-91.148152,42.986214],[-91.161329,43.102331],[-91.147583,43.199586],[-91.106966,43.278031],[-91.117198,43.331154],[-91.178357,43.35893],[-91.21869,43.395284],[-91.238276,43.440243],[-91.278428,43.79743],[-91.319924,43.936285],[-91.382685,43.990804],[-91.514848,44.054211],[-91.716438,44.126454],[-91.840978,44.19415],[-91.912291,44.288873],[-92.055125,44.399822],[-92.148582,44.445246],[-92.240307,44.462144],[-92.313094,44.497801],[-92.36694,44.552268],[-92.441587,44.586581],[-92.537033,44.600792],[-92.643539,44.645337],[-92.819884,44.757785],[-92.962563,44.790186],[-93.030207,44.838142],[-93.070412,44.912401],[-93.118755,44.937464],[-93.175237,44.913228],[-93.232495,44.963044],[-93.290528,45.086912],[-93.348999,45.166649],[-93.407859,45.202357],[-93.935863,45.388651],[-94.062987,45.439191],[-94.133293,45.496345],[-94.189207,45.577037],[-94.211996,45.632125],[-94.201712,45.661632],[-94.237782,45.713825],[-94.320155,45.78873],[-94.370539,45.852809],[-94.388833,45.906061],[-94.386404,45.972078],[-94.363149,46.050833],[-94.365785,46.124885],[-94.394233,46.194287],[-94.333461,46.284462],[-94.183445,46.395515],[-94.091383,46.481737],[-94.057225,46.54318],[-93.959479,46.568786],[-93.798093,46.558554],[-93.691795,46.58602],[-93.64061,46.651184],[-93.572035,46.697563],[-93.486045,46.72521],[-93.403673,46.807427],[-93.324815,46.944318],[-93.309157,47.023177],[-93.356596,47.044054],[-93.401864,47.089736],[-93.444937,47.160119],[-93.50855,47.211279],[-93.592757,47.243163],[-93.676111,47.248899],[-93.75869,47.228435],[-93.798248,47.242233],[-93.794838,47.290318],[-93.828944,47.31166],[-93.900568,47.306234],[-93.975835,47.335845],[-94.094122,47.43279]],[[-95.025822,47.156114],[-94.9681,47.3175],[-94.877071,47.451419],[-94.794286,47.482063],[-94.63706,47.439999]],[[-94.50774,47.456535],[-94.326485,47.405634]]]}},{"type":"Feature","properties":{"sigla":"yangtze_w","nome":"Yangtzé"},"geometry":{"type":"MultiLineString","coordinates":[[[113.1277,29.462776],[113.166354,29.484428],[113.209607,29.537836],[113.530156,29.831616],[113.696347,29.949283],[113.760323,29.938741],[113.859852,29.972331],[113.994727,30.050052],[114.011057,30.124466],[113.908841,30.195522],[113.885276,30.246164],[113.940467,30.276292],[113.989559,30.278566],[114.032451,30.252986],[114.11627,30.328382],[114.288456,30.572088],[114.303235,30.593043],[114.395943,30.664433],[114.472011,30.661281],[114.557948,30.6033],[114.66187,30.582139],[114.783826,30.597823],[114.840929,30.564543],[114.833177,30.482274],[114.885215,30.423105],[114.997146,30.387086],[115.057815,30.335797],[115.067323,30.26929],[115.101533,30.229215],[115.160444,30.215572],[115.251808,30.127903],[115.375625,29.966233],[115.504402,29.87921],[115.638038,29.866911],[115.750899,29.82849],[115.842728,29.763998],[115.982823,29.74604],[116.171132,29.774565],[116.211853,29.785159]],[[116.19759,29.751388],[116.211853,29.785159]],[[116.211853,29.785159],[116.327194,29.815183],[116.451115,29.86779],[116.543925,29.931403],[116.605627,30.006024],[116.682935,30.06137],[116.775849,30.097388],[116.846698,30.167694],[116.895532,30.272235],[116.913205,30.349207],[116.899563,30.39861],[116.971961,30.445997],[117.130401,30.491369],[117.212205,30.552321],[117.217373,30.628828],[117.246622,30.673994],[117.326617,30.694768],[117.604636,30.776468],[117.724887,30.886384],[117.779974,31.051748],[117.843794,31.124199],[117.916451,31.103787],[117.968076,31.129573],[117.998772,31.20161],[118.089361,31.255224],[118.239946,31.290442],[118.31188,31.34062],[118.30542,31.405758],[118.33317,31.50986],[118.395182,31.652952],[118.514658,31.841132],[118.691753,32.074425],[118.961401,32.203203],[119.323601,32.227387],[119.530203,32.228834],[119.643064,32.235371],[119.770964,32.206949],[119.866823,32.100341],[119.941496,32.039957],[120.073942,31.960272]]]}},{"type":"Feature","properties":{"sigla":"danubio_w","nome":"Danúbio"},"geometry":{"type":"MultiLineString","coordinates":[[[17.206423,48.061098],[17.480618,47.88762],[17.635286,47.809899],[17.761893,47.770159],[18.14559,47.763416],[18.753615,47.788375],[18.794543,47.809433],[19.000164,47.8192],[19.071322,47.806514],[19.103465,47.779229],[19.123309,47.731247],[19.123929,47.709078],[19.073389,47.552033],[19.060005,47.48103],[19.029671,47.412739],[18.958822,47.36468],[18.907198,47.259984],[18.883633,47.151153],[18.928178,47.08325],[18.93531,47.033047],[18.939961,46.999819],[18.936498,46.884761],[18.944922,46.803603],[18.982852,46.740196],[18.96585,46.685109],[18.89402,46.638291],[18.873608,46.585865],[18.904614,46.527832],[18.918825,46.422929],[18.916241,46.271155],[18.859139,46.151085],[18.747518,46.062667],[18.72695,46.014401],[18.7593,45.93469],[18.839088,45.835756],[18.894485,45.767103],[18.947299,45.655818],[18.917843,45.600834],[18.953706,45.557995],[19.055096,45.527247],[19.064294,45.515],[19.033288,45.502184],[19.007657,45.465804],[19.004659,45.399503],[19.093078,45.336923],[19.272808,45.27796],[19.474708,45.243337],[19.698777,45.233053],[19.82833,45.241477],[19.863367,45.26871],[19.907033,45.25915],[19.959433,45.212899],[20.044803,45.186183],[20.163142,45.179051],[20.253265,45.14988],[20.282308,45.125773],[20.314967,45.098695],[20.3391,45.03844],[20.325561,44.96909],[20.352898,44.910902],[20.421007,44.863825],[20.500434,44.842586],[20.591074,44.847185],[20.635619,44.828401],[20.634069,44.786285],[20.66585,44.74099],[20.731066,44.692595],[20.91276,44.707969],[21.360071,44.82667],[21.523162,44.790083],[21.597059,44.755408],[21.636127,44.71045],[21.740203,44.680684],[21.909288,44.666111],[22.026904,44.619861],[22.09305,44.541933],[22.20095,44.560691],[22.350708,44.676136],[22.497676,44.706264],[22.64206,44.65097],[22.720918,44.605521],[22.734354,44.569915],[22.700765,44.555524],[22.620149,44.562345],[22.554004,44.540331],[22.502327,44.489584],[22.494576,44.435428],[22.530646,44.377963],[22.581805,44.338328],[22.647951,44.316468],[22.683298,44.28647],[22.687845,44.248307],[22.775179,44.195236],[22.945401,44.127281],[23.028497,44.077982],[23.024466,44.047234],[22.985398,44.017003],[22.911294,43.987186],[22.8683,43.947886],[22.856414,43.899026],[22.867679,43.864558],[22.919046,43.834456],[23.224609,43.873886],[23.534564,43.853577],[23.950766,43.786656],[24.22677,43.763479],[24.430581,43.794381],[25.159633,43.686326],[25.49708,43.670797],[25.686112,43.711751],[25.818817,43.766838],[25.933436,43.870552],[26.215796,44.007288],[26.489216,44.083976],[26.847747,44.146195],[27.086905,44.167408],[27.221729,44.143301],[27.266584,44.137797],[27.338311,44.133379],[27.412467,44.137668],[27.594109,44.179267],[27.860243,44.262622],[28.022145,44.342617],[28.079919,44.419305],[28.083382,44.4762],[28.032429,44.513304],[28.012895,44.558107],[28.024677,44.610662],[27.992121,44.663708],[27.907165,44.718769],[27.876676,44.744117],[27.850114,44.768379],[27.830167,44.795612],[27.830684,44.83008],[27.862827,44.864755],[27.894556,44.967617],[27.925975,45.138718],[27.964836,45.26871],[28.011241,45.357593],[28.078938,45.414128],[28.21247,45.450456],[28.317683,45.347129],[28.451266,45.292197],[28.760705,45.234138]]]}},{"type":"Feature","properties":{"sigla":"volga_w","nome":"Volga"},"geometry":{"type":"MultiLineString","coordinates":[[[47.841556,46.734925],[48.113942,46.683249],[48.21993,46.605243],[48.250316,46.483649],[48.313878,46.400579],[48.410616,46.355982],[48.500947,46.272111],[48.683675,46.08618]],[[45.663601,50.222309],[45.489968,50.122006],[45.414417,50.056066],[45.378967,49.991057],[45.360725,49.91623],[45.359588,49.831636],[45.305225,49.736964],[45.197634,49.632113],[45.106942,49.513154],[45.048444,49.407527],[45.010824,49.350631],[44.996355,49.313424],[44.990153,49.293581],[44.986949,49.259138],[44.975684,49.194749],[44.841842,49.012616],[44.587904,48.727465],[44.544341,48.665066],[44.527598,48.598016],[44.595501,48.545151],[44.864528,48.465673],[45.042502,48.434408],[45.129421,48.45141],[45.22771,48.446501],[45.337367,48.419784],[45.411058,48.424486],[45.448782,48.460712],[45.558594,48.451332],[45.733209,48.398597],[45.797959,48.383249],[45.831342,48.368934],[45.864932,48.352656],[45.90865,48.321676],[46.077684,48.218401],[46.155405,48.110087],[46.14662,47.993815],[46.193181,47.917592],[46.295087,47.88147],[46.350484,47.842972],[46.359476,47.802095],[46.408568,47.773002],[46.497865,47.755587],[46.616411,47.672904],[46.764205,47.524955],[46.87469,47.444417],[46.947967,47.431369],[47.008532,47.402843],[47.056591,47.358918],[47.081705,47.315614],[47.085116,47.25169],[47.086201,47.214018],[47.21224,47.143944],[47.463491,47.028913],[47.584982,46.9422],[47.576611,46.883754],[47.611699,46.854582],[47.69035,46.854608],[47.800318,46.772753],[47.941705,46.608938],[48.002063,46.505895],[47.981392,46.463572],[47.980152,46.418278],[47.998239,46.369935],[47.916435,46.249684],[47.734637,46.057396],[47.641103,45.929471],[47.635832,45.865857],[47.610355,45.834154],[47.578109,45.813483],[47.560746,45.789505],[47.563226,45.760566],[47.587204,45.737415],[47.631026,45.693594],[47.649836,45.656748]],[[49.904789,53.456737],[50.042145,53.45467],[50.108084,53.404725],[50.148495,53.30623],[50.128548,53.235588],[50.048346,53.192774],[49.957344,53.185229],[49.855541,53.212902],[49.717358,53.203058],[49.542795,53.155774],[49.427609,53.152467],[49.371695,53.193188],[49.269014,53.218974],[49.119462,53.229749],[48.918751,53.208535],[48.66688,53.155309],[48.524305,53.104847],[48.491025,53.057149],[48.503376,52.995138],[48.561357,52.918812],[48.504926,52.816363],[48.334084,52.68774],[48.177452,52.506098],[48.034929,52.271383],[47.900828,52.124803],[47.775048,52.066305],[47.643635,52.043025],[47.506589,52.054911],[47.272701,51.980962],[47.114262,51.918795],[46.970808,51.83017],[46.842547,51.772964],[46.774644,51.747927]],[[43.432419,56.674991],[43.656901,56.496397],[43.836839,56.403534],[44.046955,56.336923],[44.16731,56.27362],[44.197799,56.213623],[44.258105,56.179672],[44.348332,56.171662],[44.450858,56.140372],[44.565787,56.08575],[44.77611,56.082469],[45.081827,56.130605],[45.280885,56.137039],[45.373283,56.101847],[45.442839,56.103914],[45.489451,56.143292],[45.560144,56.15957],[45.654919,56.152749],[45.736775,56.166494],[45.805711,56.200833],[45.87227,56.198844],[45.936349,56.1605],[46.025026,56.171559],[46.1383,56.231917],[46.294053,56.286823],[46.492181,56.336277],[46.679714,56.308915],[46.856551,56.204683],[47.165938,56.150785],[47.828947,56.14541],[47.886101,56.121769],[47.92739,56.073348],[47.971935,55.992267],[48.066917,55.925321],[48.212334,55.872456],[48.459709,55.825275],[48.809042,55.78383],[49.002518,55.692983],[49.058949,55.48266]],[[37.148255,56.752402],[37.391961,56.861646],[37.477434,56.934768],[37.485805,57.008149],[37.557739,57.106334],[37.760931,57.290819]],[[32.598248,57.250356],[32.680827,57.079049],[32.675246,57.00944],[32.692041,56.972492],[32.729351,56.944897],[32.850843,56.9319],[33.056515,56.933476],[33.282393,56.899266],[33.528476,56.829245],[33.674927,56.765269],[33.721746,56.707443],[33.815538,56.640677],[33.956408,56.565101],[33.979663,56.50929],[33.885508,56.473272],[33.844477,56.444514],[33.856776,56.423016],[34.049839,56.35656],[34.42377,56.245146],[34.668406,56.208662],[34.783748,56.247006],[34.861831,56.289794],[34.902655,56.336975],[34.908857,56.368911],[34.880435,56.385499],[34.890977,56.415678],[34.940483,56.459345],[34.955779,56.50265],[34.936865,56.545541],[35.001202,56.578459],[35.222584,56.612927],[35.333895,56.703258],[35.421797,56.742273],[35.523393,56.76005],[35.606799,56.791107],[35.672014,56.835446],[35.772525,56.860664],[35.908331,56.866762],[36.065737,56.84622],[36.244847,56.799014],[36.344376,56.758138],[36.374555,56.706358]],[[41.343658,57.49308],[41.715315,57.447553],[41.889206,57.451222],[41.989148,57.488946],[42.173271,57.484709],[42.575831,57.415462]],[[40.007098,57.566667],[39.853309,57.668832],[39.798119,57.725211],[39.790367,57.769885],[39.696626,57.831302],[39.517102,57.909437],[39.246473,57.989691],[38.704026,58.113146]],[[38.300949,57.571628],[38.445592,57.760919],[38.479646,57.872437],[38.437065,58.017544]]]}},{"type":"Feature","properties":{"sigla":"reno_w","nome":"Reno"},"geometry":{"type":"MultiLineString","coordinates":[[[8.23002,48.965435],[8.417295,49.213999],[8.485922,49.330374],[8.498221,49.397399],[8.488919,49.436208],[8.45781,49.44675],[8.421843,49.505092],[8.380812,49.611236],[8.38939,49.690068],[8.431403,49.728489],[8.436829,49.767195],[8.401482,49.815228],[8.357351,49.911372],[8.304641,49.98067],[8.243352,50.023097],[8.129044,50.026404],[7.961613,49.990696],[7.803224,50.042088],[7.653879,50.180658],[7.606751,50.222361],[7.611195,50.266441],[7.628816,50.323802],[7.607836,50.366642],[7.556624,50.400076],[7.44366,50.432788],[7.343666,50.485833],[7.256746,50.559162],[7.203623,50.621613],[7.184502,50.673186],[7.125074,50.734216],[7.025442,50.804677],[6.99454,50.852607],[6.99454,50.904025],[6.973249,50.938338],[6.968392,50.998076],[6.937696,51.040089],[6.881058,51.064274],[6.850983,51.097191],[6.847469,51.138843],[6.816308,51.168867],[6.7575,51.187263],[6.759722,51.227261],[6.741119,51.268189],[6.689546,51.30276],[6.698382,51.364462],[6.707167,51.421823],[6.697607,51.457815],[6.693421,51.48678],[6.687478,51.524401],[6.623916,51.55923],[6.593014,51.591838],[6.595804,51.637469],[6.357214,51.775031],[6.211745,51.836991],[6.079764,51.869212],[6.038629,51.872183],[5.975274,51.87673],[5.898173,51.859574],[5.780454,51.863398],[5.622117,51.888203],[5.491582,51.877945],[5.388953,51.832676],[5.24953,51.813479],[4.98536,51.82371]]]}},{"type":"Feature","properties":{"sigla":"ganges_w","nome":"Ganges"},"geometry":{"type":"MultiLineString","coordinates":[[[89.483148,22.27554],[89.425271,22.495526],[89.372147,22.58118],[89.299697,22.618852]],[[89.299697,22.618852],[89.260785,22.573558],[89.255462,22.445349],[89.286468,22.307579],[89.35375,22.160301],[89.378555,22.058085],[89.3522,21.972303],[89.350547,21.885641],[89.335819,21.788386],[89.35375,21.721103]],[[88.439749,22.986478],[88.385024,22.867958],[88.34668,22.735253],[88.343786,22.629265],[88.290043,22.549399],[88.185346,22.495604],[88.117547,22.410234],[88.087058,22.217714]],[[88.439749,22.986478],[88.518453,22.975342],[88.597931,22.974774],[88.682164,22.953793],[88.756268,22.914984],[88.82045,22.858373],[88.842619,22.802846],[88.822878,22.748328],[88.845254,22.700243],[88.909643,22.65854],[88.971448,22.510926],[89.049945,22.274636],[89.055836,22.186243],[89.051443,22.093174]],[[90.074378,23.573419],[90.096031,23.340307],[90.127243,23.25194],[90.180883,23.205922],[90.228426,23.178482],[90.243619,23.138252],[90.265219,23.115592],[90.298757,23.088074],[90.302116,23.05451],[90.315242,23.015598],[90.361648,22.961054],[90.361338,22.875865],[90.394307,22.774838],[90.435028,22.751919]],[[89.109373,23.991921],[89.218565,23.80847],[89.301764,23.732505],[89.381242,23.6938],[89.447181,23.640185],[89.499581,23.571662],[89.520045,23.524766],[89.508676,23.499444],[89.526866,23.483373],[89.574719,23.476552],[89.598335,23.443091],[89.597818,23.383043],[89.615026,23.336974],[89.632493,23.301084],[89.637557,23.252483],[89.659727,23.222924],[89.709491,23.192331],[89.718638,23.133394],[89.765353,23.020068],[89.926274,22.840182],[90.007561,22.685231],[90.013555,22.563481],[89.985133,22.466381]],[[89.109373,23.991921],[89.199755,23.932648],[89.280887,23.930788],[89.37995,23.901125],[89.497049,23.843558],[89.604019,23.823094],[89.749282,23.848054]],[[88.396961,24.389261],[88.510133,24.261388],[88.533749,24.208471],[88.526928,24.165554],[88.554213,24.128863],[88.615708,24.098478],[88.642993,24.059359],[88.636172,24.011584],[88.690225,23.967762],[88.805257,23.92792],[88.864426,23.855909],[88.867837,23.751729],[88.837193,23.665791],[88.772391,23.598095],[88.763709,23.530657],[88.811045,23.463478],[88.852799,23.440714],[88.884683,23.423454],[88.905509,23.389942],[88.925973,23.363484],[88.988915,23.332788],[89.001731,23.263361],[89.027517,23.186079],[89.088754,23.112595],[89.112938,23.04048],[89.099812,22.969684],[89.113455,22.892556],[89.153866,22.809125],[89.208436,22.748741],[89.268433,22.707503],[89.275512,22.702671],[89.270861,22.678952],[89.299697,22.618852]],[[88.396961,24.389261],[88.498557,24.346628],[88.642321,24.325957],[88.723505,24.274901],[88.742212,24.193407],[88.769755,24.144289],[88.806239,24.127494],[88.858277,24.131086],[88.925973,24.155063],[89.009637,24.108684],[89.109373,23.991921]],[[87.919833,24.825048],[87.940193,24.666014],[88.018845,24.542533],[88.174598,24.388796],[88.238056,24.234258],[88.209014,24.07897],[88.205397,23.944689],[88.226998,23.831414],[88.215422,23.739637],[88.183383,23.700104],[88.213717,23.636749],[88.271853,23.587346],[88.303789,23.542672],[88.344613,23.530321],[88.360736,23.460558],[88.352158,23.333356],[88.375206,23.255428],[88.429983,23.226774],[88.46688,23.18613],[88.486051,23.133524],[88.458715,23.027484],[88.439749,22.986478]],[[87.919833,24.825048],[87.946291,24.753166],[87.999363,24.661441],[88.079048,24.549923],[88.145452,24.485793],[88.225034,24.460626],[88.287149,24.479746],[88.337533,24.453857],[88.396961,24.389261]],[[79.840739,30.888477],[79.820276,30.836826],[79.828802,30.78701],[79.859498,30.72182],[79.864614,30.679006],[79.833918,30.648285],[79.744931,30.543201],[79.667107,30.522117],[79.570782,30.550022],[79.470219,30.515993],[79.313123,30.372074],[79.232094,30.30089],[79.158921,30.284767],[79.066523,30.300063],[78.939296,30.291846],[78.777238,30.260065],[78.668718,30.201361],[78.613838,30.115733],[78.519786,30.089817],[78.386565,30.12364],[78.281041,30.092892],[78.203113,29.997601],[78.17035,29.889132],[78.182856,29.767537],[78.139448,29.673073],[78.040126,29.605687],[78.022194,29.491844],[78.085549,29.331543],[78.106013,29.180881],[78.083586,29.03983],[78.098313,28.882113],[78.176035,28.620501],[78.242491,28.521722],[78.271016,28.443329],[78.283728,28.352378],[78.336852,28.253418],[78.430386,28.146422],[78.60314,28.026429],[78.855218,27.893492],[79.02482,27.824762],[79.111947,27.820214],[79.167499,27.786289],[79.19158,27.722985],[79.255142,27.680171],[79.358392,27.657795],[79.44619,27.620356],[79.51864,27.567775],[79.590574,27.466489],[79.661991,27.316498],[79.732787,27.217435],[79.838052,27.145243],[79.922491,27.12558],[79.998352,27.024862],[80.093851,26.836553],[80.237718,26.648038],[80.429851,26.459264],[80.543901,26.317309],[80.579764,26.222172],[80.651749,26.138353],[80.75996,26.065954],[80.868687,26.037532],[80.978138,26.05319],[81.122832,25.988776],[81.302769,25.844366],[81.394598,25.745509],[81.398215,25.692256],[81.45754,25.645851],[81.572572,25.606344],[81.648743,25.563608],[81.686053,25.517668],[81.755558,25.498935],[81.857154,25.50741],[81.906815,25.48692],[81.903249,25.412764],[82.042052,25.312357],[82.11998,25.284659],[82.183129,25.296234],[82.215168,25.272463],[82.217028,25.258924],[82.225865,25.243498],[82.239094,25.241302],[82.254494,25.245694],[82.274286,25.261766],[82.299866,25.260474],[82.318366,25.230192],[82.344979,25.226523],[82.379809,25.249364],[82.43562,25.235049],[82.512618,25.183579],[82.55215,25.183967],[82.563467,25.202777],[82.584965,25.218409],[82.619588,25.219701],[82.785934,25.144021],[82.878797,25.141618],[82.965096,25.187662],[83.016618,25.238796],[83.033258,25.294968],[83.07403,25.330134],[83.138936,25.344241],[83.159297,25.376539],[83.135215,25.426975],[83.138729,25.47152],[83.170045,25.510174],[83.241565,25.518856],[83.353497,25.497591],[83.439589,25.465707],[83.489251,25.444158],[83.513487,25.461779],[83.513487,25.497074],[83.518138,25.533842],[83.59958,25.584072],[83.669653,25.607016],[83.712751,25.590325],[83.752232,25.54162],[83.803392,25.518934],[83.86623,25.522318],[83.959093,25.577044],[84.081979,25.683187],[84.171018,25.7221],[84.226208,25.693833],[84.283517,25.701041],[84.342894,25.743752],[84.42847,25.747163],[84.539987,25.711247],[84.634142,25.708328],[84.710933,25.738326],[84.826688,25.747008],[84.981408,25.734399],[85.11897,25.682567],[85.23917,25.591565],[85.338492,25.543971],[85.412441,25.534798],[85.456107,25.53777],[85.500807,25.544901],[85.555119,25.543635],[85.617751,25.493741],[85.696609,25.473794],[85.78601,25.494568],[85.880061,25.462219],[85.978969,25.376694],[86.097825,25.323623],[86.236731,25.303004],[86.370728,25.340805],[86.499816,25.437104],[86.571026,25.447672],[86.584359,25.372534],[86.61676,25.315354],[86.668126,25.27608],[86.74285,25.279827],[86.840932,25.32662],[86.964956,25.320083],[87.115127,25.260241],[87.218584,25.266985],[87.275324,25.340366],[87.350462,25.382715],[87.443893,25.394006],[87.517635,25.366436],[87.571689,25.299981],[87.643726,25.25696],[87.733746,25.2374],[87.779325,25.193191],[87.780461,25.124358],[87.824335,25.064362],[87.911048,25.013202],[87.942415,24.955945],[87.918541,24.892641],[87.919833,24.825048]]]}},{"type":"Feature","properties":{"sigla":"mekong_w","nome":"Mekong"},"geometry":{"type":"MultiLineString","coordinates":[[[104.951145,11.590921],[104.9513,11.50829],[104.976156,11.471548],[105.025662,11.453229],[105.041268,11.427675],[105.022872,11.394912],[105.044059,11.211874],[105.104934,10.878561],[105.311019,10.535171],[105.830988,10.000734]],[[104.951145,11.590921],[105.181053,11.446278],[105.266164,11.356413],[105.282184,11.274144],[105.266061,11.180351],[105.217795,11.074983],[105.199088,10.978038],[105.210044,10.889517],[105.248594,10.825128],[105.314843,10.784846],[105.357683,10.723325],[105.377217,10.640591],[105.49013,10.529332],[105.696526,10.389599],[105.87946,10.299191],[105.930981,10.28361],[106.136395,10.221702]],[[101.563651,17.820515],[101.687468,17.889399],[101.744105,17.952703],[101.774801,18.033422],[101.818623,18.064634],[101.875467,18.046418],[101.947452,18.081481],[102.034578,18.169847],[102.101499,18.210646],[102.148215,18.203876],[102.231672,18.14897],[102.351872,18.045927],[102.45879,17.984639],[102.552531,17.965105],[102.598213,17.926761],[102.596043,17.869607],[102.616817,17.83333],[102.660638,17.817957],[102.680069,17.824106],[102.675211,17.851753],[102.717638,17.892242],[102.807451,17.945572],[102.89866,17.976888],[102.991368,17.986241],[103.051312,18.028512],[103.0912,18.138253]],[[103.09038,18.137059],[103.0912,18.138253]],[[103.0912,18.138253],[103.092343,18.141399]],[[103.0912,18.138253],[103.148516,18.22173],[103.199675,18.259454],[103.263186,18.278471],[103.279619,18.304981],[103.248923,18.338984],[103.251713,18.373478],[103.288249,18.408412],[103.366952,18.42332],[103.487978,18.418153],[103.629675,18.382548],[103.792249,18.316479],[103.898857,18.295292],[103.949552,18.319011],[104.048719,18.216718],[104.196204,17.98836],[104.322656,17.815812],[104.428179,17.698972],[104.539232,17.609287],[104.655917,17.546733],[104.739685,17.461673],[104.816062,17.300288],[104.759012,17.077149],[104.743509,16.88437],[104.75064,16.647537],[104.81937,16.466075],[104.949904,16.339933],[105.025765,16.238001],[105.047159,16.160254],[105.148755,16.09354],[105.330656,16.03791],[105.406311,15.987448],[105.375615,15.94218],[105.373186,15.889676],[105.398921,15.829861],[105.462018,15.780407],[105.562373,15.741262],[105.622111,15.699972],[105.641025,15.656538],[105.638906,15.585948],[105.615652,15.488254],[105.573742,15.41322],[105.513178,15.360871],[105.520309,15.331054],[105.59524,15.323794],[105.66614,15.273332],[105.781688,15.120524],[105.868091,15.032855],[105.906539,14.944359],[105.925866,14.825762],[105.914755,14.712901],[105.873311,14.605724],[105.859513,14.494619],[105.873259,14.379691],[105.864112,14.267372],[105.831969,14.157715],[105.855172,14.070098],[105.93372,14.00452],[105.980539,13.947934],[105.995732,13.900289],[105.996249,13.852023],[105.982296,13.803085],[105.990668,13.751771],[106.021467,13.698105],[106.00462,13.60935],[105.940025,13.485534],[105.918166,13.405229],[105.949327,13.35009],[106.022655,13.195836],[106.025033,13.060753],[105.980901,12.893374],[105.978369,12.68256],[106.01754,12.428311],[105.98457,12.289431],[105.879667,12.265892],[105.763395,12.26411],[105.635754,12.284108],[105.543357,12.20432],[105.486099,12.024796],[105.388947,11.936378],[105.252005,11.938961],[105.168031,11.9201],[105.137128,11.879792],[105.089586,11.8546],[105.025352,11.844523],[105.000031,11.821553],[105.013363,11.785689],[105.001788,11.747061],[104.965097,11.705694],[104.948199,11.662493],[104.951145,11.590921]]]}},{"type":"Feature","properties":{"sigla":"congo_w","nome":"Congo"},"geometry":{"type":"MultiLineString","coordinates":[[[26.441311,-8.272001],[26.654322,-8.223115],[26.742378,-8.19304],[26.776485,-8.165393],[26.793538,-8.124103],[26.793538,-8.069223],[26.83829,-8.01088],[26.92769,-7.94923],[26.972752,-7.900138],[26.973269,-7.863757],[26.928569,-7.803813],[26.838548,-7.720304],[26.865368,-7.528791],[27.009132,-7.229171],[27.048716,-6.991253],[26.984121,-6.815139],[26.961331,-6.663624],[26.980245,-6.536707],[26.970168,-6.421882],[26.931101,-6.319149],[26.906089,-6.172594],[26.895237,-5.982219],[26.89994,-5.817784],[26.930481,-5.610252]],[[24.292295,0.78171],[24.178194,0.923717],[24.004871,1.021592],[23.734397,1.122671],[23.460718,1.341831],[23.183836,1.679019],[22.967828,1.873245],[22.734871,1.950036],[22.557001,2.101216],[22.396494,2.160592],[22.194026,2.178498],[21.96882,2.177619],[21.720773,2.157931],[21.499288,2.112507],[21.304261,2.041374],[20.943818,1.994711],[20.417855,1.97249],[19.901866,1.864434],[19.142842,1.573599],[18.714135,1.223233],[18.526136,1.052184],[18.435909,0.943664],[18.342943,0.691999],[18.199231,0.099788],[18.184348,0.063097],[18.108538,-0.124075],[17.899817,-0.390829],[17.75285,-0.549062],[17.542837,-0.774991],[17.27877,-0.999577],[17.107618,-1.064483],[16.974706,-1.13993],[16.879931,-1.22592],[16.84908,-1.27248],[16.780092,-1.376401],[16.622479,-1.698966],[16.540727,-1.840146],[16.433602,-1.960862],[16.273922,-2.108243],[16.215372,-2.1778],[16.19155,-2.279137],[16.201833,-2.464707],[16.217336,-3.030254],[16.190619,-3.19443],[16.146746,-3.464129],[15.990063,-3.766178],[15.872448,-3.934282],[15.754625,-3.985545],[15.600061,-4.030916],[15.526009,-4.087967],[15.480947,-4.171786],[15.394647,-4.24496],[15.267213,-4.307592],[15.106293,-4.461071],[14.912093,-4.705604],[14.779284,-4.84575],[14.707867,-4.881717],[14.63397,-4.885076],[14.557592,-4.855776],[14.493927,-4.851642],[14.417653,-4.883061],[14.233943,-4.912413],[14.133122,-4.945021],[14.053851,-4.990599],[14.004551,-5.051991],[13.985224,-5.129247],[13.93794,-5.204643],[13.862803,-5.27823],[13.831694,-5.300968],[13.809008,-5.30288],[13.776555,-5.278696],[13.751802,-5.278696],[13.734749,-5.30288],[13.691909,-5.309908],[13.623386,-5.299676],[13.573673,-5.315903],[13.542977,-5.358536],[13.550005,-5.413778],[13.594757,-5.481577],[13.590726,-5.512945],[13.565198,-5.53129],[13.553106,-5.576042],[13.563545,-5.655003],[13.512126,-5.743422],[13.398748,-5.8414],[13.30263,-5.881863],[13.184343,-5.856283],[13.068174,-5.864861]]]}},{"type":"Feature","properties":{"sigla":"tigre_w","nome":"Tigre"},"geometry":{"type":"MultiLineString","coordinates":[[[42.376566,37.062493],[42.433617,36.989784],[42.46638,36.967434],[42.489169,36.959579],[42.509323,36.940665],[42.51294,36.875837],[42.558674,36.832481],[42.713083,36.784783],[42.758558,36.755173],[42.774475,36.733159],[42.760832,36.718741],[42.85757,36.707527],[42.895191,36.691301],[42.901289,36.661561],[42.886096,36.6458],[42.849509,36.643991],[42.811165,36.60867],[42.771167,36.539837],[42.844341,36.478497],[43.030686,36.42465],[43.168663,36.333648],[43.258269,36.205439],[43.317491,36.076196],[43.346326,35.945868],[43.343226,35.857812],[43.307982,35.812026],[43.29744,35.765414],[43.3116,35.717975],[43.299301,35.681879],[43.260647,35.657074],[43.248348,35.586407],[43.262404,35.469825],[43.348031,35.31632],[43.505231,35.125867],[43.568431,35.006184],[43.537529,34.957221],[43.584038,34.832009],[43.707854,34.630496],[43.784646,34.453091],[43.814515,34.299715],[43.854202,34.193727],[43.903811,34.135074],[43.960345,34.098074],[44.05543,34.075104],[44.23237,34.050015],[44.32854,34.019009],[44.402851,33.973715],[44.427345,33.909197],[44.402024,33.825481],[44.398458,33.768895],[44.416752,33.73944],[44.400009,33.696858],[44.348436,33.641254],[44.318256,33.585857],[44.309678,33.530667],[44.323941,33.451033],[44.361045,33.346854],[44.396701,33.293369],[44.430808,33.290578],[44.480004,33.235078],[44.544289,33.126971],[44.674617,33.023695],[44.870988,32.925226],[44.980955,32.887192],[45.026585,32.891248],[45.041365,32.879156],[45.041365,32.856341],[45.044465,32.832286],[45.079502,32.803476],[45.139602,32.785389],[45.224764,32.778],[45.260214,32.751619],[45.258664,32.713662],[45.298403,32.663485],[45.383669,32.60354],[45.522007,32.555739],[45.809122,32.502202],[46.029883,32.618681],[46.136595,32.63222],[46.201397,32.587546],[46.343611,32.54158],[46.563236,32.494348],[46.692168,32.442568],[46.730409,32.386344],[46.735163,32.32149],[46.706328,32.248058],[46.698886,32.190697],[46.712632,32.149433],[46.755369,32.112123],[46.826992,32.078766],[46.888487,32.013886],[46.939854,31.917458],[47.00786,31.8679],[47.092506,31.865213],[47.138549,31.825758],[47.146094,31.749484],[47.220818,31.62732],[47.362929,31.459165],[47.433932,31.286049],[47.441322,30.99909]]]}},{"type":"Feature","properties":{"sigla":"eufrates_w","nome":"Eufrates"},"geometry":{"type":"MultiLineString","coordinates":[[[45.463096,31.305195],[45.540766,31.22874],[45.685098,31.18404],[45.922086,31.145541],[46.121144,31.086087],[46.363093,30.965371],[46.483292,30.902584],[46.579617,30.90168],[46.692065,30.941781],[46.885542,30.958834],[47.16015,30.952917],[47.331406,30.96656],[47.399309,30.999814],[47.442097,31.004439],[47.468452,30.968472]],[[40.992568,34.428467],[41.119072,34.38772],[41.176898,34.392888],[41.208214,34.430405],[41.275858,34.442859],[41.379935,34.43025],[41.430061,34.436038],[41.448251,34.439888],[41.470523,34.449164],[41.501788,34.436038],[41.590723,34.448337],[41.717123,34.497119],[41.827194,34.509057],[41.920935,34.484149],[41.989613,34.446115],[42.055035,34.369324],[42.122163,34.301731],[42.169602,34.28814],[42.219728,34.305942],[42.248047,34.296977],[42.26293,34.289561],[42.286184,34.292197],[42.303237,34.33408],[42.329851,34.346483],[42.365921,34.329429],[42.366334,34.301834],[42.330988,34.263645],[42.331814,34.231218],[42.368918,34.204502],[42.383284,34.165408],[42.375119,34.113887],[42.417236,34.058981],[42.446536,34.040506],[42.509736,34.000638],[42.551129,33.943587],[42.541414,33.887803],[42.563428,33.870336],[42.617172,33.891213],[42.672879,33.889611],[42.730446,33.865478],[42.747551,33.819641],[42.72409,33.751997],[42.767292,33.671123],[42.877156,33.576917],[42.965471,33.520848],[43.03234,33.502813],[43.078952,33.504622],[43.105514,33.526171],[43.155227,33.515009],[43.228194,33.471136],[43.287673,33.454832],[43.333665,33.466149],[43.45433,33.442429],[43.535617,33.417986],[43.649667,33.383673],[43.775757,33.31143],[43.832498,33.225698],[43.872289,33.198646],[43.905362,33.198646],[43.947633,33.194667],[44.029075,33.159708],[44.122041,33.052944],[44.253661,32.828177],[44.262549,32.792934],[44.263583,32.726995],[44.236608,32.624004],[44.25547,32.496363],[44.321305,32.348517],[44.354947,32.235449],[44.356497,32.157211],[44.387348,32.072461],[44.447603,31.981278],[44.476851,31.877874],[44.475094,31.762299],[44.548113,31.648094],[44.769805,31.478854],[45.041882,31.440717],[45.158154,31.402657],[45.209313,31.352014],[45.292874,31.321318],[45.46692,31.305195]]]}},
{"type":"Feature","properties":{"sigla":"sena_w","nome":"Sena"},"geometry":{"type":"LineString","coordinates":[[4.75,47.7],[3.5,48.1],[2.6,48.5],[2.35,48.85],[1.5,49.1],[0.7,49.3],[0.15,49.48]]}},
{"type":"Feature","properties":{"sigla":"niger_w","nome":"Níger"},"geometry":{"type":"LineString","coordinates":[[-11.5,9.5],[-9.5,11.5],[-7.5,13.5],[-5.0,15.5],[-3.0,16.7],[-1.0,15.5],[1.5,14.0],[2.1,13.5],[3.5,11.5],[5.0,8.5],[6.3,5.3]]}},
{"type":"Feature","properties":{"sigla":"indo_w","nome":"Indo"},"geometry":{"type":"LineString","coordinates":[[81.0,31.0],[78.0,33.5],[76.0,34.5],[74.0,34.0],[72.5,33.5],[71.0,31.5],[70.5,29.0],[69.5,26.5],[68.0,25.0],[67.4,24.4]]}}
]}