{"type":"FeatureCollection","features":[
{"type":"Feature","properties":{"sigla":"cook","nome":"Estreito de Cook"},"geometry":{"type":"Point","coordinates":[174.6,-41.1]}},
{"type":"Feature","properties":{"sigla":"bass","nome":"Estreito de Bass"},"geometry":{"type":"Point","coordinates":[145.5,-39.4]}},
{"type":"Feature","properties":{"sigla":"torres","nome":"Estreito de Torres"},"geometry":{"type":"Point","coordinates":[142.5,-10.15]}},
{"type":"Feature","properties":{"sigla":"malaca","nome":"Estreito de Malaca"},"geometry":{"type":"Point","coordinates":[100.75,3.5]}},
{"type":"Feature","properties":{"sigla":"sunda","nome":"Estreito de Sunda"},"geometry":{"type":"Point","coordinates":[105.75,-5.9]}},
{"type":"Feature","properties":{"sigla":"palk","nome":"Estreito de Palk"},"geometry":{"type":"Point","coordinates":[79.65,9.8]}},
{"type":"Feature","properties":{"sigla":"babelmandeb","nome":"Bab-el-Mandeb"},"geometry":{"type":"Point","coordinates":[43.35,12.6]}},
{"type":"Feature","properties":{"sigla":"ormuz","nome":"Estreito de Ormuz"},"geometry":{"type":"Point","coordinates":[56.25,26.4]}},
{"type":"Feature","properties":{"sigla":"hainan","nome":"Estreito de Hainan"},"geometry":{"type":"Point","coordinates":[110.25,20.2]}},
{"type":"Feature","properties":{"sigla":"taiwan","nome":"Estreito de Taiwan"},"geometry":{"type":"Point","coordinates":[118.65,24.25]}},
{"type":"Feature","properties":{"sigla":"coreia","nome":"Estreito da Coreia"},"geometry":{"type":"Point","coordinates":[129.5,34.1]}},
{"type":"Feature","properties":{"sigla":"tsugaru","nome":"Estreito de Tsugaru"},"geometry":{"type":"Point","coordinates":[140.6,41.5]}},
{"type":"Feature","properties":{"sigla":"seto","nome":"Mar Interior de Seto"},"geometry":{"type":"Point","coordinates":[133.5,34.4]}},
{"type":"Feature","properties":{"sigla":"kanmon","nome":"Estreito de Kanmon"},"geometry":{"type":"Point","coordinates":[130.95,33.95]}},
{"type":"Feature","properties":{"sigla":"laperouse","nome":"Estreito de La Pérouse"},"geometry":{"type":"Point","coordinates":[142.0,45.75]}},
{"type":"Feature","properties":{"sigla":"tartaria","nome":"Estreito da Tartária"},"geometry":{"type":"Point","coordinates":[141.65,52.75]}},
{"type":"Feature","properties":{"sigla":"matochkin","nome":"Estreito de Matochkin"},"geometry":{"type":"Point","coordinates":[55.5,73.3]}},
{"type":"Feature","properties":{"sigla":"kara","nome":"Estreito de Kara"},"geometry":{"type":"Point","coordinates":[58.0,70.5]}},
{"type":"Feature","properties":{"sigla":"oresund","nome":"Öresund"},"geometry":{"type":"Point","coordinates":[12.65,55.75]}},
{"type":"Feature","properties":{"sigla":"mancha","nome":"Canal da Mancha"},"geometry":{"type":"Point","coordinates":[-0.3,50.35]}},
{"type":"Feature","properties":{"sigla":"norte","nome":"Canal do Norte"},"geometry":{"type":"Point","coordinates":[-5.75,55.05]}},
{"type":"Feature","properties":{"sigla":"gibraltar","nome":"Estreito de Gibraltar"},"geometry":{"type":"Point","coordinates":[-5.55,36.0]}},
{"type":"Feature","properties":{"sigla":"bosforo","nome":"Bósforo"},"geometry":{"type":"Point","coordinates":[29.05,41.115]}},
{"type":"Feature","properties":{"sigla":"dardanelos","nome":"Dardanelos"},"geometry":{"type":"Point","coordinates":[26.55,40.225]}},
{"type":"Feature","properties":{"sigla":"messina","nome":"Estreito de Messina"},"geometry":{"type":"Point","coordinates":[15.64,38.2]}},
{"type":"Feature","properties":{"sigla":"bonifacio","nome":"Estreito de Bonifácio"},"geometry":{"type":"Point","coordinates":[9.2,41.375]}},
{"type":"Feature","properties":{"sigla":"euripo","nome":"Estreito de Euripo"},"geometry":{"type":"Point","coordinates":[23.59,38.45]}},
{"type":"Feature","properties":{"sigla":"magalhaes","nome":"Estreito de Magalhães"},"geometry":{"type":"Point","coordinates":[-71.5,-53.15]}},
{"type":"Feature","properties":{"sigla":"yucatan","nome":"Canal de Yucatán"},"geometry":{"type":"Point","coordinates":[-85.65,21.55]}},
{"type":"Feature","properties":{"sigla":"ventos","nome":"Passagem dos Ventos"},"geometry":{"type":"Point","coordinates":[-74.15,20.0]}},
{"type":"Feature","properties":{"sigla":"florida","nome":"Estreito da Flórida"},"geometry":{"type":"Point","coordinates":[-81.1,24.1]}},
{"type":"Feature","properties":{"sigla":"belleisle","nome":"Estreito de Belle Isle"},"geometry":{"type":"Point","coordinates":[-56.55,51.6]}},
{"type":"Feature","properties":{"sigla":"georgia","nome":"Estreito da Geórgia"},"geometry":{"type":"Point","coordinates":[-123.6,49.35]}},
{"type":"Feature","properties":{"sigla":"bering","nome":"Estreito de Bering"},"geometry":{"type":"Point","coordinates":[-169.0,65.8]}}
]}
